id;house_number;street;post_code;city;district;geojson_geometry;post_station_id
0;11;Bahnhofstraße;78120;Furtwangen im Schwarzwald;4;{'type': 'Point', 'coordinates': [8.2065548, 48.0493965]};1
1;8;Grieshaberstraße;78120;Furtwangen im Schwarzwald;4;{'type': 'Point', 'coordinates': [8.2057763, 48.0529674]};1
3;2;Bismarckstraße;78120;Furtwangen im Schwarzwald;4;{'type': 'Point', 'coordinates': [8.2055882, 48.0517458]};1
4;17;Wilhelmstraße;78120;Furtwangen im Schwarzwald;4;{'type': 'Point', 'coordinates': [8.2042586, 48.0497431]};1
6;3;Hafnergässle;78120;Furtwangen im Schwarzwald;4;{'type': 'Point', 'coordinates': [8.2045616, 48.0535244]};1
7;1;Robert-Gerwig-Platz;78120;Furtwangen im Schwarzwald;4;{'type': 'Point', 'coordinates': [8.2075067, 48.05139]};1
8;3;Wilhelmstraße;78120;Furtwangen im Schwarzwald;4;{'type': 'Point', 'coordinates': [8.2057329, 48.050538]};1
9;2;Lindenstraße;78120;Furtwangen im Schwarzwald;4;{'type': 'Point', 'coordinates': [8.2070956, 48.0511316]};1
10;9;Bismarckstraße;78120;Furtwangen im Schwarzwald;4;{'type': 'Point', 'coordinates': [8.2043464, 48.0524088]};1
11;18;Allmendstraße;78120;Furtwangen im Schwarzwald;4;{'type': 'Point', 'coordinates': [8.2093021, 48.051262]};1
12;1;Unterallmendstraße;78120;Furtwangen im Schwarzwald;4;{'type': 'Point', 'coordinates': [8.2097363, 48.0509332]};1
13;7;Unterallmendstraße;78120;Furtwangen im Schwarzwald;4;{'type': 'Point', 'coordinates': [8.2100797, 48.0507223]};1
14;5;Unterallmendstraße;78120;Furtwangen im Schwarzwald;4;{'type': 'Point', 'coordinates': [8.2099992, 48.0507554]};1
15;3;Unterallmendstraße;78120;Furtwangen im Schwarzwald;4;{'type': 'Point', 'coordinates': [8.2098423, 48.0508703]};1
16;9;Unterallmendstraße;78120;Furtwangen im Schwarzwald;4;{'type': 'Point', 'coordinates': [8.2102254, 48.0506623]};1
17;11;Unterallmendstraße;78120;Furtwangen im Schwarzwald;4;{'type': 'Point', 'coordinates': [8.2103291, 48.0505609]};1
18;13;Unterallmendstraße;78120;Furtwangen im Schwarzwald;4;{'type': 'Point', 'coordinates': [8.2104269, 48.0505204]};1
19;8;Gerwigstraße;78120;Furtwangen im Schwarzwald;4;{'type': 'Point', 'coordinates': [8.2069638, 48.0511906]};1
20;3;Friedrichstraße;78120;Furtwangen im Schwarzwald;4;{'type': 'Point', 'coordinates': [8.2054578, 48.0525732]};1
22;5;Grieshaberstraße;78120;Furtwangen im Schwarzwald;4;{'type': 'Point', 'coordinates': [8.2047899, 48.0530659]};1
23;1/1;Kreuzerstraße;78120;Furtwangen im Schwarzwald;4;{'type': 'Point', 'coordinates': [8.2065911, 48.0532071]};1
24;13;Lochhofstraße;78120;Furtwangen im Schwarzwald;4;{'type': 'Point', 'coordinates': [8.2167536, 48.0513209]};1
25;15;Lochhofstraße;78120;Furtwangen im Schwarzwald;4;{'type': 'Point', 'coordinates': [8.2165024, 48.0513735]};1
26;19;Lochhofstraße;78120;Furtwangen im Schwarzwald;4;{'type': 'Point', 'coordinates': [8.2167274, 48.051766]};1
27;17;Lochhofstraße;78120;Furtwangen im Schwarzwald;4;{'type': 'Point', 'coordinates': [8.2169814, 48.0516991]};1
28;6;Am Engelgrund;78120;Furtwangen im Schwarzwald;4;{'type': 'Point', 'coordinates': [8.2120703, 48.0476004]};1
37;8;Obertalstraße;78120;Furtwangen im Schwarzwald;4;{'type': 'Point', 'coordinates': [8.2160855, 48.0474378]};1
38;6;Wilhelmstraße;78120;Furtwangen im Schwarzwald;4;{'type': 'Point', 'coordinates': [8.2048085, 48.0502291]};1
39;8;Wilhelmstraße;78120;Furtwangen im Schwarzwald;4;{'type': 'Point', 'coordinates': [8.2046958, 48.0501753]};1
40;11;Baumannstraße;78120;Furtwangen im Schwarzwald;4;{'type': 'Point', 'coordinates': [8.205551, 48.0494542]};1
41;14;Bahnhofstraße;78120;Furtwangen im Schwarzwald;4;{'type': 'Point', 'coordinates': [8.2061395, 48.0494029]};1
42;19;Wilhelmstraße;78120;Furtwangen im Schwarzwald;4;{'type': 'Point', 'coordinates': [8.2039477, 48.0496437]};1
43;25;Wilhelmstraße;78120;Furtwangen im Schwarzwald;4;{'type': 'Point', 'coordinates': [8.2036298, 48.0494834]};1
44;4;Wilhelmstraße;78120;Furtwangen im Schwarzwald;4;{'type': 'Point', 'coordinates': [8.2049398, 48.05032]};1
45;14;Wilhelmstraße;78120;Furtwangen im Schwarzwald;4;{'type': 'Point', 'coordinates': [8.2042815, 48.0500454]};1
46;18;Wilhelmstraße;78120;Furtwangen im Schwarzwald;4;{'type': 'Point', 'coordinates': [8.2038692, 48.0498605]};1
48;10;Bismarckstraße;78120;Furtwangen im Schwarzwald;4;{'type': 'Point', 'coordinates': [8.2044273, 48.0526725]};1
49;10;Friedrichstraße;78120;Furtwangen im Schwarzwald;4;{'type': 'Point', 'coordinates': [8.2044433, 48.0553904]};1
51;10;Werderstraße;78120;Furtwangen im Schwarzwald;4;{'type': 'Point', 'coordinates': [8.2038895, 48.0557152]};1
53;12;Friedrichstraße;78120;Furtwangen im Schwarzwald;4;{'type': 'Point', 'coordinates': [8.2043691, 48.0555446]};1
55;13;Bismarckstraße;78120;Furtwangen im Schwarzwald;4;{'type': 'Point', 'coordinates': [8.2041358, 48.0526881]};1
57;14;Bismarckstraße;78120;Furtwangen im Schwarzwald;4;{'type': 'Point', 'coordinates': [8.2040899, 48.0530135]};1
58;14;Friedrichstraße;78120;Furtwangen im Schwarzwald;4;{'type': 'Point', 'coordinates': [8.204295, 48.0556988]};1
61;16;Bismarckstraße;78120;Furtwangen im Schwarzwald;4;{'type': 'Point', 'coordinates': [8.204017, 48.0530752]};1
66;19;Grieshaberstraße;78120;Furtwangen im Schwarzwald;4;{'type': 'Point', 'coordinates': [8.2058571, 48.0533783]};1
68;2;Friedrichstraße;78120;Furtwangen im Schwarzwald;4;{'type': 'Point', 'coordinates': [8.2057834, 48.0525067]};1
69;23;Friedrichstraße;78120;Furtwangen im Schwarzwald;4;{'type': 'Point', 'coordinates': [8.2042114, 48.0551362]};1
70;25;Friedrichstraße;78120;Furtwangen im Schwarzwald;4;{'type': 'Point', 'coordinates': [8.2041721, 48.0552159]};1
71;27;Friedrichstraße;78120;Furtwangen im Schwarzwald;4;{'type': 'Point', 'coordinates': [8.2041328, 48.0552956]};1
72;29;Friedrichstraße;78120;Furtwangen im Schwarzwald;4;{'type': 'Point', 'coordinates': [8.2040935, 48.0553754]};1
73;3;Bismarckstraße;78120;Furtwangen im Schwarzwald;4;{'type': 'Point', 'coordinates': [8.2050225, 48.0518092]};1
74;31;Friedrichstraße;78120;Furtwangen im Schwarzwald;4;{'type': 'Point', 'coordinates': [8.2040543, 48.0554551]};1
75;33;Friedrichstraße;78120;Furtwangen im Schwarzwald;4;{'type': 'Point', 'coordinates': [8.204015, 48.0555349]};1
76;35;Friedrichstraße;78120;Furtwangen im Schwarzwald;4;{'type': 'Point', 'coordinates': [8.2039757, 48.0556146]};1
82;8;Bismarckstraße;78120;Furtwangen im Schwarzwald;4;{'type': 'Point', 'coordinates': [8.2044884, 48.0526118]};1
83;9;Werderstraße;78120;Furtwangen im Schwarzwald;4;{'type': 'Point', 'coordinates': [8.2037268, 48.0558711]};1
166;2;Rößleplatz;78120;Furtwangen im Schwarzwald;4;{'type': 'Point', 'coordinates': [8.2069335, 48.0528615]};1
205;1;Josef-Zähringer-Straße;78120;Furtwangen im Schwarzwald;4;{'type': 'Point', 'coordinates': [8.2263858, 48.0468057]};1
206;11;Josef-Zähringer-Straße;78120;Furtwangen im Schwarzwald;4;{'type': 'Point', 'coordinates': [8.2285624, 48.0466447]};1
207;13;Josef-Zähringer-Straße;78120;Furtwangen im Schwarzwald;4;{'type': 'Point', 'coordinates': [8.2289843, 48.0463843]};1
208;15;Josef-Zähringer-Straße;78120;Furtwangen im Schwarzwald;4;{'type': 'Point', 'coordinates': [8.2297719, 48.046333]};1
209;17;Josef-Zähringer-Straße;78120;Furtwangen im Schwarzwald;4;{'type': 'Point', 'coordinates': [8.2302962, 48.04639]};1
210;5;Josef-Zähringer-Straße;78120;Furtwangen im Schwarzwald;4;{'type': 'Point', 'coordinates': [8.2273026, 48.0467998]};1
211;7;Josef-Zähringer-Straße;78120;Furtwangen im Schwarzwald;4;{'type': 'Point', 'coordinates': [8.2277594, 48.0466831]};1
212;9;Josef-Zähringer-Straße;78120;Furtwangen im Schwarzwald;4;{'type': 'Point', 'coordinates': [8.2282875, 48.0466279]};1
213;10;Josef-Zähringer-Straße;78120;Furtwangen im Schwarzwald;4;{'type': 'Point', 'coordinates': [8.2294234, 48.0460767]};1
214;12;Josef-Zähringer-Straße;78120;Furtwangen im Schwarzwald;4;{'type': 'Point', 'coordinates': [8.2298936, 48.0460969]};1
215;14;Josef-Zähringer-Straße;78120;Furtwangen im Schwarzwald;4;{'type': 'Point', 'coordinates': [8.2302236, 48.0461267]};1
216;10;Am Hofrain;78120;Furtwangen im Schwarzwald;4;{'type': 'Point', 'coordinates': [8.2210746, 48.0487447]};1
217;12;Am Hofrain;78120;Furtwangen im Schwarzwald;4;{'type': 'Point', 'coordinates': [8.2213026, 48.0486907]};1
218;16;Am Hofrain;78120;Furtwangen im Schwarzwald;4;{'type': 'Point', 'coordinates': [8.2219707, 48.0484411]};1
219;18;Am Hofrain;78120;Furtwangen im Schwarzwald;4;{'type': 'Point', 'coordinates': [8.2220965, 48.0484014]};1
220;20;Am Hofrain;78120;Furtwangen im Schwarzwald;4;{'type': 'Point', 'coordinates': [8.2222376, 48.0483481]};1
221;22;Am Hofrain;78120;Furtwangen im Schwarzwald;4;{'type': 'Point', 'coordinates': [8.2225058, 48.0482489]};1
222;24;Am Hofrain;78120;Furtwangen im Schwarzwald;4;{'type': 'Point', 'coordinates': [8.2226341, 48.0481905]};1
223;26;Am Hofrain;78120;Furtwangen im Schwarzwald;4;{'type': 'Point', 'coordinates': [8.2227828, 48.0481305]};1
224;33;Vogt-Dufner-Straße;78120;Furtwangen im Schwarzwald;4;{'type': 'Point', 'coordinates': [8.2220394, 48.0481858]};1
225;35;Vogt-Dufner-Straße;78120;Furtwangen im Schwarzwald;4;{'type': 'Point', 'coordinates': [8.222176, 48.0481152]};1
226;37;Vogt-Dufner-Straße;78120;Furtwangen im Schwarzwald;4;{'type': 'Point', 'coordinates': [8.2224422, 48.0480004]};1
227;39;Vogt-Dufner-Straße;78120;Furtwangen im Schwarzwald;4;{'type': 'Point', 'coordinates': [8.2225941, 48.0479434]};1
228;4;Am Hofrain;78120;Furtwangen im Schwarzwald;4;{'type': 'Point', 'coordinates': [8.2205396, 48.0488607]};1
229;41;Vogt-Dufner-Straße;78120;Furtwangen im Schwarzwald;4;{'type': 'Point', 'coordinates': [8.2227248, 48.0478815]};1
230;5;Lochhofstraße;78120;Furtwangen im Schwarzwald;4;{'type': 'Point', 'coordinates': [8.2163775, 48.0504689]};1
231;6;Am Hofrain;78120;Furtwangen im Schwarzwald;4;{'type': 'Point', 'coordinates': [8.2207544, 48.0488127]};1
232;7;Lochhofstraße;78120;Furtwangen im Schwarzwald;4;{'type': 'Point', 'coordinates': [8.2164188, 48.0505242]};1
233;8;Am Hofrain;78120;Furtwangen im Schwarzwald;4;{'type': 'Point', 'coordinates': [8.2208402, 48.0487878]};1
234;31;Sommerbergstraße;78120;Furtwangen im Schwarzwald;4;{'type': 'Point', 'coordinates': [8.2134605, 48.0505825]};1
235;57;Allmendstraße;78120;Furtwangen im Schwarzwald;4;{'type': 'Point', 'coordinates': [8.2124429, 48.0502556]};1
236;45;Allmendstraße;78120;Furtwangen im Schwarzwald;4;{'type': 'Point', 'coordinates': [8.2105222, 48.0508036]};1
237;47;Allmendstraße;78120;Furtwangen im Schwarzwald;4;{'type': 'Point', 'coordinates': [8.2105938, 48.0507577]};1
238;49;Allmendstraße;78120;Furtwangen im Schwarzwald;4;{'type': 'Point', 'coordinates': [8.2108867, 48.0506737]};1
239;51;Allmendstraße;78120;Furtwangen im Schwarzwald;4;{'type': 'Point', 'coordinates': [8.2109901, 48.0506434]};1
240;10;Sonnhalde;78120;Furtwangen im Schwarzwald;4;{'type': 'Point', 'coordinates': [8.2110502, 48.0520035]};1
241;12;Sonnhalde;78120;Furtwangen im Schwarzwald;4;{'type': 'Point', 'coordinates': [8.2107717, 48.052078]};1
242;14;Sonnhalde;78120;Furtwangen im Schwarzwald;4;{'type': 'Point', 'coordinates': [8.2105871, 48.0521415]};1
243;16;Sonnhalde;78120;Furtwangen im Schwarzwald;4;{'type': 'Point', 'coordinates': [8.2103655, 48.0522548]};1
244;17;Sonnhalde;78120;Furtwangen im Schwarzwald;4;{'type': 'Point', 'coordinates': [8.2103471, 48.0519693]};1
245;18;Sonnhalde;78120;Furtwangen im Schwarzwald;4;{'type': 'Point', 'coordinates': [8.2102529, 48.0523068]};1
246;19;Sonnhalde;78120;Furtwangen im Schwarzwald;4;{'type': 'Point', 'coordinates': [8.2102159, 48.0520532]};1
247;20;Sonnhalde;78120;Furtwangen im Schwarzwald;4;{'type': 'Point', 'coordinates': [8.2100245, 48.0524348]};1
248;21;Sonnhalde;78120;Furtwangen im Schwarzwald;4;{'type': 'Point', 'coordinates': [8.2099928, 48.0521716]};1
249;22;Sonnhalde;78120;Furtwangen im Schwarzwald;4;{'type': 'Point', 'coordinates': [8.2099464, 48.0524945]};1
250;23;Sonnhalde;78120;Furtwangen im Schwarzwald;4;{'type': 'Point', 'coordinates': [8.2098846, 48.0522497]};1
251;24;Sonnhalde;78120;Furtwangen im Schwarzwald;4;{'type': 'Point', 'coordinates': [8.2097105, 48.052631]};1
252;25;Sonnhalde;78120;Furtwangen im Schwarzwald;4;{'type': 'Point', 'coordinates': [8.2097304, 48.0523432]};1
253;26;Sonnhalde;78120;Furtwangen im Schwarzwald;4;{'type': 'Point', 'coordinates': [8.209641, 48.0526831]};1
254;27;Sonnhalde;78120;Furtwangen im Schwarzwald;4;{'type': 'Point', 'coordinates': [8.2095762, 48.0524366]};1
255;28;Sonnhalde;78120;Furtwangen im Schwarzwald;4;{'type': 'Point', 'coordinates': [8.2094171, 48.0527886]};1
256;29;Sonnhalde;78120;Furtwangen im Schwarzwald;4;{'type': 'Point', 'coordinates': [8.2093445, 48.0525742]};1
257;30;Sonnhalde;78120;Furtwangen im Schwarzwald;4;{'type': 'Point', 'coordinates': [8.209333, 48.0528986]};1
258;31;Sonnhalde;78120;Furtwangen im Schwarzwald;4;{'type': 'Point', 'coordinates': [8.2092678, 48.0526236]};1
259;32;Sonnhalde;78120;Furtwangen im Schwarzwald;4;{'type': 'Point', 'coordinates': [8.2092144, 48.0530969]};1
260;34;Sonnhalde;78120;Furtwangen im Schwarzwald;4;{'type': 'Point', 'coordinates': [8.2091214, 48.0532155]};1
261;36;Sonnhalde;78120;Furtwangen im Schwarzwald;4;{'type': 'Point', 'coordinates': [8.2090234, 48.0533729]};1
262;38;Sonnhalde;78120;Furtwangen im Schwarzwald;4;{'type': 'Point', 'coordinates': [8.2089241, 48.0534881]};1
263;40;Sonnhalde;78120;Furtwangen im Schwarzwald;4;{'type': 'Point', 'coordinates': [8.2086951, 48.0536683]};1
264;42;Sonnhalde;78120;Furtwangen im Schwarzwald;4;{'type': 'Point', 'coordinates': [8.2085811, 48.0537373]};1
265;44;Sonnhalde;78120;Furtwangen im Schwarzwald;4;{'type': 'Point', 'coordinates': [8.2081997, 48.0539038]};1
266;46;Sonnhalde;78120;Furtwangen im Schwarzwald;4;{'type': 'Point', 'coordinates': [8.2080709, 48.0539494]};1
267;48;Sonnhalde;78120;Furtwangen im Schwarzwald;4;{'type': 'Point', 'coordinates': [8.2077207, 48.0541278]};1
268;50;Sonnhalde;78120;Furtwangen im Schwarzwald;4;{'type': 'Point', 'coordinates': [8.2076547, 48.0541758]};1
269;8;Sonnhalde;78120;Furtwangen im Schwarzwald;4;{'type': 'Point', 'coordinates': [8.2111451, 48.0519559]};1
270;3;Lindenstraße;78120;Furtwangen im Schwarzwald;4;{'type': 'Point', 'coordinates': [8.2068784, 48.0508301]};1
272;9;Bahnhofstraße;78120;Furtwangen im Schwarzwald;4;{'type': 'Point', 'coordinates': [8.2063103, 48.0498656]};1
273;17;Marktplatz;78120;Furtwangen im Schwarzwald;4;{'type': 'Point', 'coordinates': [8.2057202, 48.0512301]};1
274;11b;Wilhelmstraße;78120;Furtwangen im Schwarzwald;4;{'type': 'Point', 'coordinates': [8.2048235, 48.0498453]};1
275;27;Marktplatz;78120;Furtwangen im Schwarzwald;4;{'type': 'Point', 'coordinates': [8.2058435, 48.0506374]};1
276;11;Wilhelmstraße;78120;Furtwangen im Schwarzwald;4;{'type': 'Point', 'coordinates': [8.2048785, 48.0500473]};1
277;7;Wilhelmstraße;78120;Furtwangen im Schwarzwald;4;{'type': 'Point', 'coordinates': [8.2051141, 48.0502072]};1
278;11a;Wilhelmstraße;78120;Furtwangen im Schwarzwald;4;{'type': 'Point', 'coordinates': [8.2047534, 48.04999]};1
279;15;Wilhelmstraße;78120;Furtwangen im Schwarzwald;4;{'type': 'Point', 'coordinates': [8.204474, 48.0498382]};1
280;21;Wilhelmstraße;78120;Furtwangen im Schwarzwald;4;{'type': 'Point', 'coordinates': [8.2038476, 48.0496029]};1
281;23;Wilhelmstraße;78120;Furtwangen im Schwarzwald;4;{'type': 'Point', 'coordinates': [8.2037544, 48.0495542]};1
285;25;Marktplatz;78120;Furtwangen im Schwarzwald;4;{'type': 'Point', 'coordinates': [8.2058462, 48.0508634]};1
286;6;Lindenstraße;78120;Furtwangen im Schwarzwald;4;{'type': 'Point', 'coordinates': [8.206556, 48.0509664]};1
294;10;Wilhelmstraße;78120;Furtwangen im Schwarzwald;4;{'type': 'Point', 'coordinates': [8.2045698, 48.0501215]};1
295;3;Bahnhofstraße;78120;Furtwangen im Schwarzwald;4;{'type': 'Point', 'coordinates': [8.2062232, 48.0504903]};1
296;2;Wilhelmstraße;78120;Furtwangen im Schwarzwald;4;{'type': 'Point', 'coordinates': [8.2051138, 48.0504453]};1
300;3;Grieshaberstraße;78120;Furtwangen im Schwarzwald;4;{'type': 'Point', 'coordinates': [8.204673, 48.0530498]};1
307;3;Goethestraße;78120;Furtwangen im Schwarzwald;4;{'type': 'Point', 'coordinates': [8.2092682, 48.0497051]};1
308;1;Goethestraße;78120;Furtwangen im Schwarzwald;4;{'type': 'Point', 'coordinates': [8.2093754, 48.0497374]};1
309;18;Goethestraße;78120;Furtwangen im Schwarzwald;4;{'type': 'Point', 'coordinates': [8.2078305, 48.0494792]};1
310;16;Goethestraße;78120;Furtwangen im Schwarzwald;4;{'type': 'Point', 'coordinates': [8.2079673, 48.0495222]};1
311;15;Bahnhofstraße;78120;Furtwangen im Schwarzwald;4;{'type': 'Point', 'coordinates': [8.2066584, 48.0492425]};1
312;13;Bahnhofstraße;78120;Furtwangen im Schwarzwald;4;{'type': 'Point', 'coordinates': [8.2066074, 48.049333]};1
313;1;Bahnhofstraße;78120;Furtwangen im Schwarzwald;4;{'type': 'Point', 'coordinates': [8.2062346, 48.0506195]};1
314;23;Marktplatz;78120;Furtwangen im Schwarzwald;4;{'type': 'Point', 'coordinates': [8.2058912, 48.0509261]};1
315;21;Marktplatz;78120;Furtwangen im Schwarzwald;4;{'type': 'Point', 'coordinates': [8.2058778, 48.0510193]};1
316;19;Marktplatz;78120;Furtwangen im Schwarzwald;4;{'type': 'Point', 'coordinates': [8.2060415, 48.0511628]};1
317;4;Lindenstraße;78120;Furtwangen im Schwarzwald;4;{'type': 'Point', 'coordinates': [8.2066865, 48.0509978]};1
318;16;Wilhelmstraße;78120;Furtwangen im Schwarzwald;4;{'type': 'Point', 'coordinates': [8.2041103, 48.0499256]};1
319;12;Wilhelmstraße;78120;Furtwangen im Schwarzwald;4;{'type': 'Point', 'coordinates': [8.2043919, 48.0500906]};1
320;8;Baumannstraße;78120;Furtwangen im Schwarzwald;4;{'type': 'Point', 'coordinates': [8.2045998, 48.0489152]};1
321;8/1;Baumannstraße;78120;Furtwangen im Schwarzwald;4;{'type': 'Point', 'coordinates': [8.204518, 48.0488579]};1
325;46/1;Bismarckstraße;78120;Furtwangen im Schwarzwald;4;{'type': 'Point', 'coordinates': [8.203437, 48.0553752]};1
326;46;Bismarckstraße;78120;Furtwangen im Schwarzwald;4;{'type': 'Point', 'coordinates': [8.2033807, 48.0553546]};1
328;28;Bismarckstraße;78120;Furtwangen im Schwarzwald;4;{'type': 'Point', 'coordinates': [8.2037616, 48.053983]};1
329;26;Bismarckstraße;78120;Furtwangen im Schwarzwald;4;{'type': 'Point', 'coordinates': [8.2037777, 48.0539077]};1
334;13/1;Bismarckstraße;78120;Furtwangen im Schwarzwald;4;{'type': 'Point', 'coordinates': [8.2041089, 48.0527217]};1
336;3;Fohrenstraße;78120;Furtwangen im Schwarzwald;4;{'type': 'Point', 'coordinates': [8.2069078, 48.0537894]};1
337;4/1;Fohrenstraße;78120;Furtwangen im Schwarzwald;4;{'type': 'Point', 'coordinates': [8.2067308, 48.0540422]};1
338;4;Fohrenstraße;78120;Furtwangen im Schwarzwald;4;{'type': 'Point', 'coordinates': [8.206822, 48.0538611]};1
339;1;Kreuzerstraße;78120;Furtwangen im Schwarzwald;4;{'type': 'Point', 'coordinates': [8.2067844, 48.053092]};1
340;5;Friedrichstraße;78120;Furtwangen im Schwarzwald;4;{'type': 'Point', 'coordinates': [8.2053602, 48.0527388]};1
342;6a;Auf dem Moos;78120;Furtwangen im Schwarzwald;4;{'type': 'Point', 'coordinates': [8.2147479, 48.0489045]};1
343;1/1;In der Wanne;78120;Furtwangen im Schwarzwald;4;{'type': 'Point', 'coordinates': [8.2167917, 48.053819]};1
345;2;In der Wanne;78120;Furtwangen im Schwarzwald;4;{'type': 'Point', 'coordinates': [8.2169124, 48.0549584]};1
346;1;In der Wanne;78120;Furtwangen im Schwarzwald;4;{'type': 'Point', 'coordinates': [8.2168534, 48.0548848]};1
347;33;Allmendstraße;78120;Furtwangen im Schwarzwald;4;{'type': 'Point', 'coordinates': [8.2092091, 48.0516451]};1
348;31;Allmendstraße;78120;Furtwangen im Schwarzwald;4;{'type': 'Point', 'coordinates': [8.2091635, 48.0516989]};1
349;23;Allmendstraße;78120;Furtwangen im Schwarzwald;4;{'type': 'Point', 'coordinates': [8.2086217, 48.052157]};1
350;19;Allmendstraße;78120;Furtwangen im Schwarzwald;4;{'type': 'Point', 'coordinates': [8.2085292, 48.0522018]};1
351;15;Allmendstraße;78120;Furtwangen im Schwarzwald;4;{'type': 'Point', 'coordinates': [8.2081819, 48.0522798]};1
352;13;Allmendstraße;78120;Furtwangen im Schwarzwald;4;{'type': 'Point', 'coordinates': [8.208088, 48.0523488]};1
353;18/1;Allmendstraße;78120;Furtwangen im Schwarzwald;4;{'type': 'Point', 'coordinates': [8.2093325, 48.0512058]};1
354;11a;Unterallmendstraße;78120;Furtwangen im Schwarzwald;4;{'type': 'Point', 'coordinates': [8.2104094, 48.0506105]};1
357;7/1;Josef-Zähringer-Straße;78120;Furtwangen im Schwarzwald;4;{'type': 'Point', 'coordinates': [8.2280624, 48.0467851]};1
358;34;Am Bodenwald;78120;Furtwangen im Schwarzwald;4;{'type': 'Point', 'coordinates': [8.211666, 48.0517078]};1
361;18;Bahnhofstraße;78120;Furtwangen im Schwarzwald;4;{'type': 'Point', 'coordinates': [8.206071, 48.0492048]};1
362;24;Bahnhofstraße;78120;Furtwangen im Schwarzwald;4;{'type': 'Point', 'coordinates': [8.2062373, 48.0485898]};1
363;15;Baumannstraße;78120;Furtwangen im Schwarzwald;4;{'type': 'Point', 'coordinates': [8.2064357, 48.0497033]};1
364;22;Goethestraße;78120;Furtwangen im Schwarzwald;4;{'type': 'Point', 'coordinates': [8.2072136, 48.0493536]};1
366;4;Am Engelgrund;78120;Furtwangen im Schwarzwald;4;{'type': 'Point', 'coordinates': [8.2123741, 48.047713]};1
367;32;Sommerbergstraße;78120;Furtwangen im Schwarzwald;4;{'type': 'Point', 'coordinates': [8.2127953, 48.0503828]};1
368;57a;Allmendstraße;78120;Furtwangen im Schwarzwald;4;{'type': 'Point', 'coordinates': [8.2126504, 48.0503936]};1
369;8;Fohrenstraße;78120;Furtwangen im Schwarzwald;4;{'type': 'Point', 'coordinates': [8.2059449, 48.0549978]};1
373;6;Bismarckstraße;78120;Furtwangen im Schwarzwald;4;{'type': 'Point', 'coordinates': [8.2046597, 48.0524421]};1
376;1;Lindenstraße;78120;Furtwangen im Schwarzwald;4;{'type': 'Point', 'coordinates': [8.2071385, 48.0508432]};1
377;6;Gerwigstraße;78120;Furtwangen im Schwarzwald;4;{'type': 'Point', 'coordinates': [8.2065034, 48.0514131]};1
380;21;Unterallmendstraße;78120;Furtwangen im Schwarzwald;4;{'type': 'LineString', 'coordinates': [[8.2106475, 48.0500198], [8.2105695, 48.0499267], [8.2112938, 48.0496593], [8.2113503, 48.0497296], [8.2112923, 48.049752], [8.2113131, 48.049776], [8.2113804, 48.0498605], [8.2107202, 48.0501042], [8.2105573, 48.050164], [8.2105015, 48.0500992], [8.2106625, 48.0500372], [8.2106475, 48.0500198]]};1
381;38;Baumannstraße;78120;Furtwangen im Schwarzwald;4;{'type': 'LineString', 'coordinates': [[8.2093086, 48.0503022], [8.2095407, 48.0503685], [8.2097694, 48.0504338], [8.2099271, 48.0501868], [8.2098194, 48.0501561], [8.2097704, 48.0502328], [8.2097431, 48.050225], [8.209773, 48.0501783], [8.2096875, 48.0501539], [8.2096101, 48.0501318], [8.2095785, 48.0501812], [8.2095544, 48.0501743], [8.2096034, 48.0500977], [8.2094646, 48.050058], [8.2093086, 48.0503022]]};1
384;15;Gerwigstraße;78120;Furtwangen im Schwarzwald;4;{'type': 'LineString', 'coordinates': [[8.2085549, 48.0508823], [8.2085095, 48.050907], [8.2085591, 48.0509478], [8.2084014, 48.0510334], [8.2083473, 48.0509889], [8.2083917, 48.0509648], [8.2081203, 48.0507416], [8.2083694, 48.0506062], [8.2085923, 48.0507895], [8.2085018, 48.0508387], [8.2085549, 48.0508823]]};1
388;1;Am Kirchberg;78120;Furtwangen im Schwarzwald;4;{'type': 'LineString', 'coordinates': [[8.2053434, 48.050905], [8.2050889, 48.0508667], [8.2050768, 48.0509026], [8.2050354, 48.0508964], [8.2050412, 48.0508791], [8.2050308, 48.0508775], [8.2050292, 48.0508823], [8.2049147, 48.0508651], [8.2049385, 48.0507945], [8.2049245, 48.0507921], [8.2048918, 48.050759], [8.2049044, 48.0507159], [8.2049563, 48.0506944], [8.2049707, 48.050697], [8.2049943, 48.0506269], [8.205105, 48.0506436], [8.205104, 48.0506466], [8.2051177, 48.0506486], [8.2051224, 48.0506346], [8.2051612, 48.0506405], [8.2051484, 48.0506786], [8.2053992, 48.0507163], [8.205403, 48.050705], [8.2054409, 48.0507107], [8.2054371, 48.0507218], [8.2055215, 48.0507345], [8.2055051, 48.0507831], [8.2055496, 48.0507898], [8.2055187, 48.0508818], [8.2054702, 48.0508745], [8.2054547, 48.0509205], [8.2053767, 48.0509088], [8.2053734, 48.0509186], [8.2053404, 48.0509137], [8.2053434, 48.050905]]};1
389;19a;Unterallmendstraße;78120;Furtwangen im Schwarzwald;4;{'type': 'LineString', 'coordinates': [[8.211592, 48.0501795], [8.2116425, 48.0502644], [8.2118998, 48.0501955], [8.2118493, 48.0501106], [8.211592, 48.0501795]]};1
390;35;Baumannstraße;78120;Furtwangen im Schwarzwald;4;{'type': 'LineString', 'coordinates': [[8.2096418, 48.0505807], [8.2095634, 48.0507042], [8.2093841, 48.0506533], [8.2094625, 48.0505298], [8.2096418, 48.0505807]]};1
391;36;Baumannstraße;78120;Furtwangen im Schwarzwald;4;{'type': 'LineString', 'coordinates': [[8.2087324, 48.0501599], [8.2087857, 48.0500842], [8.2089371, 48.0501319], [8.2088838, 48.0502075], [8.2087324, 48.0501599]]};1
392;24;Baumannstraße;78120;Furtwangen im Schwarzwald;4;{'type': 'LineString', 'coordinates': [[8.2068885, 48.0496686], [8.2069416, 48.0495842], [8.207105, 48.0496302], [8.2070519, 48.0497146], [8.2068885, 48.0496686]]};1
393;34;Baumannstraße;78120;Furtwangen im Schwarzwald;4;{'type': 'LineString', 'coordinates': [[8.2084497, 48.0500827], [8.2084998, 48.0500073], [8.2086832, 48.0500619], [8.2086331, 48.0501373], [8.2084497, 48.0500827]]};1
394;26;Baumannstraße;78120;Furtwangen im Schwarzwald;4;{'type': 'LineString', 'coordinates': [[8.2072145, 48.0497553], [8.2073021, 48.0496214], [8.2076189, 48.049714], [8.2075573, 48.0498083], [8.2075111, 48.0497948], [8.2074852, 48.0498344], [8.2072145, 48.0497553]]};1
395;28;Baumannstraße;78120;Furtwangen im Schwarzwald;4;{'type': 'LineString', 'coordinates': [[8.2076839, 48.0498866], [8.2077234, 48.0498239], [8.207848, 48.0498591], [8.2078086, 48.0499217], [8.2076839, 48.0498866]]};1
396;36/1;Baumannstraße;78120;Furtwangen im Schwarzwald;4;{'type': 'LineString', 'coordinates': [[8.2089087, 48.0502292], [8.2089856, 48.0501297], [8.2090909, 48.0501661], [8.209014, 48.0502656], [8.2089087, 48.0502292]]};1
397;32;Baumannstraße;78120;Furtwangen im Schwarzwald;4;{'type': 'LineString', 'coordinates': [[8.208135, 48.0499808], [8.2081848, 48.049897], [8.2083363, 48.0499372], [8.2082865, 48.050021], [8.208135, 48.0499808]]};1
398;20;Baumannstraße;78120;Furtwangen im Schwarzwald;4;{'type': 'LineString', 'coordinates': [[8.2064145, 48.049532], [8.2064531, 48.0494558], [8.2065913, 48.0494871], [8.2065753, 48.0495179], [8.2065494, 48.0495674], [8.2064145, 48.049532]]};1
399;22;Baumannstraße;78120;Furtwangen im Schwarzwald;4;{'type': 'LineString', 'coordinates': [[8.206695, 48.0496058], [8.2067269, 48.0495552], [8.2067617, 48.0495004], [8.2069311, 48.0495506], [8.2068649, 48.0496505], [8.206695, 48.0496058]]};1
401;50;Bismarckstraße;78120;Furtwangen im Schwarzwald;4;{'type': 'LineString', 'coordinates': [[8.2033336, 48.0555555], [8.2033599, 48.0554843], [8.2035386, 48.0555138], [8.2035122, 48.055585], [8.2033336, 48.0555555]]};1
402;21;Friedrichstraße;78120;Furtwangen im Schwarzwald;4;{'type': 'LineString', 'coordinates': [[8.2038256, 48.0557129], [8.2039539, 48.0557411], [8.2043074, 48.0550231], [8.2041792, 48.0549944], [8.2038256, 48.0557129]]};1
403;2;Am Großhausberg;78120;Furtwangen im Schwarzwald;4;{'type': 'LineString', 'coordinates': [[8.208846, 48.048311], [8.2087887, 48.0482945], [8.2087481, 48.0482573], [8.2087407, 48.0482244], [8.2087634, 48.0481806], [8.2088201, 48.048151], [8.2088947, 48.0481478], [8.2089564, 48.048172], [8.208981, 48.048198], [8.2089881, 48.0482422], [8.20896, 48.0482827], [8.2089171, 48.0483044], [8.208846, 48.048311]]};1
404;9;Am Großhausberg;78120;Furtwangen im Schwarzwald;4;{'type': 'LineString', 'coordinates': [[8.2092114, 48.0475713], [8.2091458, 48.0475503], [8.2091137, 48.0475194], [8.2091046, 48.0474836], [8.2091264, 48.0474401], [8.2091887, 48.047408], [8.2092356, 48.0474031], [8.2093043, 48.0474187], [8.2093483, 48.0474558], [8.2093563, 48.0475], [8.2093287, 48.0475415], [8.2092799, 48.0475658], [8.2092114, 48.0475713]]};1
409;29;Baumannstraße;78120;Furtwangen im Schwarzwald;4;{'type': 'LineString', 'coordinates': [[8.2078469, 48.0500801], [8.208105, 48.0501523], [8.2080224, 48.0502842], [8.2077644, 48.050212], [8.2078469, 48.0500801]]};1
410;19;Unterallmendstraße;78120;Furtwangen im Schwarzwald;4;{'type': 'LineString', 'coordinates': [[8.2115431, 48.0501947], [8.2114846, 48.0502128], [8.2114698, 48.0501913], [8.2113354, 48.0502235], [8.2109158, 48.0502891], [8.2109039, 48.0502684], [8.2108492, 48.0502769], [8.2108767, 48.0503251], [8.2108386, 48.0503349], [8.2108591, 48.0503706], [8.2108972, 48.0503608], [8.2109221, 48.0504043], [8.211401, 48.0503315], [8.2115281, 48.0502957], [8.2115164, 48.0502769], [8.2115871, 48.050257], [8.2115431, 48.0501947]]};1
411;4;Am Großhausberg;78120;Furtwangen im Schwarzwald;4;{'type': 'LineString', 'coordinates': [[8.2094649, 48.0480512], [8.2096415, 48.0480497], [8.2096404, 48.0479886], [8.2096365, 48.047777], [8.2094599, 48.0477785], [8.2094649, 48.0480512]]};1
412;6;Am Großhausberg;78120;Furtwangen im Schwarzwald;4;{'type': 'LineString', 'coordinates': [[8.2099207, 48.0482229], [8.2099518, 48.0482202], [8.2100989, 48.0482077], [8.2100529, 48.0479677], [8.2098979, 48.047981], [8.2098701, 48.0479834], [8.2099207, 48.0482229]]};1
413;8;Am Großhausberg;78120;Furtwangen im Schwarzwald;4;{'type': 'LineString', 'coordinates': [[8.2101998, 48.0477032], [8.2103444, 48.0476646], [8.2104507, 48.0478442], [8.2104598, 48.0478596], [8.210315, 48.0478979], [8.2102865, 48.0478497], [8.2101998, 48.0477032]]};1
416;6;Joseph-Koepfer-Straße;78120;Furtwangen im Schwarzwald;4;{'type': 'LineString', 'coordinates': [[8.2129546, 48.0487865], [8.212777, 48.0485228], [8.2128918, 48.0484882], [8.2129579, 48.0484683], [8.2129862, 48.0485103], [8.2133961, 48.0483869], [8.2134612, 48.0484836], [8.213575, 48.0484494], [8.2136592, 48.0485745], [8.2129546, 48.0487865]]};1
417;24;Allmendstraße;78120;Furtwangen im Schwarzwald;4;{'type': 'LineString', 'coordinates': [[8.2120536, 48.0494495], [8.2119889, 48.0496537], [8.2121794, 48.0496807], [8.2121525, 48.0497655], [8.2124026, 48.0498009], [8.2124338, 48.0497024], [8.2127622, 48.0497489], [8.2127933, 48.0496509], [8.2133008, 48.0497227], [8.2133244, 48.0496485], [8.2124705, 48.0495276], [8.2124763, 48.0495094], [8.2120536, 48.0494495]]};1
418;6;Am Niegenhirschwald;78120;Furtwangen im Schwarzwald;4;{'type': 'LineString', 'coordinates': [[8.2155675, 48.0466983], [8.2155677, 48.0466552], [8.2168116, 48.0466583], [8.2168135, 48.0463099], [8.216519, 48.0463092], [8.2165195, 48.0462087], [8.215384, 48.0462059], [8.2153834, 48.0463191], [8.2152268, 48.0463188], [8.2152262, 48.0464332], [8.2153831, 48.0464336], [8.2153816, 48.0466978], [8.2155675, 48.0466983]]};1
419;10;Am Niegenhirschwald;78120;Furtwangen im Schwarzwald;4;{'type': 'LineString', 'coordinates': [[8.2206184, 48.0469171], [8.2204853, 48.0469506], [8.220346, 48.0467028], [8.2204792, 48.0466694], [8.2206184, 48.0469171]]};1
623;19;Friedrichstraße;78120;Furtwangen im Schwarzwald;4;{'type': 'LineString', 'coordinates': [[8.2042812, 48.0539297], [8.2042475, 48.0539998], [8.2042942, 48.0540099], [8.2042611, 48.0540786], [8.2042393, 48.0540739], [8.2040809, 48.0544024], [8.2043949, 48.05447], [8.2043455, 48.0545727], [8.2042105, 48.0545436], [8.2038774, 48.0544719], [8.2041001, 48.0540098], [8.2039373, 48.0539747], [8.2039893, 48.0538668], [8.2042812, 48.0539297]]};1
628;32;Allmendstraße;78120;Furtwangen im Schwarzwald;4;{'type': 'LineString', 'coordinates': [[8.2151772, 48.049325], [8.215164, 48.0490532], [8.2154713, 48.0489524], [8.215731, 48.0489486], [8.2157324, 48.048994], [8.2160188, 48.0489901], [8.2160275, 48.0492731], [8.2156086, 48.0492789], [8.2156098, 48.049319], [8.2153907, 48.049322], [8.2151772, 48.049325]]};1
629;2;Am Engelgrund;78120;Furtwangen im Schwarzwald;4;{'type': 'LineString', 'coordinates': [[8.2131219, 48.0474213], [8.213168, 48.0475644], [8.2133395, 48.0475388], [8.2138868, 48.047421], [8.2138729, 48.0473281], [8.2139694, 48.0473281], [8.2139909, 48.0474644], [8.2141947, 48.0474285], [8.2141411, 48.0471201], [8.2139694, 48.0471344], [8.2139727, 48.047256], [8.2138439, 48.0472775], [8.213787, 48.0471201], [8.2136079, 48.0471556], [8.2136261, 48.0473281], [8.2131219, 48.0474213]]};1
630;15;Bismarckstraße;78120;Furtwangen im Schwarzwald;4;{'type': 'LineString', 'coordinates': [[8.2036214, 48.0530161], [8.2037103, 48.0529076], [8.2037958, 48.0529389], [8.2037069, 48.0530474], [8.2036214, 48.0530161]]};1
631;11;Bismarckstraße;78120;Furtwangen im Schwarzwald;4;{'type': 'LineString', 'coordinates': [[8.2040296, 48.0525289], [8.2042203, 48.0526173], [8.2046153, 48.052237], [8.2044245, 48.0521485], [8.2040296, 48.0525289]]};1
632;17;Bismarckstraße;78120;Furtwangen im Schwarzwald;4;{'type': 'LineString', 'coordinates': [[8.2034578, 48.0531926], [8.2035984, 48.0532464], [8.2037167, 48.0531084], [8.2035762, 48.0530546], [8.2034578, 48.0531926]]};1
634;19;Bismarckstraße;78120;Furtwangen im Schwarzwald;4;{'type': 'LineString', 'coordinates': [[8.2032874, 48.0533797], [8.2033968, 48.0532465], [8.2035466, 48.0533001], [8.2034471, 48.0534301], [8.2032874, 48.0533797]]};1
637;19;Alemannenstraße;78120;Furtwangen im Schwarzwald;4;{'type': 'LineString', 'coordinates': [[8.2256975, 48.0473039], [8.2257179, 48.0471915], [8.2257965, 48.0471978], [8.2258007, 48.0471749], [8.2259166, 48.0471843], [8.2258921, 48.0473197], [8.2256975, 48.0473039]]};1
638;21;Alemannenstraße;78120;Furtwangen im Schwarzwald;4;{'type': 'LineString', 'coordinates': [[8.2258566, 48.0470442], [8.2259207, 48.0469971], [8.2259336, 48.047005], [8.2259662, 48.046981], [8.2260838, 48.0470525], [8.2259483, 48.047152], [8.2258861, 48.0471142], [8.2259249, 48.0470858], [8.2258566, 48.0470442]]};1
639;55;Vogt-Dufner-Straße;78120;Furtwangen im Schwarzwald;4;{'type': 'LineString', 'coordinates': [[8.2247428, 48.047537], [8.2246396, 48.0473586], [8.2251358, 48.0472304], [8.2252529, 48.0474331], [8.2251301, 48.0474648], [8.2251161, 48.0474406], [8.2247428, 48.047537]]};1
640;23;Alemannenstraße;78120;Furtwangen im Schwarzwald;4;{'type': 'LineString', 'coordinates': [[8.2261705, 48.0471064], [8.2261415, 48.0470806], [8.2261627, 48.0470699], [8.226184, 48.0470593], [8.226213, 48.0470851], [8.2261705, 48.0471064]]};1
641;11;Am Niegenhirschwald;78120;Furtwangen im Schwarzwald;4;{'type': 'LineString', 'coordinates': [[8.224068, 48.0454495], [8.223746, 48.0455466], [8.2236449, 48.0453989], [8.2239702, 48.0452891], [8.224068, 48.0454495]]};1
642;24;Alemannenstraße;78120;Furtwangen im Schwarzwald;4;{'type': 'LineString', 'coordinates': [[8.228435, 48.045828], [8.2284575, 48.0457434], [8.2285577, 48.0457553], [8.228576, 48.0456864], [8.2286403, 48.0456941], [8.2286325, 48.0457236], [8.2287209, 48.0457341], [8.2286663, 48.0459392], [8.2285884, 48.0459299], [8.2286007, 48.0458838], [8.2285348, 48.045876], [8.2285442, 48.045841], [8.228435, 48.045828]]};1
643;6;Martin-Schmitt-Straße;78120;Furtwangen im Schwarzwald;4;{'type': 'LineString', 'coordinates': [[8.2034697, 48.0472756], [8.2036336, 48.0473265], [8.2036771, 48.0472637], [8.2035132, 48.0472129], [8.2034697, 48.0472756]]};1
652;8;Am Engelgrund;78120;Furtwangen im Schwarzwald;4;{'type': 'LineString', 'coordinates': [[8.212987, 48.0464461], [8.2130864, 48.0465042], [8.2131523, 48.0464538], [8.2130529, 48.0463957], [8.212987, 48.0464461]]};1
661;4;Baumannstraße;78120;Furtwangen im Schwarzwald;4;{'type': 'LineString', 'coordinates': [[8.2039614, 48.0492117], [8.2041684, 48.0491785], [8.2041258, 48.0490598], [8.2039188, 48.049093], [8.2039614, 48.0492117]]};1
662;12;Baumannstraße;78120;Furtwangen im Schwarzwald;4;{'type': 'LineString', 'coordinates': [[8.2050225, 48.0491195], [8.2051839, 48.0491611], [8.2052386, 48.0490661], [8.2050771, 48.0490246], [8.2050225, 48.0491195]]};1
664;10;Baumannstraße;78120;Furtwangen im Schwarzwald;4;{'type': 'LineString', 'coordinates': [[8.2046732, 48.0490255], [8.2048137, 48.0488944], [8.2047144, 48.0488468], [8.2045739, 48.0489779], [8.2046732, 48.0490255]]};1
674;2;Baumannstraße;78120;Furtwangen im Schwarzwald;4;{'type': 'LineString', 'coordinates': [[8.2034833, 48.0493072], [8.2036945, 48.0492643], [8.2036421, 48.0491492], [8.203431, 48.0491921], [8.2034833, 48.0493072]]};1
675;14;Baumannstraße;78120;Furtwangen im Schwarzwald;4;{'type': 'LineString', 'coordinates': [[8.205224, 48.049031], [8.2053937, 48.049096], [8.2054455, 48.0490356], [8.2052758, 48.0489706], [8.205224, 48.049031]]};1
676;6;Baumannstraße;78120;Furtwangen im Schwarzwald;4;{'type': 'LineString', 'coordinates': [[8.2043278, 48.0491479], [8.2045038, 48.0491147], [8.2044625, 48.049017], [8.2042866, 48.0490502], [8.2043278, 48.0491479]]};1
685;22;Bahnhofstraße;78120;Furtwangen im Schwarzwald;4;{'type': 'LineString', 'coordinates': [[8.2042274, 48.0483442], [8.204444, 48.0484244], [8.2044176, 48.0484576], [8.2047454, 48.0485848], [8.2050176, 48.0482855], [8.2045493, 48.0480898], [8.2044088, 48.0482405], [8.2043444, 48.0482131], [8.2042274, 48.0483442]]};1
686;16;Baumannstraße;78120;Furtwangen im Schwarzwald;4;{'type': 'LineString', 'coordinates': [[8.2052607, 48.0492196], [8.2057533, 48.0493593], [8.2058202, 48.049254], [8.205526, 48.0491705], [8.2055881, 48.0490728], [8.2054853, 48.0490437], [8.2054233, 48.0491414], [8.2053276, 48.0491142], [8.2052607, 48.0492196]]};1
688;13;Goethestraße;78120;Furtwangen im Schwarzwald;4;{'type': 'LineString', 'coordinates': [[8.208184, 48.0494354], [8.2083376, 48.0494814], [8.2084009, 48.0493869], [8.2082472, 48.0493409], [8.208184, 48.0494354]]};1
689;3;Auf dem Moos;78120;Furtwangen im Schwarzwald;4;{'type': 'LineString', 'coordinates': [[8.2152843, 48.0487759], [8.2154189, 48.0485841], [8.2152644, 48.0485356], [8.2151297, 48.0487274], [8.2152843, 48.0487759]]};1
690;17;Goethestraße;78120;Furtwangen im Schwarzwald;4;{'type': 'LineString', 'coordinates': [[8.2076308, 48.0493014], [8.2077844, 48.0493395], [8.2078124, 48.0492892], [8.2076588, 48.049251], [8.2076308, 48.0493014]]};1
691;3;Schillerstraße;78120;Furtwangen im Schwarzwald;4;{'type': 'LineString', 'coordinates': [[8.2086263, 48.0497568], [8.2087732, 48.0498024], [8.2088285, 48.0497229], [8.2086815, 48.0496773], [8.2086263, 48.0497568]]};1
692;26/1;Baumannstraße;78120;Furtwangen im Schwarzwald;4;{'type': 'LineString', 'coordinates': [[8.2072687, 48.0495319], [8.2074529, 48.0495775], [8.2074933, 48.0495047], [8.2073091, 48.049459], [8.2072687, 48.0495319]]};1
693;30;Allmendstraße;78120;Furtwangen im Schwarzwald;4;{'type': 'LineString', 'coordinates': [[8.2142942, 48.0496183], [8.2144345, 48.0496184], [8.2144346, 48.0495176], [8.2142943, 48.0495175], [8.2142942, 48.0496183]]};1
694;2;Goethestraße;78120;Furtwangen im Schwarzwald;4;{'type': 'LineString', 'coordinates': [[8.2090837, 48.0499007], [8.2092203, 48.0499532], [8.2093001, 48.0498606], [8.2091635, 48.049808], [8.2090837, 48.0499007]]};1
695;20;Goethestraße;78120;Furtwangen im Schwarzwald;4;{'type': 'LineString', 'coordinates': [[8.2072842, 48.0493936], [8.207664, 48.0494851], [8.2077015, 48.0494157], [8.2073172, 48.0493325], [8.2072842, 48.0493936]]};1
696;5;Goethestraße;78120;Furtwangen im Schwarzwald;4;{'type': 'LineString', 'coordinates': [[8.2089202, 48.0496544], [8.2090775, 48.0497], [8.2091324, 48.0496154], [8.2089751, 48.0495698], [8.2089202, 48.0496544]]};1
697;14;Goethestraße;78120;Furtwangen im Schwarzwald;4;{'type': 'LineString', 'coordinates': [[8.2079517, 48.0497255], [8.2081458, 48.0497752], [8.2082534, 48.049587], [8.2080593, 48.0495374], [8.2079517, 48.0497255]]};1
698;5;Obertalstraße;78120;Furtwangen im Schwarzwald;4;{'type': 'LineString', 'coordinates': [[8.2164532, 48.048275], [8.2166354, 48.0482529], [8.2166078, 48.0481516], [8.2164257, 48.0481737], [8.2164532, 48.048275]]};1
699;1;Schillerstraße;78120;Furtwangen im Schwarzwald;4;{'type': 'LineString', 'coordinates': [[8.2085352, 48.0498993], [8.2086739, 48.0499422], [8.2087259, 48.049867], [8.2085872, 48.0498241], [8.2085352, 48.0498993]]};1
700;15;Goethestraße;78120;Furtwangen im Schwarzwald;4;{'type': 'LineString', 'coordinates': [[8.207963, 48.0493786], [8.2081181, 48.0494236], [8.2081701, 48.0493435], [8.208015, 48.0492985], [8.207963, 48.0493786]]};1
701;11;Goethestraße;78120;Furtwangen im Schwarzwald;4;{'type': 'LineString', 'coordinates': [[8.2084123, 48.0495068], [8.2085893, 48.0495547], [8.2086512, 48.0494526], [8.2084742, 48.0494046], [8.2084123, 48.0495068]]};1
702;2;Joseph-Koepfer-Straße;78120;Furtwangen im Schwarzwald;4;{'type': 'LineString', 'coordinates': [[8.2139025, 48.0484911], [8.2145655, 48.0483097], [8.214405, 48.0480475], [8.2143808, 48.0480541], [8.213742, 48.048229], [8.2139025, 48.0484911]]};1
703;2;Auf dem Moos;78120;Furtwangen im Schwarzwald;4;{'type': 'LineString', 'coordinates': [[8.2145944, 48.0495519], [8.214726, 48.0495493], [8.2147211, 48.0494414], [8.2145895, 48.0494441], [8.2145944, 48.0495519]]};1
704;6;Auf dem Moos;78120;Furtwangen im Schwarzwald;4;{'type': 'LineString', 'coordinates': [[8.2145555, 48.0488972], [8.214639, 48.0488681], [8.2146009, 48.0488192], [8.2145174, 48.0488482], [8.2145555, 48.0488972]]};1
705;21;Bahnhofstraße;78120;Furtwangen im Schwarzwald;4;{'type': 'LineString', 'coordinates': [[8.2073584, 48.0490945], [8.2077123, 48.0491568], [8.2077637, 48.0490262], [8.2074098, 48.048964], [8.2073584, 48.0490945]]};1
706;4;Goethestraße;78120;Furtwangen im Schwarzwald;4;{'type': 'LineString', 'coordinates': [[8.2088933, 48.0498495], [8.2090195, 48.0498868], [8.2090856, 48.049787], [8.2089594, 48.0497496], [8.2088933, 48.0498495]]};1
707;1;Obertalstraße;78120;Furtwangen im Schwarzwald;4;{'type': 'LineString', 'coordinates': [[8.2163859, 48.0491424], [8.2166177, 48.0489902], [8.2165233, 48.048926], [8.2162915, 48.0490782], [8.2163859, 48.0491424]]};1
708;28;Allmendstraße;78120;Furtwangen im Schwarzwald;4;{'type': 'LineString', 'coordinates': [[8.2140139, 48.0496214], [8.2142232, 48.0496216], [8.2142233, 48.0495354], [8.2140877, 48.0495353], [8.2140141, 48.0495352], [8.2140139, 48.0496214]]};1
709;4/1;Auf dem Moos;78120;Furtwangen im Schwarzwald;4;{'type': 'LineString', 'coordinates': [[8.2142511, 48.0486017], [8.214415, 48.0485606], [8.2143622, 48.0484665], [8.2141983, 48.0485076], [8.2142511, 48.0486017]]};1
710;4;Auf dem Moos;78120;Furtwangen im Schwarzwald;4;{'type': 'LineString', 'coordinates': [[8.2141142, 48.0489824], [8.2142247, 48.048956], [8.2141626, 48.0488395], [8.2144296, 48.0487759], [8.2143889, 48.0486995], [8.2140113, 48.0487895], [8.2141142, 48.0489824]]};1
711;8;Auf dem Moos;78120;Furtwangen im Schwarzwald;4;{'type': 'LineString', 'coordinates': [[8.2146374, 48.048588], [8.2147416, 48.0485595], [8.2147096, 48.0485073], [8.2149571, 48.0484396], [8.2149101, 48.0483627], [8.2145584, 48.0484589], [8.2146374, 48.048588]]};1
712;3;Am Niegenhirschwald;78120;Furtwangen im Schwarzwald;4;{'type': 'LineString', 'coordinates': [[8.2177519, 48.0471086], [8.2181699, 48.0472718], [8.2185342, 48.0468263], [8.2183934, 48.0466105], [8.2182362, 48.0466465], [8.2183024, 48.0467488], [8.2181823, 48.0469149], [8.2179505, 48.0468291], [8.2177519, 48.0471086]]};1
713;8;Joseph-Koepfer-Straße;78120;Furtwangen im Schwarzwald;4;{'type': 'LineString', 'coordinates': [[8.2115603, 48.0490899], [8.211917, 48.0489554], [8.2120285, 48.0490876], [8.2122253, 48.0490134], [8.2121138, 48.0488812], [8.2122961, 48.0488125], [8.2119478, 48.0483996], [8.211212, 48.048677], [8.2115603, 48.0490899]]};1
714;5;Vogt-Dufner-Straße;78120;Furtwangen im Schwarzwald;4;{'type': 'LineString', 'coordinates': [[8.2181824, 48.0506591], [8.2183164, 48.0506533], [8.2183047, 48.050532], [8.2181707, 48.0505378], [8.2181824, 48.0506591]]};1
715;14;Vogt-Dufner-Straße;78120;Furtwangen im Schwarzwald;4;{'type': 'LineString', 'coordinates': [[8.2182039, 48.0493683], [8.218386, 48.0492964], [8.2183258, 48.0492283], [8.2181437, 48.0493003], [8.2182039, 48.0493683]]};1
716;1;Vogt-Dufner-Straße;78120;Furtwangen im Schwarzwald;4;{'type': 'LineString', 'coordinates': [[8.218118, 48.0511404], [8.2182585, 48.0511404], [8.2182585, 48.0510073], [8.218118, 48.0510073], [8.218118, 48.0511404]]};1
717;22;Erwin-Wehrle-Straße;78120;Furtwangen im Schwarzwald;4;{'type': 'LineString', 'coordinates': [[8.2188123, 48.0488398], [8.21904, 48.0487513], [8.2189724, 48.0486737], [8.2187448, 48.0487622], [8.2188123, 48.0488398]]};1
718;7;Alemannenstraße;78120;Furtwangen im Schwarzwald;4;{'type': 'LineString', 'coordinates': [[8.217556, 48.0489157], [8.2178546, 48.0488786], [8.2178303, 48.0487916], [8.2175318, 48.0488288], [8.217556, 48.0489157]]};1
719;14;Am Hofrain;78120;Furtwangen im Schwarzwald;4;{'type': 'LineString', 'coordinates': [[8.2216688, 48.0486178], [8.2218758, 48.0485403], [8.2218404, 48.0484981], [8.2216334, 48.0485755], [8.2216688, 48.0486178]]};1
720;16;Erwin-Wehrle-Straße;78120;Furtwangen im Schwarzwald;4;{'type': 'LineString', 'coordinates': [[8.2173277, 48.0493051], [8.217418, 48.0493757], [8.217579, 48.0492838], [8.2174887, 48.0492131], [8.2173277, 48.0493051]]};1
721;27;Vogt-Dufner-Straße;78120;Furtwangen im Schwarzwald;4;{'type': 'LineString', 'coordinates': [[8.2212214, 48.0485659], [8.2214532, 48.0484497], [8.2213703, 48.0483757], [8.2211385, 48.0484919], [8.2212214, 48.0485659]]};1
722;4;Vogt-Dufner-Straße;78120;Furtwangen im Schwarzwald;4;{'type': 'LineString', 'coordinates': [[8.2177258, 48.0505691], [8.2177316, 48.0504106], [8.2175938, 48.0504083], [8.2175879, 48.0505668], [8.2177258, 48.0505691]]};1
723;8;Vogt-Dufner-Straße;78120;Furtwangen im Schwarzwald;4;{'type': 'LineString', 'coordinates': [[8.2174799, 48.0500643], [8.2176193, 48.0500803], [8.2176632, 48.0499101], [8.2175238, 48.049894], [8.2174799, 48.0500643]]};1
724;34;Vogt-Dufner-Straße;78120;Furtwangen im Schwarzwald;4;{'type': 'LineString', 'coordinates': [[8.2222935, 48.0477108], [8.2225667, 48.0476223], [8.2224965, 48.0475255], [8.2222233, 48.047614], [8.2222935, 48.0477108]]};1
725;2;Am Hofrain;78120;Furtwangen im Schwarzwald;4;{'type': 'LineString', 'coordinates': [[8.220104, 48.0490065], [8.2203816, 48.0489788], [8.2203706, 48.0489293], [8.220093, 48.048957], [8.220104, 48.0490065]]};1
726;15;Vogt-Dufner-Straße;78120;Furtwangen im Schwarzwald;4;{'type': 'LineString', 'coordinates': [[8.2186595, 48.0495595], [8.2187537, 48.0496472], [8.2188883, 48.0495827], [8.2187941, 48.0494949], [8.2186595, 48.0495595]]};1
727;2;Erwin-Wehrle-Straße;78120;Furtwangen im Schwarzwald;4;{'type': 'LineString', 'coordinates': [[8.2174106, 48.05104], [8.2174063, 48.0509254], [8.2173028, 48.0509271], [8.2172625, 48.0509278], [8.2172668, 48.0510424], [8.2174106, 48.05104]]};1
728;13;Am Hofrain;78120;Furtwangen im Schwarzwald;4;{'type': 'LineString', 'coordinates': [[8.2219416, 48.0487789], [8.2220124, 48.0488713], [8.2221821, 48.0488132], [8.2221114, 48.0487208], [8.2219416, 48.0487789]]};1
729;30;Erwin-Wehrle-Straße;78120;Furtwangen im Schwarzwald;4;{'type': 'LineString', 'coordinates': [[8.2202942, 48.0483805], [8.2204598, 48.0483473], [8.2204207, 48.0482602], [8.2202551, 48.0482934], [8.2202942, 48.0483805]]};1
730;1;Am Hofrain;78120;Furtwangen im Schwarzwald;4;{'type': 'LineString', 'coordinates': [[8.2196236, 48.0493185], [8.2198306, 48.0492632], [8.2197678, 48.0491582], [8.2195608, 48.0492136], [8.2196236, 48.0493185]]};1
731;5;Alemannenstraße;78120;Furtwangen im Schwarzwald;4;{'type': 'LineString', 'coordinates': [[8.217316, 48.049129], [8.2175092, 48.0490899], [8.2174789, 48.0490231], [8.2172857, 48.0490623], [8.217316, 48.049129]]};1
732;3;Am Hofrain;78120;Furtwangen im Schwarzwald;4;{'type': 'LineString', 'coordinates': [[8.2202487, 48.0492217], [8.2200914, 48.0492466], [8.2201259, 48.0493441], [8.2202832, 48.0493192], [8.2202487, 48.0492217]]};1
733;8;Lochhofstraße;78120;Furtwangen im Schwarzwald;4;{'type': 'LineString', 'coordinates': [[8.2170193, 48.0506808], [8.2170248, 48.0505455], [8.2168714, 48.0505427], [8.2168659, 48.050678], [8.2170193, 48.0506808]]};1
734;14;Lochhofstraße;78120;Furtwangen im Schwarzwald;4;{'type': 'LineString', 'coordinates': [[8.2176854, 48.0520847], [8.2180659, 48.0519686], [8.2179668, 48.0518234], [8.2175863, 48.0519395], [8.2176854, 48.0520847]]};1
735;26;Erwin-Wehrle-Straße;78120;Furtwangen im Schwarzwald;4;{'type': 'LineString', 'coordinates': [[8.219516, 48.0485935], [8.2197354, 48.0485327], [8.2196719, 48.0484305], [8.2194525, 48.0484913], [8.219516, 48.0485935]]};1
736;11;Vogt-Dufner-Straße;78120;Furtwangen im Schwarzwald;4;{'type': 'LineString', 'coordinates': [[8.2181648, 48.049898], [8.2182868, 48.0499507], [8.2183834, 48.0498509], [8.2182614, 48.0497982], [8.2181648, 48.049898]]};1
737;20;Vogt-Dufner-Straße;78120;Furtwangen im Schwarzwald;4;{'type': 'LineString', 'coordinates': [[8.219247, 48.0490003], [8.219487, 48.0489477], [8.2194423, 48.0488564], [8.2192022, 48.0489089], [8.219247, 48.0490003]]};1
738;1;Alemannenstraße;78120;Furtwangen im Schwarzwald;4;{'type': 'LineString', 'coordinates': [[8.2169821, 48.0493494], [8.217076, 48.0493031], [8.2169926, 48.0492275], [8.2168987, 48.0492737], [8.2169821, 48.0493494]]};1
739;9;Am Hofrain;78120;Furtwangen im Schwarzwald;4;{'type': 'LineString', 'coordinates': [[8.2211676, 48.0489865], [8.2212723, 48.0491201], [8.2214461, 48.0490592], [8.2213414, 48.0489256], [8.2211676, 48.0489865]]};1
740;7;Vogt-Dufner-Straße;78120;Furtwangen im Schwarzwald;4;{'type': 'LineString', 'coordinates': [[8.2181355, 48.0504125], [8.2183168, 48.0504073], [8.218308, 48.0502723], [8.2181268, 48.0502775], [8.2181355, 48.0504125]]};1
741;32;Vogt-Dufner-Straße;78120;Furtwangen im Schwarzwald;4;{'type': 'LineString', 'coordinates': [[8.2219334, 48.0478769], [8.2221693, 48.0477855], [8.222107, 48.0477135], [8.221871, 48.0478049], [8.2219334, 48.0478769]]};1
742;24;Vogt-Dufner-Straße;78120;Furtwangen im Schwarzwald;4;{'type': 'LineString', 'coordinates': [[8.219992, 48.0487513], [8.2200997, 48.0486904], [8.2200342, 48.0486387], [8.2199266, 48.0486995], [8.219992, 48.0487513]]};1
743;17;Vogt-Dufner-Straße;78120;Furtwangen im Schwarzwald;4;{'type': 'LineString', 'coordinates': [[8.21892, 48.049444], [8.2189796, 48.0495328], [8.2191816, 48.0494722], [8.2191219, 48.0493834], [8.21892, 48.049444]]};1
744;4;Lochhofstraße;78120;Furtwangen im Schwarzwald;4;{'type': 'LineString', 'coordinates': [[8.2168126, 48.0500154], [8.2167043, 48.0497825], [8.2165245, 48.0498199], [8.2166328, 48.0500527], [8.2168126, 48.0500154]]};1
745;17;Am Hofrain;78120;Furtwangen im Schwarzwald;4;{'type': 'LineString', 'coordinates': [[8.2226784, 48.0485437], [8.2227359, 48.0486287], [8.2229098, 48.0485761], [8.2228523, 48.0484912], [8.2226784, 48.0485437]]};1
746;28;Vogt-Dufner-Straße;78120;Furtwangen im Schwarzwald;4;{'type': 'LineString', 'coordinates': [[8.2211759, 48.0482421], [8.2214366, 48.0481563], [8.2213566, 48.0480476], [8.2210958, 48.0481334], [8.2211759, 48.0482421]]};1
747;4;Erwin-Wehrle-Straße;78120;Furtwangen im Schwarzwald;4;{'type': 'LineString', 'coordinates': [[8.2172174, 48.0507979], [8.2173635, 48.0507801], [8.2173361, 48.0506801], [8.21719, 48.0506979], [8.2172174, 48.0507979]]};1
748;10;Vogt-Dufner-Straße;78120;Furtwangen im Schwarzwald;4;{'type': 'LineString', 'coordinates': [[8.2177667, 48.0497962], [8.2178663, 48.049671], [8.2177221, 48.0496198], [8.2176226, 48.049745], [8.2177667, 48.0497962]]};1
749;14;Erwin-Wehrle-Straße;78120;Furtwangen im Schwarzwald;4;{'type': 'LineString', 'coordinates': [[8.2170994, 48.0495321], [8.2172914, 48.0496078], [8.2173967, 48.0494884], [8.2172048, 48.0494127], [8.2170994, 48.0495321]]};1
750;6;Vogt-Dufner-Straße;78120;Furtwangen im Schwarzwald;4;{'type': 'LineString', 'coordinates': [[8.2176321, 48.0503421], [8.2176409, 48.0501484], [8.2175093, 48.0501457], [8.2175005, 48.0503394], [8.2176321, 48.0503421]]};1
751;16;Vogt-Dufner-Straße;78120;Furtwangen im Schwarzwald;4;{'type': 'LineString', 'coordinates': [[8.2185226, 48.0492521], [8.2187502, 48.0491885], [8.2186987, 48.049106], [8.218471, 48.0491696], [8.2185226, 48.0492521]]};1
752;3;Vogt-Dufner-Straße;78120;Furtwangen im Schwarzwald;4;{'type': 'LineString', 'coordinates': [[8.2181531, 48.0509056], [8.2183102, 48.0509158], [8.2183278, 48.0507945], [8.2181707, 48.0507843], [8.2181531, 48.0509056]]};1
753;20;Erwin-Wehrle-Straße;78120;Furtwangen im Schwarzwald;4;{'type': 'LineString', 'coordinates': [[8.2184522, 48.0489671], [8.2186882, 48.0488703], [8.2186181, 48.048794], [8.2183821, 48.0488908], [8.2184522, 48.0489671]]};1
754;36;Vogt-Dufner-Straße;78120;Furtwangen im Schwarzwald;4;{'type': 'LineString', 'coordinates': [[8.2227364, 48.0475476], [8.2229723, 48.0474562], [8.2228967, 48.0473689], [8.2226607, 48.0474602], [8.2227364, 48.0475476]]};1
755;7/1;Alemannenstraße;78120;Furtwangen im Schwarzwald;4;{'type': 'LineString', 'coordinates': [[8.2180185, 48.0490136], [8.2182116, 48.0489236], [8.2181414, 48.0488562], [8.2179482, 48.0489462], [8.2180185, 48.0490136]]};1
756;29;Vogt-Dufner-Straße;78120;Furtwangen im Schwarzwald;4;{'type': 'LineString', 'coordinates': [[8.2215567, 48.0484054], [8.2218754, 48.048303], [8.221814, 48.0482175], [8.2214953, 48.0483199], [8.2215567, 48.0484054]]};1
757;2;Vogt-Dufner-Straße;78120;Furtwangen im Schwarzwald;4;{'type': 'LineString', 'coordinates': [[8.2177375, 48.0508293], [8.2177375, 48.0507021], [8.2176175, 48.0507021], [8.2176175, 48.0508293], [8.2177375, 48.0508293]]};1
758;15;Am Hofrain;78120;Furtwangen im Schwarzwald;4;{'type': 'LineString', 'coordinates': [[8.2222024, 48.0486655], [8.2222993, 48.0487866], [8.2225393, 48.0487008], [8.2224425, 48.0485797], [8.2222024, 48.0486655]]};1
759;12;Erwin-Wehrle-Straße;78120;Furtwangen im Schwarzwald;4;{'type': 'LineString', 'coordinates': [[8.2170496, 48.0497688], [8.2171705, 48.0497882], [8.2172057, 48.0496904], [8.2170848, 48.049671], [8.2170496, 48.0497688]]};1
760;19;Vogt-Dufner-Straße;78120;Furtwangen im Schwarzwald;4;{'type': 'LineString', 'coordinates': [[8.2192966, 48.0493794], [8.2195202, 48.0493213], [8.2194648, 48.0492262], [8.2192413, 48.0492843], [8.2192966, 48.0493794]]};1
761;18;Erwin-Wehrle-Straße;78120;Furtwangen im Schwarzwald;4;{'type': 'LineString', 'coordinates': [[8.2176906, 48.0492347], [8.2178897, 48.0491701], [8.2178217, 48.0490765], [8.2176227, 48.049141], [8.2176906, 48.0492347]]};1
762;10;Lochhofstraße;78120;Furtwangen im Schwarzwald;4;{'type': 'LineString', 'coordinates': [[8.2171589, 48.0508905], [8.2171091, 48.0507474], [8.2169302, 48.0507752], [8.21698, 48.0509183], [8.2171589, 48.0508905]]};1
763;24;Erwin-Wehrle-Straße;78120;Furtwangen im Schwarzwald;4;{'type': 'LineString', 'coordinates': [[8.2192345, 48.0487125], [8.2194125, 48.0486295], [8.2193179, 48.0485388], [8.2191399, 48.0486219], [8.2192345, 48.0487125]]};1
764;11;Am Hofrain;78120;Furtwangen im Schwarzwald;4;{'type': 'LineString', 'coordinates': [[8.2215567, 48.0488979], [8.2216151, 48.0489847], [8.2217807, 48.0489349], [8.2217223, 48.0488481], [8.2215567, 48.0488979]]};1
765;28;Erwin-Wehrle-Straße;78120;Furtwangen im Schwarzwald;4;{'type': 'LineString', 'coordinates': [[8.2198886, 48.0484856], [8.220079, 48.0484192], [8.2200179, 48.048341], [8.2198275, 48.0484074], [8.2198886, 48.0484856]]};1
766;3;Alemannenstraße;78120;Furtwangen im Schwarzwald;4;{'type': 'LineString', 'coordinates': [[8.2171199, 48.0492386], [8.2172282, 48.0491916], [8.2171676, 48.0491292], [8.2170593, 48.0491762], [8.2171199, 48.0492386]]};1
767;5;Am Hofrain;78120;Furtwangen im Schwarzwald;4;{'type': 'LineString', 'coordinates': [[8.2204805, 48.0492023], [8.2205188, 48.0492719], [8.2206761, 48.0492332], [8.2206378, 48.0491636], [8.2204805, 48.0492023]]};1
768;6;Erwin-Wehrle-Straße;78120;Furtwangen im Schwarzwald;4;{'type': 'LineString', 'coordinates': [[8.2172738, 48.0505618], [8.2172378, 48.0503747], [8.2170547, 48.0503904], [8.2170818, 48.0505311], [8.21717, 48.0505235], [8.217179, 48.0505699], [8.2172738, 48.0505618]]};1
769;13;Vogt-Dufner-Straße;78120;Furtwangen im Schwarzwald;4;{'type': 'LineString', 'coordinates': [[8.2183492, 48.0497121], [8.2184203, 48.049777], [8.2185403, 48.0497183], [8.2184692, 48.0496534], [8.2183492, 48.0497121]]};1
770;22;Vogt-Dufner-Straße;78120;Furtwangen im Schwarzwald;4;{'type': 'LineString', 'coordinates': [[8.2196236, 48.0488786], [8.219814, 48.0488177], [8.2197597, 48.0487417], [8.2195693, 48.0488026], [8.2196236, 48.0488786]]};1
771;9;Vogt-Dufner-Straße;78120;Furtwangen im Schwarzwald;4;{'type': 'LineString', 'coordinates': [[8.2181092, 48.0501582], [8.2182643, 48.0501567], [8.2182614, 48.0500236], [8.2181063, 48.0500251], [8.2181092, 48.0501582]]};1
772;18;Vogt-Dufner-Straße;78120;Furtwangen im Schwarzwald;4;{'type': 'LineString', 'coordinates': [[8.2188744, 48.0491276], [8.2190524, 48.0490723], [8.2190001, 48.0489971], [8.2188221, 48.0490524], [8.2188744, 48.0491276]]};1
773;10;Erwin-Wehrle-Straße;78120;Furtwangen im Schwarzwald;4;{'type': 'LineString', 'coordinates': [[8.2169355, 48.050029], [8.2171492, 48.0500388], [8.2171562, 48.0499698], [8.2169426, 48.0499601], [8.2169355, 48.050029]]};1
774;30;Vogt-Dufner-Straße;78120;Furtwangen im Schwarzwald;4;{'type': 'LineString', 'coordinates': [[8.2215981, 48.0480429], [8.2217802, 48.0479848], [8.2217127, 48.0478902], [8.2215305, 48.0479483], [8.2215981, 48.0480429]]};1
775;12;Vogt-Dufner-Straße;78120;Furtwangen im Schwarzwald;4;{'type': 'LineString', 'coordinates': [[8.2178985, 48.0495732], [8.218077, 48.0494734], [8.2179868, 48.0494013], [8.2178083, 48.0495011], [8.2178985, 48.0495732]]};1
776;8;Erwin-Wehrle-Straße;78120;Furtwangen im Schwarzwald;4;{'type': 'LineString', 'coordinates': [[8.2170163, 48.0503249], [8.2171348, 48.050278], [8.2170537, 48.0501866], [8.2169352, 48.0502335], [8.2170163, 48.0503249]]};1
777;32;Erwin-Wehrle-Straße;78120;Furtwangen im Schwarzwald;4;{'type': 'LineString', 'coordinates': [[8.2206833, 48.0483196], [8.2208778, 48.0482726], [8.2208298, 48.0481837], [8.2206352, 48.0482307], [8.2206833, 48.0483196]]};1
778;9;Marktplatz;78120;Furtwangen im Schwarzwald;4;{'type': 'LineString', 'coordinates': [[8.2063957, 48.0520955], [8.2064715, 48.0521565], [8.2065808, 48.0522401], [8.2067377, 48.0521512], [8.2068407, 48.0520597], [8.2070006, 48.0519399], [8.2070825, 48.0519893], [8.2071769, 48.0519168], [8.2069901, 48.0518026], [8.2067245, 48.0519944], [8.2067468, 48.0520109], [8.2067068, 48.0520356], [8.2067104, 48.0520382], [8.2066887, 48.0520516], [8.2066723, 48.052039], [8.2066766, 48.0520355], [8.2066437, 48.0520135], [8.2065959, 48.0520442], [8.206548, 48.0520081], [8.2063957, 48.0520955]]};1
779;7;Viertelhofweg;78120;Furtwangen im Schwarzwald;4;{'type': 'LineString', 'coordinates': [[8.2147797, 48.0510759], [8.2149331, 48.0511454], [8.2150108, 48.0510688], [8.2148573, 48.0509993], [8.2147797, 48.0510759]]};1
780;37;Sonnhalde;78120;Furtwangen im Schwarzwald;4;{'type': 'LineString', 'coordinates': [[8.2088553, 48.0532703], [8.2089276, 48.0531455], [8.2088082, 48.0531146], [8.2087358, 48.0532394], [8.2088553, 48.0532703]]};1
781;13;Am Wannenweg;78120;Furtwangen im Schwarzwald;4;{'type': 'LineString', 'coordinates': [[8.2159984, 48.0515441], [8.2161195, 48.0515008], [8.2160568, 48.0514225], [8.2159357, 48.0514658], [8.2159984, 48.0515441]]};1
782;13;Oberer Wannenweg;78120;Furtwangen im Schwarzwald;4;{'type': 'LineString', 'coordinates': [[8.2154777, 48.0525727], [8.215608, 48.0525319], [8.2155395, 48.0524341], [8.2154091, 48.0524749], [8.2154777, 48.0525727]]};1
783;23;Am Wannenweg;78120;Furtwangen im Schwarzwald;4;{'type': 'LineString', 'coordinates': [[8.2164787, 48.0525374], [8.2166166, 48.0524945], [8.2165622, 48.0524162], [8.2164242, 48.0524591], [8.2164787, 48.0525374]]};1
784;15;Unterallmendstraße;78120;Furtwangen im Schwarzwald;4;{'type': 'LineString', 'coordinates': [[8.2105663, 48.0506044], [8.2107099, 48.0505493], [8.2106577, 48.0504886], [8.2105142, 48.0505438], [8.2105663, 48.0506044]]};1
785;31;Am Wannenweg;78120;Furtwangen im Schwarzwald;4;{'type': 'LineString', 'coordinates': [[8.2166107, 48.0533227], [8.2167378, 48.0533106], [8.21672, 48.0532277], [8.216593, 48.0532398], [8.2166107, 48.0533227]]};1
786;6a;Rößleplatz;78120;Furtwangen im Schwarzwald;4;{'type': 'LineString', 'coordinates': [[8.2076457, 48.0529585], [8.2078387, 48.0529307], [8.2078198, 48.0528721], [8.2077798, 48.0528268], [8.2077152, 48.0528533], [8.2077372, 48.052884], [8.2076268, 48.0528999], [8.2076457, 48.0529585]]};1
787;25;Sommerbergstraße;78120;Furtwangen im Schwarzwald;4;{'type': 'LineString', 'coordinates': [[8.2113656, 48.0513197], [8.2115091, 48.05128], [8.2114549, 48.0511924], [8.2113114, 48.0512321], [8.2113656, 48.0513197]]};1
788;11;Am Wannenweg;78120;Furtwangen im Schwarzwald;4;{'type': 'LineString', 'coordinates': [[8.2158747, 48.0513401], [8.2160124, 48.0513016], [8.2159497, 48.0512012], [8.215812, 48.0512397], [8.2158747, 48.0513401]]};1
789;37;Sommerbergstraße;78120;Furtwangen im Schwarzwald;4;{'type': 'LineString', 'coordinates': [[8.2146675, 48.0504041], [8.2149183, 48.0504361], [8.2149436, 48.0503474], [8.2146928, 48.0503154], [8.2146675, 48.0504041]]};1
790;69;Allmendstraße;78120;Furtwangen im Schwarzwald;4;{'type': 'LineString', 'coordinates': [[8.214111, 48.049972], [8.2142661, 48.0499681], [8.2142616, 48.0498879], [8.2141064, 48.0498918], [8.214111, 48.049972]]};1
791;4;Oberer Wannenweg;78120;Furtwangen im Schwarzwald;4;{'type': 'LineString', 'coordinates': [[8.2147351, 48.0514926], [8.2148738, 48.051572], [8.2149644, 48.0515013], [8.2148258, 48.051422], [8.2147351, 48.0514926]]};1
792;34;Sommerbergstraße;78120;Furtwangen im Schwarzwald;4;{'type': 'LineString', 'coordinates': [[8.2130585, 48.0504712], [8.2132253, 48.0504228], [8.2131742, 48.050344], [8.2130074, 48.0503924], [8.2130585, 48.0504712]]};1
793;14;Sommerbergstraße;78120;Furtwangen im Schwarzwald;4;{'type': 'LineString', 'coordinates': [[8.209748, 48.0515944], [8.20984, 48.0515276], [8.209737, 48.0514643], [8.209645, 48.0515311], [8.209748, 48.0515944]]};1
794;2a;Sommerbergstraße;78120;Furtwangen im Schwarzwald;4;{'type': 'LineString', 'coordinates': [[8.2081266, 48.0527497], [8.2081635, 48.052783], [8.2082202, 48.0527549], [8.2081833, 48.0527216], [8.2081266, 48.0527497]]};1
795;27;Sommerbergstraße;78120;Furtwangen im Schwarzwald;4;{'type': 'LineString', 'coordinates': [[8.2116527, 48.0512259], [8.211854, 48.051173], [8.211813, 48.0511034], [8.2116117, 48.0511563], [8.2116527, 48.0512259]]};1
796;1;Allmendstraße;78120;Furtwangen im Schwarzwald;4;{'type': 'LineString', 'coordinates': [[8.207532, 48.0527582], [8.2075715, 48.052733], [8.2075983, 48.0527159], [8.2075139, 48.0526575], [8.2074451, 48.0527042], [8.207532, 48.0527582]]};1
797;17;Am Bodenwald;78120;Furtwangen im Schwarzwald;4;{'type': 'LineString', 'coordinates': [[8.2127269, 48.0513616], [8.2129629, 48.0513417], [8.2129427, 48.0512345], [8.2127067, 48.0512544], [8.2127269, 48.0513616]]};1
798;25;Allmendstraße;78120;Furtwangen im Schwarzwald;4;{'type': 'LineString', 'coordinates': [[8.2087426, 48.0521464], [8.2088075, 48.0521053], [8.20872, 48.0520435], [8.2086551, 48.0520846], [8.2087426, 48.0521464]]};1
799;28;Am Bodenwald;78120;Furtwangen im Schwarzwald;4;{'type': 'LineString', 'coordinates': [[8.2124645, 48.0516451], [8.212651, 48.0516164], [8.2126217, 48.0515313], [8.2124353, 48.05156], [8.2124645, 48.0516451]]};1
800;19;Sommerbergstraße;78120;Furtwangen im Schwarzwald;4;{'type': 'LineString', 'coordinates': [[8.2104365, 48.0517267], [8.2106807, 48.0515988], [8.210594, 48.0515247], [8.2103497, 48.0516527], [8.2104365, 48.0517267]]};1
801;2;Oberer Wannenweg;78120;Furtwangen im Schwarzwald;4;{'type': 'LineString', 'coordinates': [[8.2144282, 48.0513715], [8.2145998, 48.051441], [8.2146674, 48.0513664], [8.2144958, 48.0512969], [8.2144282, 48.0513715]]};1
802;9;Am Bodenwald;78120;Furtwangen im Schwarzwald;4;{'type': 'LineString', 'coordinates': [[8.2135932, 48.0512723], [8.2138539, 48.0512855], [8.2138655, 48.0511837], [8.2136048, 48.0511705], [8.2135932, 48.0512723]]};1
803;5;Allmendstraße;78120;Furtwangen im Schwarzwald;4;{'type': 'LineString', 'coordinates': [[8.2077267, 48.0526683], [8.2077906, 48.0526345], [8.2077736, 48.0526181], [8.2077764, 48.0526022], [8.2077923, 48.0525939], [8.2077304, 48.0525354], [8.2076312, 48.0525861], [8.2077267, 48.0526683]]};1
804;79;Allmendstraße;78120;Furtwangen im Schwarzwald;4;{'type': 'LineString', 'coordinates': [[8.2157186, 48.0498636], [8.2158749, 48.0497747], [8.2157721, 48.0496938], [8.2156157, 48.0497827], [8.2157186, 48.0498636]]};1
805;25;Am Bodenwald;78120;Furtwangen im Schwarzwald;4;{'type': 'LineString', 'coordinates': [[8.2114431, 48.0516043], [8.211684, 48.0515568], [8.2116454, 48.0514692], [8.2114045, 48.0515167], [8.2114431, 48.0516043]]};1
806;4;Sommerbergstraße;78120;Furtwangen im Schwarzwald;4;{'type': 'LineString', 'coordinates': [[8.2081598, 48.0535371], [8.2082625, 48.0534809], [8.2081691, 48.0534046], [8.2080665, 48.0534608], [8.2081598, 48.0535371]]};1
807;3;Marktplatz;78120;Furtwangen im Schwarzwald;4;{'type': 'LineString', 'coordinates': [[8.2073274, 48.0523478], [8.2074669, 48.0522823], [8.2073968, 48.0522156], [8.2073407, 48.0521622], [8.2072013, 48.0522277], [8.2072705, 48.0522936], [8.2073203, 48.052341], [8.2073274, 48.0523478]]};1
808;5;Oberer Wannenweg;78120;Furtwangen im Schwarzwald;4;{'type': 'LineString', 'coordinates': [[8.2147582, 48.0519881], [8.2148328, 48.0519124], [8.2147024, 48.0518551], [8.2146279, 48.0519308], [8.2147582, 48.0519881]]};1
809;41;Sommerbergstraße;78120;Furtwangen im Schwarzwald;4;{'type': 'LineString', 'coordinates': [[8.2152476, 48.0501609], [8.2154292, 48.0501609], [8.2154292, 48.0500826], [8.2152476, 48.0500826], [8.2152476, 48.0501609]]};1
810;36;Sommerbergstraße;78120;Furtwangen im Schwarzwald;4;{'type': 'LineString', 'coordinates': [[8.2132207, 48.0503503], [8.2133537, 48.0503292], [8.2133298, 48.0502617], [8.2131967, 48.0502827], [8.2132207, 48.0503503]]};1
811;40;Sommerbergstraße;78120;Furtwangen im Schwarzwald;4;{'type': 'LineString', 'coordinates': [[8.2136022, 48.0502715], [8.2137303, 48.0502396], [8.2136825, 48.0501538], [8.2135544, 48.0501857], [8.2136022, 48.0502715]]};1
812;29;Allmendstraße;78120;Furtwangen im Schwarzwald;4;{'type': 'LineString', 'coordinates': [[8.2090795, 48.0519071], [8.2091901, 48.0518255], [8.2090699, 48.0517528], [8.2089594, 48.0518344], [8.2090795, 48.0519071]]};1
813;3;Allmendstraße;78120;Furtwangen im Schwarzwald;4;{'type': 'LineString', 'coordinates': [[8.2075983, 48.0527159], [8.2076817, 48.0527709], [8.2078118, 48.0526898], [8.2077848, 48.0526719], [8.2077374, 48.0527011], [8.2076901, 48.0526667], [8.2076962, 48.052661], [8.2076002, 48.052602], [8.2075139, 48.0526575], [8.2075983, 48.0527159]]};1
814;23;Am Bodenwald;78120;Furtwangen im Schwarzwald;4;{'type': 'LineString', 'coordinates': [[8.2117682, 48.0515315], [8.2119629, 48.0514907], [8.2119208, 48.0514008], [8.211726, 48.0514416], [8.2117682, 48.0515315]]};1
815;15;Am Wannenweg;78120;Furtwangen im Schwarzwald;4;{'type': 'LineString', 'coordinates': [[8.2161783, 48.0517438], [8.2162964, 48.0517088], [8.2162254, 48.0516018], [8.2161074, 48.0516368], [8.2161783, 48.0517438]]};1
816;7;Oberer Wannenweg;78120;Furtwangen im Schwarzwald;4;{'type': 'LineString', 'coordinates': [[8.2149183, 48.0521238], [8.2150107, 48.0520411], [8.2148935, 48.0519826], [8.2148011, 48.0520653], [8.2149183, 48.0521238]]};1
817;4;Am Bodenwald;78120;Furtwangen im Schwarzwald;4;{'type': 'LineString', 'coordinates': [[8.2128118, 48.0508659], [8.2129728, 48.0508363], [8.2129357, 48.0507462], [8.2127747, 48.0507758], [8.2128118, 48.0508659]]};1
818;9;Viertelhofweg;78120;Furtwangen im Schwarzwald;4;{'type': 'LineString', 'coordinates': [[8.2149975, 48.0511906], [8.2151658, 48.0512678], [8.2152249, 48.0512103], [8.2150566, 48.0511331], [8.2149975, 48.0511906]]};1
819;4;Viertelhofweg;78120;Furtwangen im Schwarzwald;4;{'type': 'LineString', 'coordinates': [[8.2137453, 48.0507474], [8.21403, 48.0507224], [8.2140109, 48.0506251], [8.2137262, 48.0506501], [8.2137453, 48.0507474]]};1
820;15;Oberer Wannenweg;78120;Furtwangen im Schwarzwald;4;{'type': 'LineString', 'coordinates': [[8.2155618, 48.0528816], [8.2157169, 48.0528717], [8.2156972, 48.0527338], [8.2155421, 48.0527438], [8.2155618, 48.0528816]]};1
821;39;Sonnhalde;78120;Furtwangen im Schwarzwald;4;{'type': 'LineString', 'coordinates': [[8.2086919, 48.0534513], [8.2088016, 48.0533234], [8.2086911, 48.0532811], [8.2085814, 48.053409], [8.2086919, 48.0534513]]};1
822;8;Viertelhofweg;78120;Furtwangen im Schwarzwald;4;{'type': 'LineString', 'coordinates': [[8.2146724, 48.0507284], [8.2148226, 48.0507516], [8.21485, 48.0506722], [8.2146998, 48.050649], [8.2146724, 48.0507284]]};1
823;10;Viertelhofweg;78120;Furtwangen im Schwarzwald;4;{'type': 'LineString', 'coordinates': [[8.2151328, 48.0506634], [8.215049, 48.0507317], [8.2152685, 48.0508519], [8.2153523, 48.0507836], [8.2151328, 48.0506634]]};1
824;33;Am Wannenweg;78120;Furtwangen im Schwarzwald;4;{'type': 'LineString', 'coordinates': [[8.2166569, 48.0535588], [8.2167732, 48.0535443], [8.2167418, 48.0534318], [8.2166255, 48.0534463], [8.2166569, 48.0535588]]};1
825;45;Sonnhalde;78120;Furtwangen im Schwarzwald;4;{'type': 'LineString', 'coordinates': [[8.2072184, 48.0541628], [8.2073794, 48.0540583], [8.2073022, 48.0540052], [8.2071412, 48.0541097], [8.2072184, 48.0541628]]};1
826;8;Oberer Wannenweg;78120;Furtwangen im Schwarzwald;4;{'type': 'LineString', 'coordinates': [[8.2152516, 48.0516716], [8.2151778, 48.0517379], [8.2153197, 48.0518085], [8.2153935, 48.0517422], [8.2152516, 48.0516716]]};1
827;21;Am Bodenwald;78120;Furtwangen im Schwarzwald;4;{'type': 'LineString', 'coordinates': [[8.2120652, 48.0514498], [8.2122467, 48.0514201], [8.2122196, 48.0513463], [8.2120381, 48.0513761], [8.2120652, 48.0514498]]};1
828;44;Sommerbergstraße;78120;Furtwangen im Schwarzwald;4;{'type': 'LineString', 'coordinates': [[8.2138804, 48.0501953], [8.2140094, 48.0501826], [8.2139963, 48.0501229], [8.2138672, 48.0501356], [8.2138804, 48.0501953]]};1
829;31/1;Am Wannenweg;78120;Furtwangen im Schwarzwald;4;{'type': 'LineString', 'coordinates': [[8.2165744, 48.0531804], [8.2166668, 48.0531716], [8.2166521, 48.0531028], [8.2165597, 48.0531116], [8.2165744, 48.0531804]]};1
830;27;Allmendstraße;78120;Furtwangen im Schwarzwald;4;{'type': 'LineString', 'coordinates': [[8.2088069, 48.0520681], [8.2089142, 48.0520041], [8.2088584, 48.0519623], [8.2087512, 48.0520263], [8.2088069, 48.0520681]]};1
831;26;Am Bodenwald;78120;Furtwangen im Schwarzwald;4;{'type': 'LineString', 'coordinates': [[8.2128028, 48.0516021], [8.212986, 48.0515943], [8.2129776, 48.0515056], [8.2127944, 48.0515133], [8.2128028, 48.0516021]]};1
832;42;Sommerbergstraße;78120;Furtwangen im Schwarzwald;4;{'type': 'LineString', 'coordinates': [[8.2137387, 48.0502286], [8.2138804, 48.0501953], [8.213836, 48.0501111], [8.2136944, 48.0501444], [8.2137387, 48.0502286]]};1
833;13;Marktplatz;78120;Furtwangen im Schwarzwald;4;{'type': 'LineString', 'coordinates': [[8.2062547, 48.0519675], [8.2065311, 48.051815], [8.2064051, 48.051713], [8.2061287, 48.0518655], [8.2061644, 48.0518941], [8.2062547, 48.0519675]]};1
834;81;Allmendstraße;78120;Furtwangen im Schwarzwald;4;{'type': 'LineString', 'coordinates': [[8.21598, 48.0497232], [8.2161923, 48.049653], [8.2161188, 48.0495535], [8.2159064, 48.0496237], [8.21598, 48.0497232]]};1
835;21;Sommerbergstraße;78120;Furtwangen im Schwarzwald;4;{'type': 'LineString', 'coordinates': [[8.2109514, 48.0514907], [8.2111131, 48.0514311], [8.2110479, 48.051352], [8.2108862, 48.0514116], [8.2109514, 48.0514907]]};1
836;77;Allmendstraße;78120;Furtwangen im Schwarzwald;4;{'type': 'LineString', 'coordinates': [[8.2153718, 48.0498238], [8.2154919, 48.0498417], [8.2155047, 48.0498035], [8.2153845, 48.0497856], [8.2153718, 48.0498238]]};1
837;3;Am Wannenweg;78120;Furtwangen im Schwarzwald;4;{'type': 'LineString', 'coordinates': [[8.2156041, 48.0503649], [8.2157278, 48.0503263], [8.2156684, 48.0502413], [8.2155447, 48.05028], [8.2156041, 48.0503649]]};1
838;6;Viertelhofweg;78120;Furtwangen im Schwarzwald;4;{'type': 'LineString', 'coordinates': [[8.214233, 48.050621], [8.214227, 48.0506746], [8.2144161, 48.0506839], [8.214422, 48.0506304], [8.214233, 48.050621]]};1
839;19;Am Bodenwald;78120;Furtwangen im Schwarzwald;4;{'type': 'LineString', 'coordinates': [[8.2124563, 48.051398], [8.2126312, 48.0513793], [8.2126062, 48.0512751], [8.2124313, 48.0512939], [8.2124563, 48.051398]]};1
840;7;Am Wannenweg;78120;Furtwangen im Schwarzwald;4;{'type': 'LineString', 'coordinates': [[8.215741, 48.050943], [8.2158531, 48.0509063], [8.2157739, 48.0507982], [8.2156618, 48.0508349], [8.215741, 48.050943]]};1
841;24;Am Bodenwald;78120;Furtwangen im Schwarzwald;4;{'type': 'LineString', 'coordinates': [[8.2132566, 48.0515988], [8.2134018, 48.0515966], [8.2133982, 48.0514917], [8.213253, 48.0514939], [8.2132566, 48.0515988]]};1
842;33;Baumannstraße;78120;Furtwangen im Schwarzwald;4;{'type': 'LineString', 'coordinates': [[8.2093719, 48.0508725], [8.209489, 48.0507357], [8.2093265, 48.0506735], [8.2092094, 48.0508103], [8.2093719, 48.0508725]]};1
843;9;Oberer Wannenweg;78120;Furtwangen im Schwarzwald;4;{'type': 'LineString', 'coordinates': [[8.2151509, 48.0522738], [8.2152302, 48.0522062], [8.2150932, 48.0521345], [8.215014, 48.0522021], [8.2151509, 48.0522738]]};1
844;1/1;Sommerbergstraße;78120;Furtwangen im Schwarzwald;4;{'type': 'LineString', 'coordinates': [[8.207869, 48.0532351], [8.2079652, 48.0532998], [8.2080627, 48.0532351], [8.2079666, 48.0531703], [8.207869, 48.0532351]]};1
845;3;Oberer Wannenweg;78120;Furtwangen im Schwarzwald;4;{'type': 'LineString', 'coordinates': [[8.2145272, 48.05188], [8.2145898, 48.0517989], [8.2144297, 48.0517437], [8.2143671, 48.0518249], [8.2145272, 48.05188]]};1
846;5;Am Wannenweg;78120;Furtwangen im Schwarzwald;4;{'type': 'LineString', 'coordinates': [[8.2155942, 48.0506606], [8.2157081, 48.0506277], [8.2156404, 48.0505229], [8.2155265, 48.0505558], [8.2155942, 48.0506606]]};1
847;33;Sommerbergstraße;78120;Furtwangen im Schwarzwald;4;{'type': 'LineString', 'coordinates': [[8.2136987, 48.050541], [8.2138394, 48.0505094], [8.2137965, 48.0504239], [8.2136558, 48.0504555], [8.2136987, 48.050541]]};1
848;3b;Sommerbergstraße;78120;Furtwangen im Schwarzwald;4;{'type': 'LineString', 'coordinates': [[8.2089757, 48.0528035], [8.2090364, 48.0527349], [8.2089416, 48.0526974], [8.2088809, 48.052766], [8.2089757, 48.0528035]]};1
849;35;Sommerbergstraße;78120;Furtwangen im Schwarzwald;4;{'type': 'LineString', 'coordinates': [[8.2141728, 48.0504439], [8.2143583, 48.0504142], [8.2143239, 48.050318], [8.2141384, 48.0503477], [8.2141728, 48.0504439]]};1
850;11;Viertelhofweg;78120;Furtwangen im Schwarzwald;4;{'type': 'LineString', 'coordinates': [[8.2152203, 48.0513186], [8.215344, 48.0513892], [8.2154327, 48.0513197], [8.2153089, 48.0512491], [8.2152203, 48.0513186]]};1
851;29;Am Wannenweg;78120;Furtwangen im Schwarzwald;4;{'type': 'LineString', 'coordinates': [[8.2165463, 48.0530194], [8.2167048, 48.0529665], [8.2166473, 48.0528897], [8.2164889, 48.0529426], [8.2165463, 48.0530194]]};1
852;8;Rößleplatz;78120;Furtwangen im Schwarzwald;4;{'type': 'LineString', 'coordinates': [[8.2073807, 48.0527916], [8.2074578, 48.0528438], [8.2074931, 48.0528199], [8.2075251, 48.0527983], [8.2075592, 48.0527752], [8.207532, 48.0527582], [8.2074451, 48.0527042], [8.2073807, 48.0527916]]};1
853;25;Am Wannenweg;78120;Furtwangen im Schwarzwald;4;{'type': 'LineString', 'coordinates': [[8.2165331, 48.0526951], [8.2166647, 48.0526538], [8.2165987, 48.05256], [8.2164671, 48.0526014], [8.2165331, 48.0526951]]};1
854;10;Oberer Wannenweg;78120;Furtwangen im Schwarzwald;4;{'type': 'LineString', 'coordinates': [[8.2154562, 48.0519231], [8.2155569, 48.051997], [8.2156554, 48.051937], [8.2155547, 48.0518631], [8.2154562, 48.0519231]]};1
855;2;Am Wannenweg;78120;Furtwangen im Schwarzwald;4;{'type': 'LineString', 'coordinates': [[8.2167262, 48.0520714], [8.2168499, 48.0520515], [8.2168241, 48.0519797], [8.2167004, 48.0519996], [8.2167262, 48.0520714]]};1
856;59;Allmendstraße;78120;Furtwangen im Schwarzwald;4;{'type': 'LineString', 'coordinates': [[8.212821, 48.0501045], [8.2129843, 48.050056], [8.2129285, 48.0499719], [8.2127651, 48.0500205], [8.212821, 48.0501045]]};1
857;17;Am Wannenweg;78120;Furtwangen im Schwarzwald;4;{'type': 'LineString', 'coordinates': [[8.216241, 48.0519909], [8.2163701, 48.0519521], [8.2162974, 48.051844], [8.2161684, 48.0518828], [8.216241, 48.0519909]]};1
858;6;Oberer Wannenweg;78120;Furtwangen im Schwarzwald;4;{'type': 'LineString', 'coordinates': [[8.2149711, 48.0516197], [8.2151163, 48.0516848], [8.2151889, 48.0516124], [8.2150437, 48.0515473], [8.2149711, 48.0516197]]};1
859;75;Allmendstraße;78120;Furtwangen im Schwarzwald;4;{'type': 'LineString', 'coordinates': [[8.2150637, 48.0499151], [8.2152329, 48.0499135], [8.21523, 48.0497723], [8.2150608, 48.0497738], [8.2150637, 48.0499151]]};1
860;2;Am Bodenwald;78120;Furtwangen im Schwarzwald;4;{'type': 'LineString', 'coordinates': [[8.2123661, 48.0509205], [8.2125014, 48.0508893], [8.2124648, 48.0508184], [8.2123295, 48.0508496], [8.2123661, 48.0509205]]};1
861;20;Oberer Wannenweg;78120;Furtwangen im Schwarzwald;4;{'type': 'LineString', 'coordinates': [[8.2159892, 48.052982], [8.216154, 48.0529728], [8.2161359, 48.0528272], [8.2159711, 48.0528364], [8.2159892, 48.052982]]};1
862;17;Allmendstraße;78120;Furtwangen im Schwarzwald;4;{'type': 'LineString', 'coordinates': [[8.2083201, 48.0523196], [8.2083681, 48.0522963], [8.2082988, 48.0522324], [8.2082508, 48.0522556], [8.2083201, 48.0523196]]};1
863;6;Sonnhalde;78120;Furtwangen im Schwarzwald;4;{'type': 'LineString', 'coordinates': [[8.2115487, 48.0519881], [8.21175, 48.051922], [8.2116837, 48.0518318], [8.2114824, 48.051898], [8.2115487, 48.0519881]]};1
864;71;Allmendstraße;78120;Furtwangen im Schwarzwald;4;{'type': 'LineString', 'coordinates': [[8.2144843, 48.0499151], [8.214629, 48.0499182], [8.2146332, 48.0498305], [8.2144886, 48.0498274], [8.2144843, 48.0499151]]};1
865;11;Marktplatz;78120;Furtwangen im Schwarzwald;4;{'type': 'LineString', 'coordinates': [[8.2063922, 48.0520672], [8.2065976, 48.0519658], [8.206502, 48.0518793], [8.2062966, 48.0519807], [8.2063922, 48.0520672]]};1
866;18;Sommerbergstraße;78120;Furtwangen im Schwarzwald;4;{'type': 'LineString', 'coordinates': [[8.2103657, 48.0513237], [8.2104932, 48.0512607], [8.2104091, 48.0511846], [8.2102815, 48.0512476], [8.2103657, 48.0513237]]};1
867;13;Sommerbergstraße;78120;Furtwangen im Schwarzwald;4;{'type': 'LineString', 'coordinates': [[8.2082436, 48.0532777], [8.2083362, 48.0532717], [8.2084107, 48.0531749], [8.2083495, 48.053152], [8.2082972, 48.0532184], [8.2082403, 48.0532205], [8.2082436, 48.0532777]]};1
868;1;Oberer Wannenweg;78120;Furtwangen im Schwarzwald;4;{'type': 'LineString', 'coordinates': [[8.2140883, 48.0517499], [8.2142632, 48.051794], [8.2143118, 48.0517078], [8.2141369, 48.0516637], [8.2140883, 48.0517499]]};1
869;23;Sommerbergstraße;78120;Furtwangen im Schwarzwald;4;{'type': 'LineString', 'coordinates': [[8.2113656, 48.0513197], [8.2113062, 48.0512327], [8.2111759, 48.0512724], [8.2112352, 48.0513594], [8.2113656, 48.0513197]]};1
870;3;Viertelhofweg;78120;Furtwangen im Schwarzwald;4;{'type': 'LineString', 'coordinates': [[8.214052, 48.0509336], [8.2142302, 48.0509689], [8.2142685, 48.0508824], [8.2140903, 48.0508471], [8.214052, 48.0509336]]};1
871;73;Allmendstraße;78120;Furtwangen im Schwarzwald;4;{'type': 'LineString', 'coordinates': [[8.2147259, 48.049908], [8.2148647, 48.0499112], [8.2148703, 48.0498007], [8.2147314, 48.0497976], [8.2147259, 48.049908]]};1
872;2;Sommerbergstraße;78120;Furtwangen im Schwarzwald;4;{'type': 'LineString', 'coordinates': [[8.2082138, 48.0529615], [8.2083025, 48.0528866], [8.208207, 48.0528361], [8.2081183, 48.052911], [8.2082138, 48.0529615]]};1
873;7;Marktplatz;78120;Furtwangen im Schwarzwald;4;{'type': 'LineString', 'coordinates': [[8.2067451, 48.0523064], [8.2068503, 48.0522314], [8.2068055, 48.0522033], [8.2068185, 48.052194], [8.206761, 48.0521578], [8.2066426, 48.0522421], [8.2067451, 48.0523064]]};1
874;22;Am Bodenwald;78120;Furtwangen im Schwarzwald;4;{'type': 'LineString', 'coordinates': [[8.2135487, 48.0515767], [8.213712, 48.0516197], [8.2137581, 48.0515415], [8.2135948, 48.0514985], [8.2135487, 48.0515767]]};1
875;39;Sommerbergstraße;78120;Furtwangen im Schwarzwald;4;{'type': 'LineString', 'coordinates': [[8.2152097, 48.0504179], [8.2153231, 48.0504147], [8.2153181, 48.0503364], [8.2152047, 48.0503396], [8.2152097, 48.0504179]]};1
876;39;Allmendstraße;78120;Furtwangen im Schwarzwald;4;{'type': 'LineString', 'coordinates': [[8.2098997, 48.0512232], [8.2100663, 48.0511218], [8.2099416, 48.0510302], [8.209775, 48.0511317], [8.2098997, 48.0512232]]};1
877;6;Am Wannenweg;78120;Furtwangen im Schwarzwald;4;{'type': 'LineString', 'coordinates': [[8.2169209, 48.0524977], [8.216916, 48.0523995], [8.216802, 48.0524021], [8.216807, 48.0525002], [8.2169209, 48.0524977]]};1
878;1;Am Wannenweg;78120;Furtwangen im Schwarzwald;4;{'type': 'LineString', 'coordinates': [[8.2155843, 48.0501774], [8.2157039, 48.0501576], [8.215661, 48.0500418], [8.2155414, 48.0500616], [8.2155843, 48.0501774]]};1
879;61;Allmendstraße;78120;Furtwangen im Schwarzwald;4;{'type': 'LineString', 'coordinates': [[8.2130398, 48.0500352], [8.2132218, 48.0499938], [8.2131881, 48.0499275], [8.2130061, 48.0499689], [8.2130398, 48.0500352]]};1
880;5;Viertelhofweg;78120;Furtwangen im Schwarzwald;4;{'type': 'LineString', 'coordinates': [[8.2143671, 48.0509722], [8.2145454, 48.0510318], [8.2146031, 48.0509546], [8.2144249, 48.050895], [8.2143671, 48.0509722]]};1
881;27;Am Wannenweg;78120;Furtwangen im Schwarzwald;4;{'type': 'LineString', 'coordinates': [[8.2165199, 48.0528584], [8.2166446, 48.0528177], [8.2165753, 48.0527228], [8.2164506, 48.0527635], [8.2165199, 48.0528584]]};1
882;22;Sommerbergstraße;78120;Furtwangen im Schwarzwald;4;{'type': 'LineString', 'coordinates': [[8.2111785, 48.0510208], [8.2113302, 48.05096], [8.2112598, 48.0508815], [8.2111081, 48.0509424], [8.2111785, 48.0510208]]};1
883;14;Oberer Wannenweg;78120;Furtwangen im Schwarzwald;4;{'type': 'LineString', 'coordinates': [[8.2159001, 48.0523532], [8.2160228, 48.0523144], [8.2159502, 48.0522119], [8.2158275, 48.0522507], [8.2159001, 48.0523532]]};1
884;20;Am Bodenwald;78120;Furtwangen im Schwarzwald;4;{'type': 'LineString', 'coordinates': [[8.2138391, 48.051644], [8.2139975, 48.0516859], [8.2140539, 48.0515907], [8.2138955, 48.0515487], [8.2138391, 48.051644]]};1
885;17;Sommerbergstraße;78120;Furtwangen im Schwarzwald;4;{'type': 'LineString', 'coordinates': [[8.2098502, 48.0521024], [8.2099708, 48.0520466], [8.2098636, 48.0519429], [8.2097429, 48.0519987], [8.2098502, 48.0521024]]};1
886;3a;Sommerbergstraße;78120;Furtwangen im Schwarzwald;4;{'type': 'LineString', 'coordinates': [[8.2087507, 48.0530648], [8.208802, 48.0529899], [8.2087052, 48.0529602], [8.2086539, 48.0530351], [8.2087507, 48.0530648]]};1
887;30;Am Bodenwald;78120;Furtwangen im Schwarzwald;4;{'type': 'LineString', 'coordinates': [[8.2121263, 48.0517179], [8.2123028, 48.0516881], [8.2122661, 48.0515908], [8.2120895, 48.0516206], [8.2121263, 48.0517179]]};1
888;19;Am Wannenweg;78120;Furtwangen im Schwarzwald;4;{'type': 'LineString', 'coordinates': [[8.2163318, 48.052239], [8.216454, 48.0522084], [8.2163897, 48.0520937], [8.2162674, 48.0521243], [8.2163318, 48.052239]]};1
889;11;Oberer Wannenweg;78120;Furtwangen im Schwarzwald;4;{'type': 'LineString', 'coordinates': [[8.2153028, 48.0524316], [8.2153981, 48.0523687], [8.2152876, 48.0522937], [8.2151922, 48.0523565], [8.2153028, 48.0524316]]};1
890;8;Am Wannenweg;78120;Furtwangen im Schwarzwald;4;{'type': 'LineString', 'coordinates': [[8.216845, 48.0526389], [8.2170265, 48.05263], [8.2170183, 48.0525542], [8.2168368, 48.052563], [8.216845, 48.0526389]]};1
891;1;Am Bodenwald;78120;Furtwangen im Schwarzwald;4;{'type': 'LineString', 'coordinates': [[8.2120174, 48.0512612], [8.2123441, 48.0511939], [8.2123019, 48.0511024], [8.2119752, 48.0511697], [8.2120174, 48.0512612]]};1
892;20;Sommerbergstraße;78120;Furtwangen im Schwarzwald;4;{'type': 'LineString', 'coordinates': [[8.2108043, 48.051181], [8.2109603, 48.0511123], [8.2108938, 48.0510448], [8.2107379, 48.0511135], [8.2108043, 48.051181]]};1
893;6;Rößleplatz;78120;Furtwangen im Schwarzwald;4;{'type': 'LineString', 'coordinates': [[8.2075262, 48.0529738], [8.2075937, 48.0529025], [8.2075685, 48.0528919], [8.2075816, 48.052878], [8.2075507, 48.0528649], [8.2075389, 48.0528773], [8.2074698, 48.0528481], [8.2074009, 48.0529208], [8.2075262, 48.0529738]]};1
894;22;Oberer Wannenweg;78120;Furtwangen im Schwarzwald;4;{'type': 'LineString', 'coordinates': [[8.2160272, 48.0531364], [8.2161328, 48.0531287], [8.2161229, 48.0530683], [8.2160173, 48.053076], [8.2160272, 48.0531364]]};1
895;10;Am Wannenweg;78120;Furtwangen im Schwarzwald;4;{'type': 'LineString', 'coordinates': [[8.2169407, 48.0528661], [8.217097, 48.052818], [8.2170211, 48.0527077], [8.2168648, 48.0527558], [8.2169407, 48.0528661]]};1
896;67;Allmendstraße;78120;Furtwangen im Schwarzwald;4;{'type': 'LineString', 'coordinates': [[8.2137831, 48.0499197], [8.2139103, 48.049894], [8.2138725, 48.0498106], [8.2137453, 48.0498363], [8.2137831, 48.0499197]]};1
897;53/1;Allmendstraße;78120;Furtwangen im Schwarzwald;4;{'type': 'LineString', 'coordinates': [[8.2114703, 48.0506101], [8.21161, 48.050579], [8.21159, 48.0505388], [8.2115712, 48.050543], [8.2115506, 48.0505016], [8.2114297, 48.0505284], [8.2114703, 48.0506101]]};1
898;5;Am Bodenwald;78120;Furtwangen im Schwarzwald;4;{'type': 'LineString', 'coordinates': [[8.2130652, 48.0511509], [8.213288, 48.0511256], [8.2132673, 48.0510445], [8.2130445, 48.0510699], [8.2130652, 48.0511509]]};1
899;3;Lochhofstraße;78120;Furtwangen im Schwarzwald;4;{'type': 'LineString', 'coordinates': [[8.2160831, 48.0502972], [8.2162005, 48.0502558], [8.2161854, 48.0502367], [8.2162193, 48.0502247], [8.2162281, 48.0502359], [8.216308, 48.0502077], [8.2162809, 48.0501735], [8.2163134, 48.050162], [8.2162495, 48.0500811], [8.2162819, 48.0500697], [8.2162294, 48.0500033], [8.2161208, 48.0500417], [8.2161344, 48.0500589], [8.2160849, 48.0500763], [8.2160958, 48.0500902], [8.2159686, 48.0501351], [8.2160184, 48.0501982], [8.2160078, 48.050202], [8.2160831, 48.0502972]]};1
900;38;Sommerbergstraße;78120;Furtwangen im Schwarzwald;4;{'type': 'LineString', 'coordinates': [[8.2134447, 48.0503191], [8.2135798, 48.0502882], [8.2135366, 48.0502039], [8.2134015, 48.0502349], [8.2134447, 48.0503191]]};1
901;1;Marktplatz;78120;Furtwangen im Schwarzwald;4;{'type': 'LineString', 'coordinates': [[8.2069516, 48.0524395], [8.2069517, 48.0524475], [8.2069667, 48.0524543], [8.2069841, 48.0524462], [8.2069797, 48.052436], [8.2070544, 48.0523795], [8.2069056, 48.0523015], [8.2068175, 48.0523708], [8.2069516, 48.0524395]]};1
902;53;Allmendstraße;78120;Furtwangen im Schwarzwald;4;{'type': 'LineString', 'coordinates': [[8.2112497, 48.0507034], [8.2112824, 48.0506946], [8.211295, 48.0507155], [8.2113446, 48.0507022], [8.2113321, 48.0506812], [8.2114543, 48.0506483], [8.2113683, 48.0505057], [8.2111637, 48.0505609], [8.2111838, 48.0505941], [8.2111438, 48.050605], [8.2111783, 48.0506622], [8.2112183, 48.0506514], [8.2112497, 48.0507034]]};1
903;15;Am Bodenwald;78120;Furtwangen im Schwarzwald;4;{'type': 'LineString', 'coordinates': [[8.2131279, 48.0513219], [8.2132682, 48.0513252], [8.213273, 48.0512327], [8.2131328, 48.0512294], [8.2131279, 48.0513219]]};1
904;32;Am Bodenwald;78120;Furtwangen im Schwarzwald;4;{'type': 'LineString', 'coordinates': [[8.2118408, 48.0517863], [8.212019, 48.0517598], [8.2119871, 48.0516639], [8.2118089, 48.0516904], [8.2118408, 48.0517863]]};1
905;7;Allmendstraße;78120;Furtwangen im Schwarzwald;4;{'type': 'LineString', 'coordinates': [[8.2078213, 48.0526214], [8.2078718, 48.0525976], [8.2077808, 48.0525115], [8.2077304, 48.0525354], [8.2077923, 48.0525939], [8.2078213, 48.0526214]]};1
906;43;Allmendstraße;78120;Furtwangen im Schwarzwald;4;{'type': 'LineString', 'coordinates': [[8.210281, 48.0509975], [8.2103843, 48.0509418], [8.2102992, 48.0508712], [8.2101958, 48.0509269], [8.210281, 48.0509975]]};1
907;1;Sommerbergstraße;78120;Furtwangen im Schwarzwald;4;{'type': 'LineString', 'coordinates': [[8.2079449, 48.0530861], [8.2080644, 48.0530093], [8.2079833, 48.0529529], [8.2078638, 48.0530296], [8.2079449, 48.0530861]]};1
908;17;Unterallmendstraße;78120;Furtwangen im Schwarzwald;4;{'type': 'LineString', 'coordinates': [[8.2106158, 48.0504004], [8.210705, 48.0504857], [8.2108255, 48.0504294], [8.2107363, 48.0503441], [8.2106158, 48.0504004]]};1
909;2;Viertelhofweg;78120;Furtwangen im Schwarzwald;4;{'type': 'LineString', 'coordinates': [[8.2132389, 48.0508285], [8.2134512, 48.0508082], [8.2134339, 48.050727], [8.2132215, 48.0507473], [8.2132389, 48.0508285]]};1
910;41;Sonnhalde;78120;Furtwangen im Schwarzwald;4;{'type': 'LineString', 'coordinates': [[8.2084025, 48.05364], [8.2085542, 48.0535636], [8.2084763, 48.0534945], [8.2083247, 48.053571], [8.2084025, 48.05364]]};1
911;17;Oberer Wannenweg;78120;Furtwangen im Schwarzwald;4;{'type': 'LineString', 'coordinates': [[8.2156691, 48.0530548], [8.2158093, 48.0530548], [8.2158093, 48.0529445], [8.2156691, 48.0529445], [8.2156691, 48.0530548]]};1
912;3;Am Bodenwald;78120;Furtwangen im Schwarzwald;4;{'type': 'LineString', 'coordinates': [[8.2126411, 48.0511719], [8.2128177, 48.0511531], [8.2127961, 48.0510625], [8.2126196, 48.0510812], [8.2126411, 48.0511719]]};1
913;9;Allmendstraße;78120;Furtwangen im Schwarzwald;4;{'type': 'LineString', 'coordinates': [[8.2079189, 48.0526084], [8.2079889, 48.0525749], [8.2079792, 48.0525656], [8.2079404, 48.0525285], [8.2079986, 48.0525049], [8.2079355, 48.0524414], [8.2078091, 48.0524982], [8.2078975, 48.0525869], [8.2079189, 48.0526084]]};1
914;3;Sommerbergstraße;78120;Furtwangen im Schwarzwald;4;{'type': 'LineString', 'coordinates': [[8.2084841, 48.0528037], [8.2085653, 48.0527637], [8.2086179, 48.0528116], [8.2087317, 48.0527556], [8.2086648, 48.052695], [8.2086033, 48.0527252], [8.2085474, 48.0526744], [8.208414, 48.05274], [8.2084841, 48.0528037]]};1
915;4;Am Wannenweg;78120;Furtwangen im Schwarzwald;4;{'type': 'LineString', 'coordinates': [[8.2167596, 48.0523656], [8.2168301, 48.0523604], [8.2168209, 48.0523037], [8.2168978, 48.052298], [8.2168782, 48.0521802], [8.2167594, 48.0521891], [8.2167786, 48.0523065], [8.2167503, 48.0523086], [8.2167596, 48.0523656]]};1
916;12;Oberer Wannenweg;78120;Furtwangen im Schwarzwald;4;{'type': 'LineString', 'coordinates': [[8.2157565, 48.0522322], [8.2158242, 48.052206], [8.2158047, 48.0521834], [8.2158749, 48.0521563], [8.2157891, 48.0520571], [8.2156905, 48.0520951], [8.2157518, 48.052166], [8.2157124, 48.0521812], [8.2157565, 48.0522322]]};1
918;9;Fohrenstraße;78120;Furtwangen im Schwarzwald;4;{'type': 'LineString', 'coordinates': [[8.2059206, 48.0545228], [8.2060362, 48.054557], [8.2061039, 48.0544547], [8.2059884, 48.0544206], [8.2059206, 48.0545228]]};1
921;14;Fohrenstraße;78120;Furtwangen im Schwarzwald;4;{'type': 'LineString', 'coordinates': [[8.2052309, 48.0558243], [8.2054091, 48.0558717], [8.2054541, 48.0557962], [8.2052759, 48.0557487], [8.2052309, 48.0558243]]};1
925;11;Fohrenstraße;78120;Furtwangen im Schwarzwald;4;{'type': 'LineString', 'coordinates': [[8.2058879, 48.055481], [8.205927, 48.0553858], [8.205764, 48.0553559], [8.2057249, 48.055451], [8.2058879, 48.055481]]};1
927;16;Werderstraße;78120;Furtwangen im Schwarzwald;4;{'type': 'LineString', 'coordinates': [[8.2049289, 48.0558695], [8.205018, 48.0556897], [8.2048862, 48.0556606], [8.2047971, 48.0558403], [8.2049289, 48.0558695]]};1
928;5;Fohrenstraße;78120;Furtwangen im Schwarzwald;4;{'type': 'LineString', 'coordinates': [[8.2066021, 48.0544202], [8.2066616, 48.0542923], [8.2065319, 48.0542654], [8.2064725, 48.0543933], [8.2066021, 48.0544202]]};1
929;12;Fohrenstraße;78120;Furtwangen im Schwarzwald;4;{'type': 'LineString', 'coordinates': [[8.2053546, 48.0556412], [8.2054686, 48.0556675], [8.2055016, 48.0556035], [8.2053877, 48.0555772], [8.2053546, 48.0556412]]};1
932;17;Werderstraße;78120;Furtwangen im Schwarzwald;4;{'type': 'LineString', 'coordinates': [[8.2046724, 48.0562064], [8.2047779, 48.0562304], [8.2048513, 48.0560866], [8.2047458, 48.0560625], [8.2046724, 48.0562064]]};1
934;2;Fohrenstraße;78120;Furtwangen im Schwarzwald;4;{'type': 'LineString', 'coordinates': [[8.2070514, 48.0535985], [8.2071636, 48.0535235], [8.2071042, 48.0534838], [8.206992, 48.0535588], [8.2070514, 48.0535985]]};1
935;1;Fohrenstraße;78120;Furtwangen im Schwarzwald;4;{'type': 'LineString', 'coordinates': [[8.2073472, 48.053358], [8.2074462, 48.0532455], [8.2073375, 48.0532028], [8.2072385, 48.0533153], [8.2073472, 48.053358]]};1
939;17;Kirnerstraße;78120;Furtwangen im Schwarzwald;4;{'type': 'LineString', 'coordinates': [[8.2055543, 48.0547533], [8.2056385, 48.0546496], [8.2055472, 48.0546166], [8.2054631, 48.0547202], [8.2055543, 48.0547533]]};1
940;4;Rößleplatz;78120;Furtwangen im Schwarzwald;4;{'type': 'LineString', 'coordinates': [[8.207514, 48.0532083], [8.207594, 48.053146], [8.2074865, 48.0530843], [8.2074064, 48.0531466], [8.207514, 48.0532083]]};1
941;16;Friedrichstraße;78120;Furtwangen im Schwarzwald;4;{'type': 'LineString', 'coordinates': [[8.2040937, 48.0561952], [8.2042244, 48.0559691], [8.2040711, 48.0559295], [8.2039404, 48.0561557], [8.2040937, 48.0561952]]};1
942;7;Fohrenstraße;78120;Furtwangen im Schwarzwald;4;{'type': 'LineString', 'coordinates': [[8.2060395, 48.0549805], [8.2061401, 48.0548349], [8.2059909, 48.0547889], [8.2058903, 48.0549344], [8.2060395, 48.0549805]]};1
943;10;Kreuzerstraße;78120;Furtwangen im Schwarzwald;4;{'type': 'LineString', 'coordinates': [[8.2063761, 48.0537165], [8.2065708, 48.053797], [8.2066571, 48.0537037], [8.2064624, 48.0536232], [8.2063761, 48.0537165]]};1
944;10;Fohrenstraße;78120;Furtwangen im Schwarzwald;4;{'type': 'LineString', 'coordinates': [[8.2062919, 48.0540044], [8.2064239, 48.0540595], [8.2065021, 48.053976], [8.2063701, 48.0539208], [8.2062919, 48.0540044]]};1
945;15;Fohrenstraße;78120;Furtwangen im Schwarzwald;4;{'type': 'LineString', 'coordinates': [[8.205183, 48.0559578], [8.2053464, 48.0559986], [8.205392, 48.055917], [8.2052286, 48.0558762], [8.205183, 48.0559578]]};1
946;37;Friedrichstraße;78120;Furtwangen im Schwarzwald;4;{'type': 'LineString', 'coordinates': [[8.2033817, 48.0561608], [8.2034716, 48.0561741], [8.2035012, 48.0560844], [8.2035164, 48.0560385], [8.2034265, 48.0560252], [8.2033817, 48.0561608]]};1
951;3;Rößleplatz;78120;Furtwangen im Schwarzwald;4;{'type': 'LineString', 'coordinates': [[8.2072585, 48.0531549], [8.2073499, 48.0530647], [8.2072021, 48.0529901], [8.2072101, 48.0529822], [8.2071514, 48.052953], [8.2071151, 48.052989], [8.2071274, 48.0529952], [8.207058, 48.0530607], [8.207123, 48.0530912], [8.2071239, 48.0530949], [8.2071587, 48.0531101], [8.2071556, 48.0531216], [8.2071753, 48.0531314], [8.207193, 48.0531241], [8.2072585, 48.0531549]]};1
952;6;Fohrenstraße;78120;Furtwangen im Schwarzwald;4;{'type': 'LineString', 'coordinates': [[8.2061352, 48.0546088], [8.2060603, 48.0546942], [8.2062038, 48.0547505], [8.2062787, 48.0546651], [8.2061352, 48.0546088]]};1
960;18;Fohrenstraße;78120;Furtwangen im Schwarzwald;4;{'type': 'LineString', 'coordinates': [[8.2051121, 48.0561078], [8.2052391, 48.0561353], [8.2052848, 48.0560413], [8.2051577, 48.0560137], [8.2051121, 48.0561078]]};1
961;13;Werderstraße;78120;Furtwangen im Schwarzwald;4;{'type': 'LineString', 'coordinates': [[8.2043037, 48.0559581], [8.2042693, 48.05603], [8.204386, 48.0560549], [8.2044204, 48.0559831], [8.2043037, 48.0559581]]};1
962;5a;Fohrenstraße;78120;Furtwangen im Schwarzwald;4;{'type': 'LineString', 'coordinates': [[8.2062309, 48.0545074], [8.2062975, 48.0545296], [8.2064031, 48.0543884], [8.2063365, 48.0543662], [8.2062309, 48.0545074]]};1
963;7;Werderstraße;78120;Furtwangen im Schwarzwald;4;{'type': 'LineString', 'coordinates': [[8.2034309, 48.0559535], [8.2035803, 48.0559831], [8.203608, 48.0559206], [8.2034587, 48.055891], [8.2034309, 48.0559535]]};1
965;13;Fohrenstraße;78120;Furtwangen im Schwarzwald;4;{'type': 'LineString', 'coordinates': [[8.2058513, 48.0557228], [8.2059206, 48.0555739], [8.20579, 48.0555467], [8.2057206, 48.0556956], [8.2058513, 48.0557228]]};1
966;2;Kreuzerstraße;78120;Furtwangen im Schwarzwald;4;{'type': 'LineString', 'coordinates': [[8.2070147, 48.0533988], [8.2071599, 48.0532279], [8.2069421, 48.0531452], [8.2068392, 48.0532663], [8.2069421, 48.0533053], [8.2068997, 48.0533552], [8.2070147, 48.0533988]]};1
969;2;Marktplatz;78120;Furtwangen im Schwarzwald;4;{'type': 'LineString', 'coordinates': [[8.206172, 48.0527735], [8.206276, 48.0526871], [8.2063969, 48.0527586], [8.2065546, 48.052677], [8.2065229, 48.0526551], [8.2065496, 48.0526398], [8.2065124, 48.0526102], [8.2066807, 48.0525194], [8.2068305, 48.0526378], [8.2066667, 48.0527286], [8.2064162, 48.0528671], [8.2063211, 48.0527831], [8.2062644, 48.0528248], [8.206172, 48.0527735]]};1
970;6;Am Kirchberg;78120;Furtwangen im Schwarzwald;4;{'type': 'LineString', 'coordinates': [[8.2040915, 48.051733], [8.2042751, 48.0510458], [8.2045655, 48.0510804], [8.2045477, 48.0511473], [8.2046796, 48.051163], [8.2046974, 48.0510964], [8.2049528, 48.0511268], [8.2048488, 48.0515162], [8.2046033, 48.0514869], [8.2045835, 48.0515608], [8.2045435, 48.051556], [8.2045282, 48.0516131], [8.2044691, 48.051606], [8.2044496, 48.0516791], [8.2044074, 48.0516741], [8.2043824, 48.0517678], [8.2040915, 48.051733]]};1
971;1;Kirnerstraße;78120;Furtwangen im Schwarzwald;4;{'type': 'LineString', 'coordinates': [[8.2035486, 48.0547999], [8.2037377, 48.0548373], [8.2037749, 48.0547533], [8.2035859, 48.0547159], [8.2035486, 48.0547999]]};1
972;30;Bismarckstraße;78120;Furtwangen im Schwarzwald;4;{'type': 'LineString', 'coordinates': [[8.2036282, 48.0541282], [8.2037679, 48.0541518], [8.203796, 48.0540776], [8.2036563, 48.054054], [8.2036282, 48.0541282]]};1
973;24;Bismarckstraße;78120;Furtwangen im Schwarzwald;4;{'type': 'LineString', 'coordinates': [[8.2034042, 48.0537135], [8.2035749, 48.05377], [8.2036475, 48.0536718], [8.2034768, 48.0536154], [8.2034042, 48.0537135]]};1
975;4;Bismarckstraße;78120;Furtwangen im Schwarzwald;4;{'type': 'LineString', 'coordinates': [[8.2048078, 48.0522854], [8.204976, 48.0523628], [8.2051179, 48.0522249], [8.2049497, 48.0521476], [8.2048078, 48.0522854]]};1
976;4;Kirnerstraße;78120;Furtwangen im Schwarzwald;4;{'type': 'LineString', 'coordinates': [[8.2036837, 48.0546196], [8.2037877, 48.054619], [8.2037844, 48.0543653], [8.2036804, 48.0543659], [8.2036837, 48.0546196]]};1
977;7;Kirnerstraße;78120;Furtwangen im Schwarzwald;4;{'type': 'LineString', 'coordinates': [[8.2038745, 48.0548886], [8.2040685, 48.0549288], [8.2041134, 48.0548319], [8.2039194, 48.0547917], [8.2038745, 48.0548886]]};1
978;12;Marktplatz;78120;Furtwangen im Schwarzwald;4;{'type': 'LineString', 'coordinates': [[8.2058306, 48.0520513], [8.2059685, 48.0519569], [8.2058266, 48.0518642], [8.2056887, 48.0519586], [8.2058306, 48.0520513]]};1
979;36/2;Bismarckstraße;78120;Furtwangen im Schwarzwald;4;{'type': 'LineString', 'coordinates': [[8.2036418, 48.0542827], [8.203754, 48.0543036], [8.2037713, 48.0542623], [8.2036591, 48.0542413], [8.2036418, 48.0542827]]};1
980;13;Friedrichstraße;78120;Furtwangen im Schwarzwald;4;{'type': 'LineString', 'coordinates': [[8.2046409, 48.0534485], [8.205011, 48.0535336], [8.2051104, 48.0533404], [8.2047393, 48.053255], [8.2046948, 48.0533414], [8.2046729, 48.0533364], [8.2046613, 48.053359], [8.2046843, 48.0533643], [8.2046409, 48.0534485]]};1
981;8/1;Hafnergässle;78120;Furtwangen im Schwarzwald;4;{'type': 'LineString', 'coordinates': [[8.2039944, 48.0536271], [8.2041454, 48.0536669], [8.2041737, 48.0536183], [8.2040215, 48.0535801], [8.2039944, 48.0536271]]};1
983;1;Grieshaberstraße;78120;Furtwangen im Schwarzwald;4;{'type': 'LineString', 'coordinates': [[8.204579, 48.0529915], [8.2044318, 48.0529511], [8.2043768, 48.0530405], [8.204524, 48.053081], [8.204579, 48.0529915]]};1
984;26/1;Bismarckstraße;78120;Furtwangen im Schwarzwald;4;{'type': 'LineString', 'coordinates': [[8.2034867, 48.0543092], [8.2035098, 48.0542308], [8.2033945, 48.0542157], [8.2033714, 48.054294], [8.2034867, 48.0543092]]};1
986;14;Kirnerstraße;78120;Furtwangen im Schwarzwald;4;{'type': 'LineString', 'coordinates': [[8.2046787, 48.0548153], [8.2051787, 48.0549212], [8.2052353, 48.0548018], [8.2049985, 48.0547516], [8.2050198, 48.0547065], [8.2047567, 48.0546508], [8.2046787, 48.0548153]]};1
987;5;Bismarckstraße;78120;Furtwangen im Schwarzwald;4;{'type': 'LineString', 'coordinates': [[8.204783, 48.0519722], [8.2049064, 48.0520244], [8.2050087, 48.0519163], [8.2048853, 48.0518641], [8.204783, 48.0519722]]};1
988;15;Grieshaberstraße;78120;Furtwangen im Schwarzwald;4;{'type': 'LineString', 'coordinates': [[8.205494, 48.0532024], [8.2054322, 48.0533342], [8.2055768, 48.0533644], [8.2056386, 48.0532327], [8.205494, 48.0532024]]};1
990;22;Bismarckstraße;78120;Furtwangen im Schwarzwald;4;{'type': 'LineString', 'coordinates': [[8.2035824, 48.0534985], [8.2037583, 48.0535591], [8.2038375, 48.0534565], [8.2036616, 48.0533959], [8.2035824, 48.0534985]]};1
992;5;Kirnerstraße;78120;Furtwangen im Schwarzwald;4;{'type': 'LineString', 'coordinates': [[8.2036067, 48.0551044], [8.2037677, 48.0551481], [8.2038179, 48.0550654], [8.2036569, 48.0550218], [8.2036067, 48.0551044]]};1
993;13;Kirnerstraße;78120;Furtwangen im Schwarzwald;4;{'type': 'LineString', 'coordinates': [[8.2047911, 48.0551136], [8.2049347, 48.0551484], [8.2049877, 48.0550506], [8.2048441, 48.0550158], [8.2047911, 48.0551136]]};1
994;18;Bismarckstraße;78120;Furtwangen im Schwarzwald;4;{'type': 'LineString', 'coordinates': [[8.2038116, 48.0532895], [8.2040099, 48.053365], [8.2040265, 48.0533455], [8.2041342, 48.0532191], [8.2039359, 48.0531436], [8.2038116, 48.0532895]]};1
996;7;Bismarckstraße;78120;Furtwangen im Schwarzwald;4;{'type': 'LineString', 'coordinates': [[8.2046197, 48.0521332], [8.20472, 48.0521853], [8.204852, 48.0520717], [8.2047517, 48.0520196], [8.2046197, 48.0521332]]};1
998;6;Grieshaberstraße;78120;Furtwangen im Schwarzwald;4;{'type': 'LineString', 'coordinates': [[8.2047401, 48.0528303], [8.2046312, 48.0528066], [8.2045903, 48.0528906], [8.2046992, 48.0529143], [8.2047401, 48.0528303]]};1
1000;34;Bismarckstraße;78120;Furtwangen im Schwarzwald;4;{'type': 'LineString', 'coordinates': [[8.2033745, 48.0541239], [8.2035164, 48.0541614], [8.2035656, 48.0540782], [8.2034237, 48.0540407], [8.2033745, 48.0541239]]};1
1001;6;Friedrichstraße;78120;Furtwangen im Schwarzwald;4;{'type': 'LineString', 'coordinates': [[8.2045273, 48.0550943], [8.2046824, 48.0551307], [8.2047423, 48.0550167], [8.2045872, 48.0549803], [8.2045273, 48.0550943]]};1
1002;9;Hafnergässle;78120;Furtwangen im Schwarzwald;4;{'type': 'LineString', 'coordinates': [[8.2039491, 48.0534363], [8.2041876, 48.0535271], [8.2042649, 48.0534363], [8.2042473, 48.0534296], [8.2041519, 48.0533933], [8.2040265, 48.0533455], [8.2040099, 48.053365], [8.2039645, 48.0534183], [8.2039491, 48.0534363]]};1
1005;4;Marktplatz;78120;Furtwangen im Schwarzwald;4;{'type': 'LineString', 'coordinates': [[8.2063056, 48.0526595], [8.2064712, 48.0525569], [8.2063585, 48.0524756], [8.2065073, 48.0523834], [8.2064187, 48.0523196], [8.2063339, 48.0522584], [8.2060945, 48.0524067], [8.2062668, 48.0525309], [8.2061918, 48.0525774], [8.2063056, 48.0526595]]};1
1006;10;Grieshaberstraße;78120;Furtwangen im Schwarzwald;4;{'type': 'LineString', 'coordinates': [[8.2058767, 48.0530832], [8.2061575, 48.0531505], [8.2061987, 48.0531604], [8.2062536, 48.0530581], [8.2061443, 48.0530319], [8.2061585, 48.0530055], [8.2060555, 48.0529808], [8.2060414, 48.0530072], [8.2059316, 48.0529809], [8.2058767, 48.0530832]]};1
1007;8;Friedrichstraße;78120;Furtwangen im Schwarzwald;4;{'type': 'LineString', 'coordinates': [[8.2043959, 48.0558346], [8.204655, 48.055325], [8.2049536, 48.0553934], [8.2048942, 48.055496], [8.2045791, 48.0556879], [8.2045411, 48.0556813], [8.2044966, 48.055796], [8.2045279, 48.0558059], [8.2045279, 48.0558699], [8.2043959, 48.0558346]]};1
1008;46;Eigenheimweg;78120;Furtwangen im Schwarzwald;4;{'type': 'LineString', 'coordinates': [[8.2042267, 48.0506265], [8.2040704, 48.0505703], [8.2040229, 48.0506294], [8.2041792, 48.0506856], [8.2042267, 48.0506265]]};1
1009;8;Kronenstraße;78120;Furtwangen im Schwarzwald;4;{'type': 'LineString', 'coordinates': [[8.2050009, 48.0497316], [8.2050896, 48.0496521], [8.2050087, 48.0496118], [8.2049201, 48.0496913], [8.2050009, 48.0497316]]};1
1010;14;Gerwigstraße;78120;Furtwangen im Schwarzwald;4;{'type': 'LineString', 'coordinates': [[8.2077248, 48.050575], [8.2078322, 48.0504674], [8.2077164, 48.0504158], [8.2076091, 48.0505234], [8.2077248, 48.050575]]};1
1012;2;Gartenstraße;78120;Furtwangen im Schwarzwald;4;{'type': 'LineString', 'coordinates': [[8.2046571, 48.0507523], [8.2048228, 48.0505917], [8.2046259, 48.0505009], [8.2044602, 48.0506616], [8.2046571, 48.0507523]]};1
1013;11/1;Wilhelmstraße;78120;Furtwangen im Schwarzwald;4;{'type': 'LineString', 'coordinates': [[8.2051357, 48.0499543], [8.2049934, 48.0498717], [8.2049036, 48.0499408], [8.2050459, 48.0500235], [8.2051357, 48.0499543]]};1
1014;4;Bahnhofstraße;78120;Furtwangen im Schwarzwald;4;{'type': 'LineString', 'coordinates': [[8.2056538, 48.0502133], [8.2057005, 48.0501727], [8.2056202, 48.0501314], [8.2055735, 48.050172], [8.2056538, 48.0502133]]};1
1015;6;Bahnhofstraße;78120;Furtwangen im Schwarzwald;4;{'type': 'LineString', 'coordinates': [[8.2052571, 48.0499341], [8.2053901, 48.0499809], [8.2054554, 48.0498979], [8.2053224, 48.0498511], [8.2052571, 48.0499341]]};1
1016;7;Baumannstraße;78120;Furtwangen im Schwarzwald;4;{'type': 'LineString', 'coordinates': [[8.2049281, 48.0493007], [8.2050844, 48.0493475], [8.2051261, 48.0492852], [8.2049698, 48.0492384], [8.2049281, 48.0493007]]};1
1017;7/3;Bahnhofstraße;78120;Furtwangen im Schwarzwald;4;{'type': 'LineString', 'coordinates': [[8.206871, 48.0502178], [8.207011, 48.0502474], [8.2070533, 48.0501582], [8.2069133, 48.0501286], [8.206871, 48.0502178]]};1
1018;15/2;Marktplatz;78120;Furtwangen im Schwarzwald;4;{'type': 'LineString', 'coordinates': [[8.2063071, 48.0514812], [8.2062511, 48.0513611], [8.2061214, 48.0513881], [8.2061774, 48.0515082], [8.2063071, 48.0514812]]};1
1020;6;Kronenstraße;78120;Furtwangen im Schwarzwald;4;{'type': 'LineString', 'coordinates': [[8.2051101, 48.0496314], [8.2052034, 48.0495441], [8.2050992, 48.0494943], [8.2050059, 48.0495817], [8.2051101, 48.0496314]]};1
1022;5;Lindenstraße;78120;Furtwangen im Schwarzwald;4;{'type': 'LineString', 'coordinates': [[8.20646, 48.0506842], [8.2066794, 48.050717], [8.206728, 48.0506797], [8.2068092, 48.0504932], [8.2065778, 48.0504412], [8.2065114, 48.0504843], [8.2065014, 48.0505349], [8.2065443, 48.0505582], [8.2065289, 48.0505887], [8.2064874, 48.0506023], [8.20646, 48.0506842]]};1
1023;12;Gerwigstraße;78120;Furtwangen im Schwarzwald;4;{'type': 'LineString', 'coordinates': [[8.2077715, 48.0507528], [8.2079232, 48.050667], [8.2078207, 48.0505861], [8.207669, 48.0506719], [8.2077715, 48.0507528]]};1
1024;10;Gerwigstraße;78120;Furtwangen im Schwarzwald;4;{'type': 'LineString', 'coordinates': [[8.2073413, 48.0510103], [8.2076353, 48.0508465], [8.2075381, 48.0507685], [8.2072441, 48.0509323], [8.2073413, 48.0510103]]};1
1025;1/1;Lindenstraße;78120;Furtwangen im Schwarzwald;4;{'type': 'LineString', 'coordinates': [[8.2073677, 48.050728], [8.2075054, 48.0504706], [8.2073502, 48.0504335], [8.2072125, 48.0506909], [8.2073677, 48.050728]]};1
1026;15/1;Marktplatz;78120;Furtwangen im Schwarzwald;4;{'type': 'LineString', 'coordinates': [[8.2060498, 48.0513951], [8.2061105, 48.0513348], [8.2060032, 48.0512865], [8.2059425, 48.0513467], [8.2060498, 48.0513951]]};1
1027;7/1;Bahnhofstraße;78120;Furtwangen im Schwarzwald;4;{'type': 'LineString', 'coordinates': [[8.206518, 48.0501922], [8.2066394, 48.0502328], [8.2067015, 48.0501498], [8.2065801, 48.0501092], [8.206518, 48.0501922]]};1
1028;11a;Baumannstraße;78120;Furtwangen im Schwarzwald;4;{'type': 'LineString', 'coordinates': [[8.2052667, 48.049744], [8.2053694, 48.0496223], [8.2053043, 48.0495978], [8.2052016, 48.0497195], [8.2052667, 48.049744]]};1
1029;7/2;Bahnhofstraße;78120;Furtwangen im Schwarzwald;4;{'type': 'LineString', 'coordinates': [[8.206782, 48.0503294], [8.2068777, 48.0503871], [8.2069585, 48.0503272], [8.2068628, 48.0502695], [8.206782, 48.0503294]]};1
1030;8;Lindenstraße;78120;Furtwangen im Schwarzwald;4;{'type': 'LineString', 'coordinates': [[8.2062545, 48.0509673], [8.2063666, 48.0509923], [8.2064076, 48.0509099], [8.2062956, 48.050885], [8.2062545, 48.0509673]]};1
1032;1;Baumannstraße;78120;Furtwangen im Schwarzwald;4;{'type': 'LineString', 'coordinates': [[8.2039223, 48.0494286], [8.2040926, 48.0493849], [8.2040453, 48.0493024], [8.2038749, 48.0493461], [8.203908, 48.0494038], [8.2039223, 48.0494286]]};1
1033;15;Marktplatz;78120;Furtwangen im Schwarzwald;4;{'type': 'LineString', 'coordinates': [[8.2057893, 48.0515794], [8.2060367, 48.0515139], [8.2059667, 48.0513828], [8.2058733, 48.0513454], [8.2056913, 48.0513875], [8.2057893, 48.0515794]]};1
1034;7;Lindenstraße;78120;Furtwangen im Schwarzwald;4;{'type': 'LineString', 'coordinates': [[8.2061434, 48.0507457], [8.2063127, 48.0507678], [8.2063298, 48.0507095], [8.2061605, 48.0506873], [8.2061434, 48.0507457]]};1
1035;5;Bahnhofstraße;78120;Furtwangen im Schwarzwald;4;{'type': 'LineString', 'coordinates': [[8.2061921, 48.0503585], [8.2063399, 48.0503634], [8.2063476, 48.0502567], [8.2061999, 48.0502518], [8.2061921, 48.0503585]]};1
1036;17;Baumannstraße;78120;Furtwangen im Schwarzwald;4;{'type': 'LineString', 'coordinates': [[8.2065665, 48.0498872], [8.2067226, 48.0499299], [8.206818, 48.0497739], [8.2068255, 48.0497617], [8.2066694, 48.049719], [8.2065674, 48.0498857], [8.2065665, 48.0498872]]};1
1037;16;Marktplatz;78120;Furtwangen im Schwarzwald;4;{'type': 'LineString', 'coordinates': [[8.2053251, 48.051571], [8.2053971, 48.0514305], [8.2052475, 48.0513962], [8.2051755, 48.0515368], [8.2053251, 48.051571]]};1
1038;2;Am Kirchberg;78120;Furtwangen im Schwarzwald;4;{'type': 'LineString', 'coordinates': [[8.205329, 48.0512158], [8.205506, 48.0512424], [8.2055585, 48.0510863], [8.2053815, 48.0510596], [8.205329, 48.0512158]]};1
1039;27;Baumannstraße;78120;Furtwangen im Schwarzwald;4;{'type': 'LineString', 'coordinates': [[8.2076656, 48.0500019], [8.2075091, 48.0499603], [8.2074534, 48.0500537], [8.2076099, 48.0500953], [8.2076656, 48.0500019]]};1
1040;7;Bahnhofstraße;78120;Furtwangen im Schwarzwald;4;{'type': 'LineString', 'coordinates': [[8.2061804, 48.0501628], [8.2063782, 48.0501725], [8.2063938, 48.050032], [8.2061959, 48.0500222], [8.2061804, 48.0501628]]};1
1041;1;Bismarckstraße;78120;Furtwangen im Schwarzwald;4;{'type': 'LineString', 'coordinates': [[8.2050818, 48.0515944], [8.2052531, 48.0516647], [8.2052986, 48.0516151], [8.2051273, 48.0515448], [8.2050818, 48.0515944]]};1
1042;19;Baumannstraße;78120;Furtwangen im Schwarzwald;4;{'type': 'LineString', 'coordinates': [[8.2067226, 48.0499299], [8.2069416, 48.0499898], [8.2069803, 48.0499265], [8.207037, 48.0498338], [8.206818, 48.0497739], [8.2067226, 48.0499299]]};1
1043;18;Marktplatz;78120;Furtwangen im Schwarzwald;4;{'type': 'LineString', 'coordinates': [[8.2052475, 48.0513962], [8.2054141, 48.0514219], [8.2054606, 48.051287], [8.205294, 48.0512613], [8.2052475, 48.0513962]]};1
1049;42;Eigenheimweg;78120;Furtwangen im Schwarzwald;4;{'type': 'LineString', 'coordinates': [[8.2034845, 48.0504593], [8.2036331, 48.0505108], [8.2036896, 48.050438], [8.2035409, 48.0503865], [8.2034845, 48.0504593]]};1
1063;20;Wilhelmstraße;78120;Furtwangen im Schwarzwald;4;{'type': 'LineString', 'coordinates': [[8.20363, 48.0497968], [8.2037869, 48.049852], [8.2038613, 48.0497575], [8.2037044, 48.0497023], [8.20363, 48.0497968]]};1
1079;19;Gerwigstraße;78120;Furtwangen im Schwarzwald;4;{'type': 'LineString', 'coordinates': [[8.2087347, 48.0504747], [8.2088765, 48.0503947], [8.2087933, 48.0503288], [8.2086515, 48.0504089], [8.2087347, 48.0504747]]};1
1102;22;Wilhelmstraße;78120;Furtwangen im Schwarzwald;4;{'type': 'LineString', 'coordinates': [[8.203361, 48.0497167], [8.2035647, 48.0497977], [8.203657, 48.0496939], [8.2034533, 48.0496129], [8.203361, 48.0497167]]};1
1108;17;Gerwigstraße;78120;Furtwangen im Schwarzwald;4;{'type': 'LineString', 'coordinates': [[8.2084677, 48.0506404], [8.208615, 48.050564], [8.2085195, 48.0504817], [8.2083722, 48.050558], [8.2084677, 48.0506404]]};1
1120;19;Eigenheimweg;78120;Furtwangen im Schwarzwald;4;{'type': 'LineString', 'coordinates': [[8.2035726, 48.0507096], [8.2037543, 48.050774], [8.2038138, 48.0506989], [8.2036321, 48.0506345], [8.2035726, 48.0507096]]};1
1151;44;Eigenheimweg;78120;Furtwangen im Schwarzwald;4;{'type': 'LineString', 'coordinates': [[8.2037377, 48.0505347], [8.2039167, 48.0505955], [8.2039746, 48.0505192], [8.2037957, 48.0504585], [8.2037377, 48.0505347]]};1
1155;31;Baumannstraße;78120;Furtwangen im Schwarzwald;4;{'type': 'LineString', 'coordinates': [[8.2084245, 48.0503859], [8.208536, 48.050316], [8.2084216, 48.0502345], [8.2083101, 48.0503045], [8.2084245, 48.0503859]]};1
1298;16;Sommerbergstraße;78120;Furtwangen im Schwarzwald;4;{'type': 'LineString', 'coordinates': [[8.2099309, 48.0514512], [8.2100242, 48.0513808], [8.2099237, 48.0513214], [8.2098305, 48.0513917], [8.2099309, 48.0514512]]};1
1314;8;Hafnergässle;78120;Furtwangen im Schwarzwald;4;{'type': 'LineString', 'coordinates': [[8.2041737, 48.0536183], [8.2042803, 48.0536459], [8.204252, 48.0536946], [8.2041454, 48.0536669], [8.2041737, 48.0536183]]};1
1317;7;Hafnergässle;78120;Furtwangen im Schwarzwald;4;{'type': 'LineString', 'coordinates': [[8.2041519, 48.0533933], [8.2042575, 48.0532694], [8.2043529, 48.0533057], [8.2042473, 48.0534296], [8.2041519, 48.0533933]]};1
1324;18/3;Bismarckstraße;78120;Furtwangen im Schwarzwald;4;{'type': 'LineString', 'coordinates': [[8.2045204, 48.0532278], [8.2044053, 48.0531972], [8.2043975, 48.0532101], [8.2043734, 48.0532068], [8.2043541, 48.0532333], [8.2042798, 48.0532081], [8.2043454, 48.0531262], [8.2045451, 48.0531728], [8.2045204, 48.0532278]]};1
1346;3;Baumannstraße;78120;Furtwangen im Schwarzwald;4;{'type': 'LineString', 'coordinates': [[8.2041766, 48.0493553], [8.204326, 48.0493311], [8.2042965, 48.0492496], [8.2041471, 48.0492737], [8.2041766, 48.0493553]]};1
1347;3;Kronenstraße;78120;Furtwangen im Schwarzwald;4;{'type': 'LineString', 'coordinates': [[8.2047134, 48.0494544], [8.204865, 48.0495253], [8.2049412, 48.0494526], [8.2047895, 48.0493816], [8.2047134, 48.0494544]]};1
1348;5;Baumannstraße;78120;Furtwangen im Schwarzwald;4;{'type': 'LineString', 'coordinates': [[8.204326, 48.0493311], [8.2044753, 48.0493069], [8.2044458, 48.0492254], [8.2042965, 48.0492496], [8.204326, 48.0493311]]};1
1349;5;Kronenstraße;78120;Furtwangen im Schwarzwald;4;{'type': 'LineString', 'coordinates': [[8.2045617, 48.0493834], [8.2047134, 48.0494544], [8.2047895, 48.0493816], [8.2046379, 48.0493106], [8.2045617, 48.0493834]]};1
1395;5;Am Niegenhirschwald;78120;Furtwangen im Schwarzwald;4;{'type': 'LineString', 'coordinates': [[8.2185542, 48.0466089], [8.2187931, 48.046967], [8.2193631, 48.0468408], [8.2192791, 48.046637], [8.2185542, 48.0466089]]};1
1399;19a;Grieshaberstraße;78120;Furtwangen im Schwarzwald;4;{'type': 'LineString', 'coordinates': [[8.206223, 48.0533559], [8.206282, 48.0532448], [8.2060003, 48.0531892], [8.2059467, 48.0533004], [8.206223, 48.0533559]]};1
1400;2;Bahnhofstraße;78120;Furtwangen im Schwarzwald;4;{'type': 'LineString', 'coordinates': [[8.2060502, 48.0506051], [8.2059969, 48.0506419], [8.2059284, 48.05059], [8.2058821, 48.0505549], [8.2059499, 48.0505056], [8.2059614, 48.0504977], [8.2060556, 48.0505531], [8.2060502, 48.0506051]]};1
1403;21;Baumannstraße;78120;Furtwangen im Schwarzwald;4;{'type': 'LineString', 'coordinates': [[8.2071967, 48.0498775], [8.207037, 48.0498338], [8.2069803, 48.0499265], [8.20714, 48.0499702], [8.2071967, 48.0498775]]};1
1404;23;Baumannstraße;78120;Furtwangen im Schwarzwald;4;{'type': 'LineString', 'coordinates': [[8.2073525, 48.0499201], [8.2071967, 48.0498775], [8.20714, 48.0499702], [8.2072958, 48.0500128], [8.2073525, 48.0499201]]};1
1405;25;Baumannstraße;78120;Furtwangen im Schwarzwald;4;{'type': 'LineString', 'coordinates': [[8.2075091, 48.0499603], [8.2073525, 48.0499201], [8.2072958, 48.0500128], [8.2074534, 48.0500537], [8.2075091, 48.0499603]]};1
1527;4;Grieshaberstraße;78120;Furtwangen im Schwarzwald;4;{'type': 'LineString', 'coordinates': [[8.2046312, 48.0528066], [8.2045223, 48.0527829], [8.2044814, 48.0528669], [8.2045903, 48.0528906], [8.2046312, 48.0528066]]};1
1528;5;Wilhelmstraße;78120;Furtwangen im Schwarzwald;4;{'type': 'LineString', 'coordinates': [[8.2056294, 48.0503086], [8.2054692, 48.05021], [8.2052819, 48.0503461], [8.2054422, 48.0504447], [8.2056294, 48.0503086]]};1
1529;13;Baumannstraße;78120;Furtwangen im Schwarzwald;4;{'type': 'LineString', 'coordinates': [[8.2057357, 48.0495598], [8.2056788, 48.0496525], [8.2058092, 48.0496882], [8.2057797, 48.0497363], [8.2059433, 48.0497812], [8.2059716, 48.049735], [8.2060961, 48.0497692], [8.2061541, 48.0496746], [8.2057357, 48.0495598]]};1
1530;1;Gerwigstraße;78120;Furtwangen im Schwarzwald;4;{'type': 'LineString', 'coordinates': [[8.206611, 48.0516808], [8.2066999, 48.0517455], [8.2067588, 48.0517093], [8.2066691, 48.0516451], [8.206611, 48.0516808]]};1
1531;3;Gerwigstraße;78120;Furtwangen im Schwarzwald;4;{'type': 'LineString', 'coordinates': [[8.2066999, 48.0517455], [8.206611, 48.0516808], [8.2065377, 48.0517258], [8.2066266, 48.0517905], [8.2066999, 48.0517455]]};1
1532;5;Gerwigstraße;78120;Furtwangen im Schwarzwald;4;{'type': 'LineString', 'coordinates': [[8.2065377, 48.0517258], [8.206611, 48.0516808], [8.2066691, 48.0516451], [8.206572, 48.0515744], [8.2064406, 48.0516551], [8.2065377, 48.0517258]]};1
1534;15;Kirnerstraße;78120;Furtwangen im Schwarzwald;4;{'type': 'LineString', 'coordinates': [[8.2049347, 48.0551484], [8.2050782, 48.0551831], [8.2051312, 48.0550853], [8.2049877, 48.0550506], [8.2049347, 48.0551484]]};1
1535;1;Am Niegenhirschwald;78120;Furtwangen im Schwarzwald;4;{'type': 'LineString', 'coordinates': [[8.2172934, 48.047], [8.2174159, 48.0470022], [8.2174199, 48.0469026], [8.2172974, 48.0469004], [8.2172934, 48.047]]};1
1536;5;Rößleplatz;78120;Furtwangen im Schwarzwald;4;{'type': 'LineString', 'coordinates': [[8.207594, 48.053146], [8.207674, 48.0530837], [8.2075665, 48.053022], [8.2074865, 48.0530843], [8.207594, 48.053146]]};1
1541;9;Kirnerstraße;78120;Furtwangen im Schwarzwald;4;{'type': 'LineString', 'coordinates': [[8.2041693, 48.0549922], [8.2041792, 48.0549944], [8.2043074, 48.0550231], [8.2043124, 48.0550242], [8.2043566, 48.0549362], [8.2042134, 48.0549041], [8.2041693, 48.0549922]]};1
1552;4;Friedrichstraße;78120;Furtwangen im Schwarzwald;4;{'type': 'LineString', 'coordinates': [[8.2054322, 48.0533342], [8.2053704, 48.0534659], [8.205515, 48.0534961], [8.2055768, 48.0533644], [8.2054322, 48.0533342]]};1
