id;house_number;street;post_code;city;district;geojson_geometry;post_station_id
2;26;Rabenstraße;78120;Furtwangen im Schwarzwald;3;{'type': 'Point', 'coordinates': [8.2000243, 48.0493761]};1
5;5;Bühlhofstraße;78120;Furtwangen im Schwarzwald;3;{'type': 'Point', 'coordinates': [8.2014152, 48.0497379]};1
31;15;Kohlheppstraße;78120;Furtwangen im Schwarzwald;3;{'type': 'Point', 'coordinates': [8.1918202, 48.0484353]};1
32;17;Stephan-Blattmann-Straße;78120;Furtwangen im Schwarzwald;3;{'type': 'Point', 'coordinates': [8.1887875, 48.0489875]};1
33;31;Stephan-Blattmann-Straße;78120;Furtwangen im Schwarzwald;3;{'type': 'Point', 'coordinates': [8.1863271, 48.0497503]};1
34;32;Stephan-Blattmann-Straße;78120;Furtwangen im Schwarzwald;3;{'type': 'Point', 'coordinates': [8.1863752, 48.0500528]};1
35;33;Stephan-Blattmann-Straße;78120;Furtwangen im Schwarzwald;3;{'type': 'Point', 'coordinates': [8.1861675, 48.0497351]};1
36;1;Bregstraße;78120;Furtwangen im Schwarzwald;3;{'type': 'Point', 'coordinates': [8.2029672, 48.0491166]};1
77;38;Bismarckstraße;78120;Furtwangen im Schwarzwald;3;{'type': 'Point', 'coordinates': [8.2031796, 48.0542758]};1
79;58;Bismarckstraße;78120;Furtwangen im Schwarzwald;3;{'type': 'Point', 'coordinates': [8.2030441, 48.0560891]};1
81;60;Bismarckstraße;78120;Furtwangen im Schwarzwald;3;{'type': 'Point', 'coordinates': [8.2030636, 48.0561779]};1
85;17;Carl-Diem-Straße;78120;Furtwangen im Schwarzwald;3;{'type': 'Point', 'coordinates': [8.194695, 48.0444826]};1
86;19;Carl-Diem-Straße;78120;Furtwangen im Schwarzwald;3;{'type': 'Point', 'coordinates': [8.194929, 48.0443742]};1
87;10;Neue Heimat;78120;Furtwangen im Schwarzwald;3;{'type': 'Point', 'coordinates': [8.1949519, 48.0456298]};1
88;11;Neue Heimat;78120;Furtwangen im Schwarzwald;3;{'type': 'Point', 'coordinates': [8.192423, 48.0455496]};1
89;12;Neue Heimat;78120;Furtwangen im Schwarzwald;3;{'type': 'Point', 'coordinates': [8.1950657, 48.045655]};1
90;13;Neue Heimat;78120;Furtwangen im Schwarzwald;3;{'type': 'Point', 'coordinates': [8.1925683, 48.0455396]};1
91;15;Neue Heimat;78120;Furtwangen im Schwarzwald;3;{'type': 'Point', 'coordinates': [8.1928395, 48.0455385]};1
92;17;Neue Heimat;78120;Furtwangen im Schwarzwald;3;{'type': 'Point', 'coordinates': [8.1929619, 48.0455391]};1
93;19;Neue Heimat;78120;Furtwangen im Schwarzwald;3;{'type': 'Point', 'coordinates': [8.193171, 48.0455398]};1
94;2;Neue Heimat;78120;Furtwangen im Schwarzwald;3;{'type': 'Point', 'coordinates': [8.1940929, 48.045465]};1
95;21;Neue Heimat;78120;Furtwangen im Schwarzwald;3;{'type': 'Point', 'coordinates': [8.1932953, 48.0455405]};1
96;23;Neue Heimat;78120;Furtwangen im Schwarzwald;3;{'type': 'Point', 'coordinates': [8.1935365, 48.0455728]};1
97;25;Neue Heimat;78120;Furtwangen im Schwarzwald;3;{'type': 'Point', 'coordinates': [8.1936451, 48.0455928]};1
98;27;Neue Heimat;78120;Furtwangen im Schwarzwald;3;{'type': 'Point', 'coordinates': [8.1938856, 48.0456298]};1
99;29;Neue Heimat;78120;Furtwangen im Schwarzwald;3;{'type': 'Point', 'coordinates': [8.1940258, 48.0456576]};1
100;31;Neue Heimat;78120;Furtwangen im Schwarzwald;3;{'type': 'Point', 'coordinates': [8.1942822, 48.0457029]};1
101;33;Neue Heimat;78120;Furtwangen im Schwarzwald;3;{'type': 'Point', 'coordinates': [8.1943755, 48.0457231]};1
102;35;Neue Heimat;78120;Furtwangen im Schwarzwald;3;{'type': 'Point', 'coordinates': [8.1946315, 48.0457828]};1
103;37;Neue Heimat;78120;Furtwangen im Schwarzwald;3;{'type': 'Point', 'coordinates': [8.1947403, 48.0458122]};1
104;4;Neue Heimat;78120;Furtwangen im Schwarzwald;3;{'type': 'Point', 'coordinates': [8.1942509, 48.0454817]};1
105;6;Neue Heimat;78120;Furtwangen im Schwarzwald;3;{'type': 'Point', 'coordinates': [8.1945371, 48.0455447]};1
106;64;Bregstraße;78120;Furtwangen im Schwarzwald;3;{'type': 'Point', 'coordinates': [8.1942785, 48.0451417]};1
107;66;Bregstraße;78120;Furtwangen im Schwarzwald;3;{'type': 'Point', 'coordinates': [8.1941451, 48.0451246]};1
108;8;Neue Heimat;78120;Furtwangen im Schwarzwald;3;{'type': 'Point', 'coordinates': [8.1946951, 48.0455739]};1
109;82;Bregstraße;78120;Furtwangen im Schwarzwald;3;{'type': 'Point', 'coordinates': [8.1922534, 48.0451689]};1
110;88;Bregstraße;78120;Furtwangen im Schwarzwald;3;{'type': 'Point', 'coordinates': [8.1915477, 48.0452824]};1
111;18;Neue Heimat;78120;Furtwangen im Schwarzwald;3;{'type': 'Point', 'coordinates': [8.1959635, 48.0460127]};1
112;20;Neue Heimat;78120;Furtwangen im Schwarzwald;3;{'type': 'Point', 'coordinates': [8.1960913, 48.0460882]};1
113;22;Neue Heimat;78120;Furtwangen im Schwarzwald;3;{'type': 'Point', 'coordinates': [8.1962686, 48.0462676]};1
114;24;Neue Heimat;78120;Furtwangen im Schwarzwald;3;{'type': 'Point', 'coordinates': [8.1963273, 48.0463472]};1
115;26;Neue Heimat;78120;Furtwangen im Schwarzwald;3;{'type': 'Point', 'coordinates': [8.1963785, 48.0465334]};1
116;28;Neue Heimat;78120;Furtwangen im Schwarzwald;3;{'type': 'Point', 'coordinates': [8.1963557, 48.0466389]};1
117;14;Kussenhofstraße;78120;Furtwangen im Schwarzwald;3;{'type': 'Point', 'coordinates': [8.1894461, 48.0479167]};1
118;16;Kussenhofstraße;78120;Furtwangen im Schwarzwald;3;{'type': 'Point', 'coordinates': [8.1893331, 48.0479727]};1
119;25;Kussenhofstraße;78120;Furtwangen im Schwarzwald;3;{'type': 'Point', 'coordinates': [8.1880025, 48.0481856]};1
120;27;Kussenhofstraße;78120;Furtwangen im Schwarzwald;3;{'type': 'Point', 'coordinates': [8.1876809, 48.0481978]};1
121;29;Kussenhofstraße;78120;Furtwangen im Schwarzwald;3;{'type': 'Point', 'coordinates': [8.1873594, 48.04821]};1
122;28;Josef-Dorer-Straße;78120;Furtwangen im Schwarzwald;3;{'type': 'Point', 'coordinates': [8.1858933, 48.0485104]};1
123;30;Josef-Dorer-Straße;78120;Furtwangen im Schwarzwald;3;{'type': 'Point', 'coordinates': [8.1858077, 48.0485095]};1
124;32;Josef-Dorer-Straße;78120;Furtwangen im Schwarzwald;3;{'type': 'Point', 'coordinates': [8.185722, 48.0485085]};1
125;34;Josef-Dorer-Straße;78120;Furtwangen im Schwarzwald;3;{'type': 'Point', 'coordinates': [8.1856364, 48.0485076]};1
126;36;Josef-Dorer-Straße;78120;Furtwangen im Schwarzwald;3;{'type': 'Point', 'coordinates': [8.1855507, 48.0485066]};1
127;37a;Kussenhofstraße;78120;Furtwangen im Schwarzwald;3;{'type': 'Point', 'coordinates': [8.1865514, 48.0488025]};1
128;37b;Kussenhofstraße;78120;Furtwangen im Schwarzwald;3;{'type': 'Point', 'coordinates': [8.1863394, 48.0488372]};1
129;37c;Kussenhofstraße;78120;Furtwangen im Schwarzwald;3;{'type': 'Point', 'coordinates': [8.1861442, 48.0488645]};1
130;1;Barbaraweg;78120;Furtwangen im Schwarzwald;3;{'type': 'Point', 'coordinates': [8.1886405, 48.0489938]};1
131;10;Hebelstraße;78120;Furtwangen im Schwarzwald;3;{'type': 'Point', 'coordinates': [8.1964619, 48.0479994]};1
132;12;Hebelstraße;78120;Furtwangen im Schwarzwald;3;{'type': 'Point', 'coordinates': [8.1963311, 48.0479983]};1
133;17;Weiherstraße;78120;Furtwangen im Schwarzwald;3;{'type': 'Point', 'coordinates': [8.1944435, 48.0482231]};1
134;19;Weiherstraße;78120;Furtwangen im Schwarzwald;3;{'type': 'Point', 'coordinates': [8.1943764, 48.0482559]};1
135;11;Eichendorffstraße;78120;Furtwangen im Schwarzwald;3;{'type': 'Point', 'coordinates': [8.1957653, 48.0489068]};1
136;11;Laulestraße;78120;Furtwangen im Schwarzwald;3;{'type': 'Point', 'coordinates': [8.1958948, 48.0483274]};1
137;13;Eichendorffstraße;78120;Furtwangen im Schwarzwald;3;{'type': 'Point', 'coordinates': [8.1956, 48.0489688]};1
138;13;Laulestraße;78120;Furtwangen im Schwarzwald;3;{'type': 'Point', 'coordinates': [8.1957585, 48.0483594]};1
139;15;Laulestraße;78120;Furtwangen im Schwarzwald;3;{'type': 'Point', 'coordinates': [8.1954574, 48.0484555]};1
140;17;Eichendorffstraße;78120;Furtwangen im Schwarzwald;3;{'type': 'Point', 'coordinates': [8.1950366, 48.049216]};1
141;17;Ilbenstraße;78120;Furtwangen im Schwarzwald;3;{'type': 'Point', 'coordinates': [8.1958249, 48.0495832]};1
142;17;Laulestraße;78120;Furtwangen im Schwarzwald;3;{'type': 'Point', 'coordinates': [8.1953668, 48.0485019]};1
143;19;Eichendorffstraße;78120;Furtwangen im Schwarzwald;3;{'type': 'Point', 'coordinates': [8.1949328, 48.0492792]};1
144;19;Ilbenstraße;78120;Furtwangen im Schwarzwald;3;{'type': 'Point', 'coordinates': [8.1957359, 48.0496636]};1
145;19;Laulestraße;78120;Furtwangen im Schwarzwald;3;{'type': 'Point', 'coordinates': [8.1950604, 48.0486397]};1
146;20;Laulestraße;78120;Furtwangen im Schwarzwald;3;{'type': 'Point', 'coordinates': [8.1943928, 48.0492245]};1
147;21;Eichendorffstraße;78120;Furtwangen im Schwarzwald;3;{'type': 'Point', 'coordinates': [8.1946147, 48.049429]};1
148;21;Ilbenstraße;78120;Furtwangen im Schwarzwald;3;{'type': 'Point', 'coordinates': [8.1955612, 48.0498069]};1
149;21;Laulestraße;78120;Furtwangen im Schwarzwald;3;{'type': 'Point', 'coordinates': [8.1949511, 48.0486976]};1
150;22;Laulestraße;78120;Furtwangen im Schwarzwald;3;{'type': 'Point', 'coordinates': [8.1942738, 48.0492756]};1
151;23;Eichendorffstraße;78120;Furtwangen im Schwarzwald;3;{'type': 'Point', 'coordinates': [8.1945059, 48.049483]};1
152;23;Ilbenstraße;78120;Furtwangen im Schwarzwald;3;{'type': 'Point', 'coordinates': [8.1954912, 48.0498724]};1
153;23;Laulestraße;78120;Furtwangen im Schwarzwald;3;{'type': 'Point', 'coordinates': [8.1946988, 48.0488015]};1
154;25;Laulestraße;78120;Furtwangen im Schwarzwald;3;{'type': 'Point', 'coordinates': [8.1946014, 48.0488443]};1
155;27;Laulestraße;78120;Furtwangen im Schwarzwald;3;{'type': 'Point', 'coordinates': [8.1943464, 48.048956]};1
156;29;Laulestraße;78120;Furtwangen im Schwarzwald;3;{'type': 'Point', 'coordinates': [8.1942236, 48.0490122]};1
157;3;Eichendorffstraße;78120;Furtwangen im Schwarzwald;3;{'type': 'Point', 'coordinates': [8.196709, 48.0487681]};1
158;31;Laulestraße;78120;Furtwangen im Schwarzwald;3;{'type': 'Point', 'coordinates': [8.1941215, 48.0490401]};1
159;5;Eichendorffstraße;78120;Furtwangen im Schwarzwald;3;{'type': 'Point', 'coordinates': [8.1965562, 48.0487639]};1
160;7;Eichendorffstraße;78120;Furtwangen im Schwarzwald;3;{'type': 'Point', 'coordinates': [8.1961667, 48.0487943]};1
161;7;Laulestraße;78120;Furtwangen im Schwarzwald;3;{'type': 'Point', 'coordinates': [8.1963101, 48.0482877]};1
162;9;Eichendorffstraße;78120;Furtwangen im Schwarzwald;3;{'type': 'Point', 'coordinates': [8.1960255, 48.048832]};1
163;9;Laulestraße;78120;Furtwangen im Schwarzwald;3;{'type': 'Point', 'coordinates': [8.1961771, 48.0483019]};1
164;1;Ahornweg;78120;Furtwangen im Schwarzwald;3;{'type': 'Point', 'coordinates': [8.1908798, 48.0540392]};1
165;16;Ganterhofstraße;78120;Furtwangen im Schwarzwald;3;{'type': 'Point', 'coordinates': [8.1907085, 48.0540356]};1
168;16;Bregstraße;78120;Furtwangen im Schwarzwald;3;{'type': 'Point', 'coordinates': [8.2008545, 48.0487146]};1
169;18;Bregstraße;78120;Furtwangen im Schwarzwald;3;{'type': 'Point', 'coordinates': [8.200652, 48.0486911]};1
170;22;Bregstraße;78120;Furtwangen im Schwarzwald;3;{'type': 'Point', 'coordinates': [8.1996443, 48.0487814]};1
171;24;Bregstraße;78120;Furtwangen im Schwarzwald;3;{'type': 'Point', 'coordinates': [8.199361, 48.0483173]};1
172;26;Bregstraße;78120;Furtwangen im Schwarzwald;3;{'type': 'Point', 'coordinates': [8.1991816, 48.0481995]};1
173;28;Bregstraße;78120;Furtwangen im Schwarzwald;3;{'type': 'Point', 'coordinates': [8.1989031, 48.048036]};1
174;15;Bregstraße;78120;Furtwangen im Schwarzwald;3;{'type': 'Point', 'coordinates': [8.1995925, 48.0481039]};1
175;15a;Bregstraße;78120;Furtwangen im Schwarzwald;3;{'type': 'Point', 'coordinates': [8.1993612, 48.0479839]};1
177;10;Hans-Thoma-Straße;78120;Furtwangen im Schwarzwald;3;{'type': 'Point', 'coordinates': [8.2014295, 48.0504539]};1
178;12;Hans-Thoma-Straße;78120;Furtwangen im Schwarzwald;3;{'type': 'Point', 'coordinates': [8.2013412, 48.0505038]};1
179;14;Eigenheimweg;78120;Furtwangen im Schwarzwald;3;{'type': 'Point', 'coordinates': [8.2008312, 48.0511706]};1
180;14;Hans-Thoma-Straße;78120;Furtwangen im Schwarzwald;3;{'type': 'Point', 'coordinates': [8.201205, 48.050607]};1
181;16;Eigenheimweg;78120;Furtwangen im Schwarzwald;3;{'type': 'Point', 'coordinates': [8.2008938, 48.051142]};1
182;16;Hans-Thoma-Straße;78120;Furtwangen im Schwarzwald;3;{'type': 'Point', 'coordinates': [8.2011107, 48.0506596]};1
183;2;Hans-Thoma-Straße;78120;Furtwangen im Schwarzwald;3;{'type': 'Point', 'coordinates': [8.2018545, 48.0501797]};1
184;20;Hans-Thoma-Straße;78120;Furtwangen im Schwarzwald;3;{'type': 'Point', 'coordinates': [8.2008306, 48.0509041]};1
185;22;Hans-Thoma-Straße;78120;Furtwangen im Schwarzwald;3;{'type': 'Point', 'coordinates': [8.2007515, 48.0509379]};1
186;4;Hans-Thoma-Straße;78120;Furtwangen im Schwarzwald;3;{'type': 'Point', 'coordinates': [8.2017482, 48.0502483]};1
187;6;Hans-Thoma-Straße;78120;Furtwangen im Schwarzwald;3;{'type': 'Point', 'coordinates': [8.20162, 48.0503168]};1
188;8;Hans-Thoma-Straße;78120;Furtwangen im Schwarzwald;3;{'type': 'Point', 'coordinates': [8.2015417, 48.050372]};1
189;12;Bühlhofstraße;78120;Furtwangen im Schwarzwald;3;{'type': 'Point', 'coordinates': [8.201649, 48.0498995]};1
190;14;Bühlhofstraße;78120;Furtwangen im Schwarzwald;3;{'type': 'Point', 'coordinates': [8.2017567, 48.0499488]};1
191;21;Bühlhofstraße;78120;Furtwangen im Schwarzwald;3;{'type': 'Point', 'coordinates': [8.2013988, 48.0500704]};1
192;7;Bühlhofstraße;78120;Furtwangen im Schwarzwald;3;{'type': 'Point', 'coordinates': [8.201334, 48.0497769]};1
193;11;Gartenstraße;78120;Furtwangen im Schwarzwald;3;{'type': 'Point', 'coordinates': [8.2024903, 48.0497292]};1
194;13;Gartenstraße;78120;Furtwangen im Schwarzwald;3;{'type': 'Point', 'coordinates': [8.2023028, 48.0497528]};1
195;16;Gartenstraße;78120;Furtwangen im Schwarzwald;3;{'type': 'Point', 'coordinates': [8.2030814, 48.049958]};1
196;18;Gartenstraße;78120;Furtwangen im Schwarzwald;3;{'type': 'Point', 'coordinates': [8.2029504, 48.0499182]};1
197;2;Bregstraße;78120;Furtwangen im Schwarzwald;3;{'type': 'Point', 'coordinates': [8.2026919, 48.0492174]};1
198;2;Rabenstraße;78120;Furtwangen im Schwarzwald;3;{'type': 'Point', 'coordinates': [8.2028893, 48.0495039]};1
199;4;Bregstraße;78120;Furtwangen im Schwarzwald;3;{'type': 'Point', 'coordinates': [8.2025876, 48.0491721]};1
200;4;Rabenstraße;78120;Furtwangen im Schwarzwald;3;{'type': 'Point', 'coordinates': [8.2027671, 48.0494882]};1
201;6;Bregstraße;78120;Furtwangen im Schwarzwald;3;{'type': 'Point', 'coordinates': [8.2025086, 48.0491307]};1
202;6;Rabenstraße;78120;Furtwangen im Schwarzwald;3;{'type': 'Point', 'coordinates': [8.2025688, 48.0494405]};1
203;8;Bregstraße;78120;Furtwangen im Schwarzwald;3;{'type': 'Point', 'coordinates': [8.2022041, 48.048978]};1
204;8;Rabenstraße;78120;Furtwangen im Schwarzwald;3;{'type': 'Point', 'coordinates': [8.2024804, 48.0494285]};1
288;15;Hebelstraße;78120;Furtwangen im Schwarzwald;3;{'type': 'Point', 'coordinates': [8.1959385, 48.0476843]};1
301;21;Martin-Blessing-Straße;78120;Furtwangen im Schwarzwald;3;{'type': 'Point', 'coordinates': [8.1924024, 48.0518997]};1
302;1/1;Neue Heimat;78120;Furtwangen im Schwarzwald;3;{'type': 'Point', 'coordinates': [8.1913429, 48.045771]};1
303;86;Bregstraße;78120;Furtwangen im Schwarzwald;3;{'type': 'Point', 'coordinates': [8.1916353, 48.0452636]};1
304;80;Bregstraße;78120;Furtwangen im Schwarzwald;3;{'type': 'Point', 'coordinates': [8.1923152, 48.045156]};1
305;36;Bregstraße;78120;Furtwangen im Schwarzwald;3;{'type': 'Point', 'coordinates': [8.1984133, 48.0477686]};1
306;34;Bregstraße;78120;Furtwangen im Schwarzwald;3;{'type': 'Point', 'coordinates': [8.1985192, 48.0478466]};1
322;8/1;Bregstraße;78120;Furtwangen im Schwarzwald;3;{'type': 'Point', 'coordinates': [8.2022555, 48.0489941]};1
327;36;Bismarckstraße;78120;Furtwangen im Schwarzwald;3;{'type': 'Point', 'coordinates': [8.203209, 48.0542305]};1
330;39;Bismarckstraße;78120;Furtwangen im Schwarzwald;3;{'type': 'Point', 'coordinates': [8.2027316, 48.0557131]};1
331;37;Bismarckstraße;78120;Furtwangen im Schwarzwald;3;{'type': 'Point', 'coordinates': [8.2026887, 48.0554388]};1
332;31;Bismarckstraße;78120;Furtwangen im Schwarzwald;3;{'type': 'Point', 'coordinates': [8.2028282, 48.0548597]};1
333;29;Bismarckstraße;78120;Furtwangen im Schwarzwald;3;{'type': 'Point', 'coordinates': [8.2028255, 48.0548042]};1
356;3;Am Straßberg;78120;Furtwangen im Schwarzwald;3;{'type': 'Point', 'coordinates': [8.1999836, 48.0494253]};1
359;11;Bregstraße;78120;Furtwangen im Schwarzwald;3;{'type': 'Point', 'coordinates': [8.2004839, 48.048086]};1
360;10;Jahnstraße;78120;Furtwangen im Schwarzwald;3;{'type': 'Point', 'coordinates': [8.200787, 48.0476861]};1
370;48;Bismarckstraße;78120;Furtwangen im Schwarzwald;3;{'type': 'Point', 'coordinates': [8.2030481, 48.0553671]};1
371;10;Ludwig-Zier-Straße;78120;Furtwangen im Schwarzwald;3;{'type': 'Point', 'coordinates': [8.1952697, 48.0534344]};1
372;22;Hans-Frank-Straße;78120;Furtwangen im Schwarzwald;3;{'type': 'Point', 'coordinates': [8.1977373, 48.053481]};1
379;29;Rabenstraße;78120;Furtwangen im Schwarzwald;3;{'type': 'LineString', 'coordinates': [[8.1975181, 48.0500778], [8.1979286, 48.0499298], [8.1978468, 48.0498284], [8.1975319, 48.0499419], [8.1975244, 48.0499327], [8.1974288, 48.0499671], [8.1975181, 48.0500778]]};1
383;1;Ganterhofstraße;78120;Furtwangen im Schwarzwald;3;{'type': 'LineString', 'coordinates': [[8.1915005, 48.0530924], [8.1913162, 48.0529005], [8.1910505, 48.0530144], [8.1912348, 48.0532064], [8.1915005, 48.0530924]]};1
385;20;Jahnstraße;78120;Furtwangen im Schwarzwald;3;{'type': 'LineString', 'coordinates': [[8.1991829, 48.0473597], [8.1993532, 48.0470156], [8.1994972, 48.0470496], [8.1993757, 48.0473256], [8.1996557, 48.0474562], [8.1995594, 48.0475471], [8.1991829, 48.0473597]]};1
386;6;Friedhofweg;78120;Furtwangen im Schwarzwald;3;{'type': 'LineString', 'coordinates': [[8.1994476, 48.0541492], [8.1993419, 48.0541882], [8.1993369, 48.0542077], [8.1993388, 48.0542156], [8.1993521, 48.0542267], [8.1993676, 48.0542308], [8.1993849, 48.0542317], [8.1994853, 48.0541949], [8.1994796, 48.054188], [8.1994973, 48.054178], [8.1994795, 48.054155], [8.1994558, 48.0541591], [8.1994476, 48.0541492]]};1
387;4;Friedhofweg;78120;Furtwangen im Schwarzwald;3;{'type': 'LineString', 'coordinates': [[8.2031162, 48.0517503], [8.2030092, 48.051671], [8.2031139, 48.0516079], [8.2031084, 48.0516038], [8.2031545, 48.051576], [8.2032671, 48.0516595], [8.2031162, 48.0517503]]};1
400;2;Werderstraße;78120;Furtwangen im Schwarzwald;3;{'type': 'LineString', 'coordinates': [[8.2031614, 48.0556365], [8.2036062, 48.055711], [8.2036437, 48.0556072], [8.2035122, 48.055585], [8.2033336, 48.0555555], [8.203199, 48.0555328], [8.2031614, 48.0556365]]};1
405;4;Hans-Frank-Straße;78120;Furtwangen im Schwarzwald;3;{'type': 'LineString', 'coordinates': [[8.1949441, 48.0530103], [8.1948798, 48.0529533], [8.1949926, 48.0528969], [8.195038, 48.0529369], [8.1950567, 48.0529537], [8.1949441, 48.0530103]]};1
406;6;Hans-Frank-Straße;78120;Furtwangen im Schwarzwald;3;{'type': 'LineString', 'coordinates': [[8.1952273, 48.0528968], [8.195223, 48.0528904], [8.1951907, 48.0528419], [8.1951741, 48.052817], [8.1953013, 48.0527792], [8.1953545, 48.052859], [8.1952273, 48.0528968]]};1
407;12;Hans-Frank-Straße;78120;Furtwangen im Schwarzwald;3;{'type': 'LineString', 'coordinates': [[8.1961395, 48.052825], [8.1961952, 48.0527422], [8.1963148, 48.0527781], [8.1962945, 48.0528092], [8.1962607, 48.0528614], [8.1961395, 48.052825]]};1
408;14;Hans-Frank-Straße;78120;Furtwangen im Schwarzwald;3;{'type': 'LineString', 'coordinates': [[8.1964744, 48.0530259], [8.1965511, 48.0529922], [8.1966835, 48.052934], [8.1967491, 48.0530007], [8.196521, 48.0531011], [8.1964553, 48.0530343], [8.1964744, 48.0530259]]};1
414;24;Albert-Schweitzer-Straße;78120;Furtwangen im Schwarzwald;3;{'type': 'LineString', 'coordinates': [[8.2000167, 48.0500766], [8.200092, 48.0500752], [8.2000937, 48.0501158], [8.2003468, 48.0501108], [8.2003574, 48.0503545], [8.2002169, 48.0503572], [8.2002135, 48.0502795], [8.2001433, 48.0502809], [8.2001455, 48.0503332], [8.200028, 48.0503354], [8.2000167, 48.0500766]]};1
415;56;Josef-Dorer-Straße;78120;Furtwangen im Schwarzwald;3;{'type': 'LineString', 'coordinates': [[8.1836441, 48.04897], [8.1836312, 48.0490653], [8.1838621, 48.0490793], [8.1838699, 48.049022], [8.1838089, 48.0490183], [8.1838141, 48.0489802], [8.1836441, 48.04897]]};1
420;50;Josef-Dorer-Straße;78120;Furtwangen im Schwarzwald;3;{'type': 'LineString', 'coordinates': [[8.1842032, 48.0487107], [8.1840096, 48.0487011], [8.1839991, 48.0487964], [8.1841927, 48.048806], [8.1842032, 48.0487107]]};1
421;2;Am Staatsberg;78120;Furtwangen im Schwarzwald;3;{'type': 'LineString', 'coordinates': [[8.1839457, 48.0461904], [8.1839873, 48.0459903], [8.1842333, 48.0460132], [8.1841917, 48.0462132], [8.1839457, 48.0461904]]};1
422;3;Am Staatsberg;78120;Furtwangen im Schwarzwald;3;{'type': 'LineString', 'coordinates': [[8.1811533, 48.0465337], [8.1812969, 48.0463534], [8.1814652, 48.0464133], [8.1813216, 48.0465936], [8.1811533, 48.0465337]]};1
423;14;Carl-Diem-Straße;78120;Furtwangen im Schwarzwald;3;{'type': 'LineString', 'coordinates': [[8.1934162, 48.0446708], [8.1934169, 48.0444753], [8.1935524, 48.0444755], [8.1935521, 48.044569], [8.1936275, 48.0445692], [8.1936277, 48.0445046], [8.1937567, 48.0445048], [8.193756, 48.0446949], [8.1936229, 48.0446947], [8.193623, 48.0446712], [8.1934162, 48.0446708]]};1
424;23;Carl-Diem-Straße;78120;Furtwangen im Schwarzwald;3;{'type': 'LineString', 'coordinates': [[8.1937421, 48.0442242], [8.1938663, 48.0442235], [8.1938654, 48.0441571], [8.1939444, 48.0441566], [8.1939457, 48.0442509], [8.194082, 48.0442501], [8.1940795, 48.0440586], [8.1938695, 48.0440598], [8.1938691, 48.0440374], [8.1937396, 48.0440382], [8.1937421, 48.0442242]]};1
425;18;Carl-Diem-Straße;78120;Furtwangen im Schwarzwald;3;{'type': 'LineString', 'coordinates': [[8.1924095, 48.0446444], [8.1926112, 48.0446527], [8.1926091, 48.0446785], [8.1927417, 48.0446856], [8.1927633, 48.0444961], [8.1926423, 48.0444885], [8.19263, 48.0445505], [8.1925554, 48.0445443], [8.1925639, 48.0444523], [8.1924325, 48.0444472], [8.1924095, 48.0446444]]};1
427;9;Kohlheppstraße;78120;Furtwangen im Schwarzwald;3;{'type': 'LineString', 'coordinates': [[8.1911671, 48.0489465], [8.1911044, 48.048878], [8.1912057, 48.0488365], [8.1911983, 48.0488285], [8.191253, 48.0488061], [8.1913201, 48.0488794], [8.1912671, 48.0489011], [8.19127, 48.0489043], [8.1911671, 48.0489465]]};1
428;6;Colne Straße;78120;Furtwangen im Schwarzwald;3;{'type': 'LineString', 'coordinates': [[8.1958582, 48.0549035], [8.1960746, 48.0545588], [8.1958221, 48.0544886], [8.1958635, 48.0544182], [8.1956723, 48.0543619], [8.1955917, 48.0545039], [8.1954711, 48.0545424], [8.1952708, 48.054485], [8.1951716, 48.054642], [8.1950533, 48.0546096], [8.1951829, 48.0544034], [8.1950615, 48.0543715], [8.1951068, 48.0543066], [8.1952183, 48.054338], [8.1952654, 48.0542683], [8.195126, 48.0542295], [8.1950936, 48.0542204], [8.1949911, 48.0541918], [8.194777, 48.0545339], [8.1948791, 48.0545592], [8.1948313, 48.0546341], [8.1950932, 48.0547097], [8.1951029, 48.0546943], [8.1952169, 48.0547267], [8.1952294, 48.0547239], [8.195329, 48.0547508], [8.195289, 48.0548147], [8.1951874, 48.0547877], [8.1951029, 48.0549216], [8.1951995, 48.0549498], [8.1953964, 48.0550073], [8.1954188, 48.0550139], [8.1955485, 48.0548126], [8.1958582, 48.0549035]]};1
429;1;Am Staatsberg;78120;Furtwangen im Schwarzwald;3;{'type': 'LineString', 'coordinates': [[8.1858678, 48.0451519], [8.1860682, 48.0451934], [8.1861421, 48.0450341], [8.1859418, 48.0449925], [8.1858678, 48.0451519]]};1
430;9;Carl-Diem-Straße;78120;Furtwangen im Schwarzwald;3;{'type': 'LineString', 'coordinates': [[8.1955888, 48.0448708], [8.195719, 48.04472], [8.1958304, 48.0447623], [8.1956995, 48.0449136], [8.1955888, 48.0448708]]};1
431;8;Kohlheppstraße;78120;Furtwangen im Schwarzwald;3;{'type': 'LineString', 'coordinates': [[8.1904052, 48.0489252], [8.1905871, 48.0489565], [8.1906204, 48.0488699], [8.1906294, 48.0488465], [8.1904475, 48.0488152], [8.1904052, 48.0489252]]};1
432;11;Zum Döbele;78120;Furtwangen im Schwarzwald;3;{'type': 'LineString', 'coordinates': [[8.1969666, 48.0431367], [8.1972429, 48.0430448], [8.1971497, 48.0429195], [8.1968734, 48.0430113], [8.1969666, 48.0431367]]};1
433;5;Carl-Diem-Straße;78120;Furtwangen im Schwarzwald;3;{'type': 'LineString', 'coordinates': [[8.1960785, 48.0448235], [8.1959667, 48.0449588], [8.1960799, 48.0450006], [8.1961917, 48.0448653], [8.1960785, 48.0448235]]};1
434;2;Zum Döbele;78120;Furtwangen im Schwarzwald;3;{'type': 'LineString', 'coordinates': [[8.196315, 48.0450834], [8.1964188, 48.0449631], [8.196537, 48.0450086], [8.1964332, 48.045129], [8.196315, 48.0450834]]};1
435;6;Kohlheppstraße;78120;Furtwangen im Schwarzwald;3;{'type': 'LineString', 'coordinates': [[8.1901418, 48.0489971], [8.1901063, 48.0489895], [8.1900814, 48.0490336], [8.1901172, 48.0490423], [8.1901011, 48.0490718], [8.1902588, 48.049109], [8.1902756, 48.0490751], [8.1902968, 48.0490789], [8.190309, 48.0490595], [8.1902888, 48.0490485], [8.1903002, 48.0490254], [8.1901462, 48.0489891], [8.1901418, 48.0489971]]};1
436;10;Kohlheppstraße;78120;Furtwangen im Schwarzwald;3;{'type': 'LineString', 'coordinates': [[8.1906871, 48.0487283], [8.1908702, 48.0487612], [8.1908861, 48.0487217], [8.1909135, 48.0486534], [8.1907304, 48.0486205], [8.1906871, 48.0487283]]};1
437;5;Am Staatsberg;78120;Furtwangen im Schwarzwald;3;{'type': 'LineString', 'coordinates': [[8.1837749, 48.0448462], [8.1840269, 48.0448499], [8.1840322, 48.0446885], [8.1837801, 48.0446849], [8.1837749, 48.0448462]]};1
438;4;Kohlheppstraße;78120;Furtwangen im Schwarzwald;3;{'type': 'LineString', 'coordinates': [[8.1897462, 48.0492168], [8.18993, 48.0492517], [8.1899671, 48.0491829], [8.1899718, 48.0491742], [8.1899523, 48.0491703], [8.1897821, 48.0491356], [8.1897462, 48.0492168]]};1
439;5;Kohlheppstraße;78120;Furtwangen im Schwarzwald;3;{'type': 'LineString', 'coordinates': [[8.1904212, 48.0492233], [8.1904814, 48.0492923], [8.1905552, 48.0492632], [8.1905731, 48.0492838], [8.1907054, 48.0492349], [8.1906545, 48.0491779], [8.190626, 48.0491459], [8.1904212, 48.0492233]]};1
440;1;Kohlheppstraße;78120;Furtwangen im Schwarzwald;3;{'type': 'LineString', 'coordinates': [[8.1900512, 48.0494718], [8.1899376, 48.0495328], [8.1898682, 48.0494717], [8.1900358, 48.0493883], [8.1900845, 48.0494331], [8.1900737, 48.0494381], [8.1901104, 48.0494626], [8.1900784, 48.0494826], [8.1900512, 48.0494718]]};1
441;2;Kohlheppstraße;78120;Furtwangen im Schwarzwald;3;{'type': 'LineString', 'coordinates': [[8.1894235, 48.0493907], [8.1896032, 48.0494325], [8.1896487, 48.0493451], [8.1894691, 48.0493033], [8.1894235, 48.0493907]]};1
442;3;Kohlheppstraße;78120;Furtwangen im Schwarzwald;3;{'type': 'LineString', 'coordinates': [[8.1901416, 48.0493434], [8.1902764, 48.0492916], [8.1903364, 48.0493609], [8.1902013, 48.0494131], [8.190181, 48.0493903], [8.1901416, 48.0493434]]};1
443;12;Kohlheppstraße;78120;Furtwangen im Schwarzwald;3;{'type': 'LineString', 'coordinates': [[8.1910902, 48.0485367], [8.1911855, 48.0485907], [8.1912539, 48.0485367], [8.1911587, 48.0484827], [8.1910902, 48.0485367]]};1
444;16;Kohlheppstraße;78120;Furtwangen im Schwarzwald;3;{'type': 'LineString', 'coordinates': [[8.1913163, 48.0483018], [8.1914118, 48.0483682], [8.191495, 48.0483148], [8.1914915, 48.0483124], [8.1914572, 48.0482885], [8.1913995, 48.0482484], [8.1913163, 48.0483018]]};1
445;18;Kohlheppstraße;78120;Furtwangen im Schwarzwald;3;{'type': 'LineString', 'coordinates': [[8.1914746, 48.0482232], [8.1914883, 48.0482337], [8.1915415, 48.0482707], [8.1916045, 48.0482315], [8.1915358, 48.0481849], [8.1914746, 48.0482232]]};1
446;6;Zur Langeck;78120;Furtwangen im Schwarzwald;3;{'type': 'LineString', 'coordinates': [[8.1890837, 48.0500644], [8.1892593, 48.0499683], [8.1891456, 48.0498754], [8.1889631, 48.0499752], [8.1890065, 48.0500106], [8.1889593, 48.0500365], [8.1890144, 48.0500815], [8.1890685, 48.0500519], [8.1890837, 48.0500644]]};1
447;15;Stephan-Blattmann-Straße;78120;Furtwangen im Schwarzwald;3;{'type': 'LineString', 'coordinates': [[8.1889941, 48.0488559], [8.1891892, 48.0488207], [8.1891456, 48.0487124], [8.1889504, 48.0487475], [8.1889941, 48.0488559]]};1
448;18;Josef-Dorer-Straße;78120;Furtwangen im Schwarzwald;3;{'type': 'LineString', 'coordinates': [[8.1863226, 48.0481646], [8.186228, 48.0481643], [8.1862271, 48.0482848], [8.1863217, 48.0482851], [8.1863218, 48.0482688], [8.1863226, 48.0481646]]};1
449;6;Friedlandweg;78120;Furtwangen im Schwarzwald;3;{'type': 'LineString', 'coordinates': [[8.1946521, 48.0465151], [8.1947629, 48.0465881], [8.1948511, 48.0465282], [8.1947914, 48.0464889], [8.194799, 48.0464837], [8.194748, 48.0464501], [8.1946521, 48.0465151]]};1
450;4;Barbaraweg;78120;Furtwangen im Schwarzwald;3;{'type': 'LineString', 'coordinates': [[8.1869865, 48.0494259], [8.1872087, 48.0494418], [8.1872227, 48.0493546], [8.1871114, 48.0493467], [8.1871149, 48.0493253], [8.1870039, 48.0493174], [8.1869865, 48.0494259]]};1
451;31;Kohlheppstraße;78120;Furtwangen im Schwarzwald;3;{'type': 'LineString', 'coordinates': [[8.1937051, 48.0474768], [8.1937708, 48.0473639], [8.1935956, 48.0473184], [8.1935299, 48.0474313], [8.1937051, 48.0474768]]};1
452;50;Bregstraße;78120;Furtwangen im Schwarzwald;3;{'type': 'LineString', 'coordinates': [[8.1958909, 48.0457679], [8.1959666, 48.045669], [8.1957649, 48.0456], [8.1956892, 48.0456989], [8.1958909, 48.0457679]]};1
453;25;Kohlheppstraße;78120;Furtwangen im Schwarzwald;3;{'type': 'LineString', 'coordinates': [[8.1929594, 48.0479566], [8.1930156, 48.0478437], [8.1928032, 48.0477963], [8.1927469, 48.0479092], [8.1929594, 48.0479566]]};1
454;31;Kussenhofstraße;78120;Furtwangen im Schwarzwald;3;{'type': 'LineString', 'coordinates': [[8.186798, 48.0484689], [8.1867985, 48.0485587], [8.1867987, 48.0485832], [8.1870849, 48.0485824], [8.1870842, 48.0484681], [8.186798, 48.0484689]]};1
455;7;Stephan-Blattmann-Straße;78120;Furtwangen im Schwarzwald;3;{'type': 'LineString', 'coordinates': [[8.1903787, 48.0478023], [8.1905851, 48.0477396], [8.1905023, 48.0476179], [8.1902959, 48.0476806], [8.1903787, 48.0478023]]};1
456;7;Kussenhofstraße;78120;Furtwangen im Schwarzwald;3;{'type': 'LineString', 'coordinates': [[8.1905663, 48.0460438], [8.1906901, 48.0459535], [8.1905815, 48.045887], [8.1904577, 48.0459773], [8.1905663, 48.0460438]]};1
457;13;Kohlheppstraße;78120;Furtwangen im Schwarzwald;3;{'type': 'LineString', 'coordinates': [[8.1916867, 48.0485849], [8.1917176, 48.0485373], [8.1916941, 48.0485305], [8.1917152, 48.0484979], [8.1916151, 48.048469], [8.1915632, 48.0485492], [8.1916867, 48.0485849]]};1
458;36;Kohlheppstraße;78120;Furtwangen im Schwarzwald;3;{'type': 'LineString', 'coordinates': [[8.193086, 48.0476117], [8.1930954, 48.0474862], [8.1928247, 48.0474772], [8.1928153, 48.0476026], [8.193086, 48.0476117]]};1
459;25;Stephan-Blattmann-Straße;78120;Furtwangen im Schwarzwald;3;{'type': 'LineString', 'coordinates': [[8.1869265, 48.0496786], [8.1872717, 48.0496912], [8.187285, 48.0495283], [8.1869397, 48.0495158], [8.1869265, 48.0496786]]};1
460;46;Bregstraße;78120;Furtwangen im Schwarzwald;3;{'type': 'LineString', 'coordinates': [[8.1959378, 48.0455139], [8.1959973, 48.0454031], [8.1958144, 48.0453592], [8.1957549, 48.04547], [8.1959378, 48.0455139]]};1
461;60;Josef-Dorer-Straße;78120;Furtwangen im Schwarzwald;3;{'type': 'LineString', 'coordinates': [[8.1842548, 48.0491067], [8.1844987, 48.0491067], [8.1844987, 48.0490013], [8.1842548, 48.0490013], [8.1842548, 48.0491067]]};1
462;90;Bregstraße;78120;Furtwangen im Schwarzwald;3;{'type': 'LineString', 'coordinates': [[8.1908299, 48.0450968], [8.1907457, 48.0452014], [8.1908677, 48.0452453], [8.1909518, 48.0451407], [8.1908299, 48.0450968]]};1
463;11;Josef-Dorer-Straße;78120;Furtwangen im Schwarzwald;3;{'type': 'LineString', 'coordinates': [[8.1859021, 48.0480456], [8.1859095, 48.0479347], [8.1857406, 48.0479297], [8.1857333, 48.0480406], [8.1859021, 48.0480456]]};1
464;14;Berliner Straße;78120;Furtwangen im Schwarzwald;3;{'type': 'LineString', 'coordinates': [[8.1918524, 48.0459842], [8.1918008, 48.0458933], [8.1916149, 48.0459405], [8.1916665, 48.0460314], [8.1918524, 48.0459842]]};1
465;1;Dr.-Guttenberg-Straße;78120;Furtwangen im Schwarzwald;3;{'type': 'LineString', 'coordinates': [[8.1853787, 48.0498114], [8.1854482, 48.049831], [8.1855144, 48.0498494], [8.1854991, 48.0498677], [8.1855363, 48.0498835], [8.1855642, 48.0498635], [8.1856374, 48.0498837], [8.1856656, 48.0498386], [8.1856766, 48.0498416], [8.1857112, 48.0497875], [8.1855422, 48.0497387], [8.1854413, 48.0497113], [8.1853787, 48.0498114]]};1
466;3;Stephan-Blattmann-Straße;78120;Furtwangen im Schwarzwald;3;{'type': 'LineString', 'coordinates': [[8.1909528, 48.0474963], [8.1911404, 48.0474336], [8.1910609, 48.0473272], [8.1908732, 48.0473899], [8.1909528, 48.0474963]]};1
467;11;Dr.-Guttenberg-Straße;78120;Furtwangen im Schwarzwald;3;{'type': 'LineString', 'coordinates': [[8.1838112, 48.0496721], [8.1839647, 48.0496832], [8.18398, 48.0495889], [8.1838661, 48.0495806], [8.1838644, 48.0495916], [8.1838247, 48.0495887], [8.1838112, 48.0496721]]};1
468;7;Josef-Dorer-Straße;78120;Furtwangen im Schwarzwald;3;{'type': 'LineString', 'coordinates': [[8.1865175, 48.0479177], [8.1867426, 48.0479252], [8.1867526, 48.0477924], [8.1865274, 48.0477848], [8.1865175, 48.0479177]]};1
469;8;Zur Langeck;78120;Furtwangen im Schwarzwald;3;{'type': 'LineString', 'coordinates': [[8.1887386, 48.0502764], [8.1887926, 48.0502502], [8.188761, 48.050221], [8.1889367, 48.0501358], [8.1888302, 48.0500376], [8.1886004, 48.0501491], [8.1887386, 48.0502764]]};1
470;13;Kussenhofstraße;78120;Furtwangen im Schwarzwald;3;{'type': 'LineString', 'coordinates': [[8.1899885, 48.0467338], [8.1902249, 48.0466159], [8.190119, 48.0465211], [8.1898826, 48.046639], [8.1899885, 48.0467338]]};1
471;22/1;Kussenhofstraße;78120;Furtwangen im Schwarzwald;3;{'type': 'LineString', 'coordinates': [[8.1886338, 48.0486351], [8.1888365, 48.048595], [8.1887871, 48.0484837], [8.1885845, 48.0485238], [8.1886338, 48.0486351]]};1
472;10;Josef-Dorer-Straße;78120;Furtwangen im Schwarzwald;3;{'type': 'LineString', 'coordinates': [[8.1866284, 48.0482446], [8.1867164, 48.0482446], [8.1867164, 48.0481341], [8.1866284, 48.0481341], [8.1866284, 48.0482446]]};1
473;14;Dr.-Guttenberg-Straße;78120;Furtwangen im Schwarzwald;3;{'type': 'LineString', 'coordinates': [[8.1839634, 48.0499587], [8.1839823, 48.0498566], [8.1838126, 48.0498425], [8.1837937, 48.0499447], [8.1839634, 48.0499587]]};1
474;22;Berliner Straße;78120;Furtwangen im Schwarzwald;3;{'type': 'LineString', 'coordinates': [[8.193616, 48.0461504], [8.193677, 48.0460031], [8.1934466, 48.0459605], [8.1933856, 48.0461078], [8.193616, 48.0461504]]};1
475;8;Dr.-Guttenberg-Straße;78120;Furtwangen im Schwarzwald;3;{'type': 'LineString', 'coordinates': [[8.1848216, 48.0499809], [8.1848412, 48.049876], [8.1846984, 48.0498641], [8.1846843, 48.0499382], [8.1846788, 48.0499689], [8.1848216, 48.0499809]]};1
476;92;Bregstraße;78120;Furtwangen im Schwarzwald;3;{'type': 'LineString', 'coordinates': [[8.1905025, 48.0451859], [8.1903862, 48.0450379], [8.1901599, 48.0451174], [8.1902762, 48.0452654], [8.1905025, 48.0451859]]};1
477;40;Kohlheppstraße;78120;Furtwangen im Schwarzwald;3;{'type': 'LineString', 'coordinates': [[8.1929125, 48.0472699], [8.1930203, 48.0471978], [8.1929054, 48.0471209], [8.1927975, 48.0471931], [8.1929125, 48.0472699]]};1
478;68;Josef-Dorer-Straße;78120;Furtwangen im Schwarzwald;3;{'type': 'LineString', 'coordinates': [[8.1850637, 48.0490388], [8.185146, 48.0490377], [8.1851424, 48.0489184], [8.18506, 48.0489195], [8.1850606, 48.0489375], [8.1850637, 48.0490388]]};1
479;28;Kussenhofstraße;78120;Furtwangen im Schwarzwald;3;{'type': 'LineString', 'coordinates': [[8.1868965, 48.0491042], [8.1871704, 48.0491042], [8.1871704, 48.0489963], [8.1868965, 48.0489963], [8.1868965, 48.0491042]]};1
480;62;Bregstraße;78120;Furtwangen im Schwarzwald;3;{'type': 'LineString', 'coordinates': [[8.1946479, 48.0452285], [8.1946834, 48.0451318], [8.1944348, 48.045091], [8.1943993, 48.0451878], [8.1946479, 48.0452285]]};1
481;6;Dr.-Guttenberg-Straße;78120;Furtwangen im Schwarzwald;3;{'type': 'LineString', 'coordinates': [[8.1850946, 48.0500314], [8.1851086, 48.0499397], [8.1850278, 48.0499342], [8.185026, 48.0499459], [8.1849726, 48.0499422], [8.1849683, 48.0499758], [8.1849587, 48.0500221], [8.1850946, 48.0500314]]};1
482;10;Berliner Straße;78120;Furtwangen im Schwarzwald;3;{'type': 'LineString', 'coordinates': [[8.1913599, 48.0462132], [8.1912849, 48.0461348], [8.1909664, 48.046271], [8.1910414, 48.0463494], [8.1913599, 48.0462132]]};1
483;23;Stephan-Blattmann-Straße;78120;Furtwangen im Schwarzwald;3;{'type': 'LineString', 'coordinates': [[8.1874068, 48.0495833], [8.1875757, 48.0495808], [8.1875725, 48.0494854], [8.1874036, 48.0494879], [8.1874068, 48.0495833]]};1
484;3;Neue Heimat;78120;Furtwangen im Schwarzwald;3;{'type': 'LineString', 'coordinates': [[8.1915804, 48.0457114], [8.1918528, 48.045675], [8.1918199, 48.0455653], [8.1915475, 48.0456017], [8.1915804, 48.0457114]]};1
485;9;Zur Langeck;78120;Furtwangen im Schwarzwald;3;{'type': 'LineString', 'coordinates': [[8.1878964, 48.0503083], [8.188084, 48.0502518], [8.1880111, 48.0501435], [8.1878235, 48.0501999], [8.1878964, 48.0503083]]};1
486;19;Stephan-Blattmann-Straße;78120;Furtwangen im Schwarzwald;3;{'type': 'LineString', 'coordinates': [[8.1882398, 48.0492522], [8.18845, 48.0492773], [8.1884759, 48.0491803], [8.1882657, 48.0491552], [8.1882398, 48.0492522]]};1
487;8/1;Stephan-Blattmann-Straße;78120;Furtwangen im Schwarzwald;3;{'type': 'LineString', 'coordinates': [[8.1910351, 48.0481617], [8.1910017, 48.0480503], [8.1908281, 48.0480736], [8.1908615, 48.048185], [8.1910351, 48.0481617]]};1
488;7;Berliner Straße;78120;Furtwangen im Schwarzwald;3;{'type': 'LineString', 'coordinates': [[8.1906451, 48.0473357], [8.1908177, 48.0472956], [8.1907689, 48.0472019], [8.1905963, 48.047242], [8.1906451, 48.0473357]]};1
489;18;Berliner Straße;78120;Furtwangen im Schwarzwald;3;{'type': 'LineString', 'coordinates': [[8.1928421, 48.0460281], [8.192828, 48.0458933], [8.1925517, 48.0459062], [8.1925657, 48.046041], [8.1928421, 48.0460281]]};1
490;36;Stephan-Blattmann-Straße;78120;Furtwangen im Schwarzwald;3;{'type': 'LineString', 'coordinates': [[8.1861051, 48.050561], [8.1859972, 48.0504778], [8.1859604, 48.0504991], [8.1859009, 48.0504533], [8.1858045, 48.0505091], [8.1858628, 48.0505541], [8.1858884, 48.0505392], [8.1859976, 48.0506234], [8.1861051, 48.050561]]};1
491;1;Zum Döbele;78120;Furtwangen im Schwarzwald;3;{'type': 'LineString', 'coordinates': [[8.1967061, 48.0450909], [8.1967778, 48.0451598], [8.1969659, 48.0450722], [8.1968943, 48.0450034], [8.1967061, 48.0450909]]};1
492;24;Kussenhofstraße;78120;Furtwangen im Schwarzwald;3;{'type': 'LineString', 'coordinates': [[8.1878158, 48.0486376], [8.1881423, 48.0486451], [8.1881489, 48.0485174], [8.1878224, 48.0485098], [8.1878158, 48.0486376]]};1
493;2;Stephan-Blattmann-Straße;78120;Furtwangen im Schwarzwald;3;{'type': 'LineString', 'coordinates': [[8.1922746, 48.0473451], [8.1922558, 48.047204], [8.1919471, 48.0472224], [8.1919659, 48.0473635], [8.1922746, 48.0473451]]};1
494;35;Kussenhofstraße;78120;Furtwangen im Schwarzwald;3;{'type': 'LineString', 'coordinates': [[8.1862208, 48.0485473], [8.1865124, 48.0485465], [8.1865118, 48.0484545], [8.1865117, 48.0484337], [8.1862202, 48.0484345], [8.1862208, 48.0485473]]};1
495;52;Bregstraße;78120;Furtwangen im Schwarzwald;3;{'type': 'LineString', 'coordinates': [[8.195647, 48.0454418], [8.1957198, 48.0453383], [8.1955603, 48.0452881], [8.1954875, 48.0453916], [8.195647, 48.0454418]]};1
496;9/2;Berliner Straße;78120;Furtwangen im Schwarzwald;3;{'type': 'LineString', 'coordinates': [[8.1933346, 48.0464483], [8.1936783, 48.0465476], [8.1937675, 48.0464096], [8.1934237, 48.0463104], [8.1933346, 48.0464483]]};1
497;4;Berliner Straße;78120;Furtwangen im Schwarzwald;3;{'type': 'LineString', 'coordinates': [[8.1904734, 48.04695], [8.1903843, 48.0468716], [8.1901826, 48.0469741], [8.1902717, 48.0470525], [8.1904734, 48.04695]]};1
498;20;Stephan-Blattmann-Straße;78120;Furtwangen im Schwarzwald;3;{'type': 'LineString', 'coordinates': [[8.1887314, 48.0494428], [8.188964, 48.0494052], [8.1889202, 48.049284], [8.1886875, 48.0493216], [8.1887314, 48.0494428]]};1
499;1;Zur Langeck;78120;Furtwangen im Schwarzwald;3;{'type': 'LineString', 'coordinates': [[8.1890985, 48.049699], [8.1893218, 48.0495954], [8.1892297, 48.0495067], [8.1891169, 48.049559], [8.189086, 48.0495293], [8.1889755, 48.0495806], [8.1890985, 48.049699]]};1
500;12;Stephan-Blattmann-Straße;78120;Furtwangen im Schwarzwald;3;{'type': 'LineString', 'coordinates': [[8.1903811, 48.0485058], [8.190328, 48.0484395], [8.1902055, 48.0484834], [8.190184, 48.0484565], [8.1901299, 48.0484759], [8.1902044, 48.048569], [8.1903811, 48.0485058]]};1
501;29;Stephan-Blattmann-Straße;78120;Furtwangen im Schwarzwald;3;{'type': 'LineString', 'coordinates': [[8.1865363, 48.0497388], [8.1866826, 48.0497388], [8.1866826, 48.0496385], [8.1865363, 48.0496385], [8.1865363, 48.0497388]]};1
502;15;Kussenhofstraße;78120;Furtwangen im Schwarzwald;3;{'type': 'LineString', 'coordinates': [[8.1898759, 48.046962], [8.1897784, 48.0468791], [8.1895495, 48.0469995], [8.189647, 48.0470824], [8.1898759, 48.046962]]};1
503;25;Josef-Dorer-Straße;78120;Furtwangen im Schwarzwald;3;{'type': 'LineString', 'coordinates': [[8.1835006, 48.04861], [8.1835133, 48.0484957], [8.1833106, 48.0484857], [8.183298, 48.0486], [8.1835006, 48.04861]]};1
504;78;Bregstraße;78120;Furtwangen im Schwarzwald;3;{'type': 'LineString', 'coordinates': [[8.1926216, 48.0452254], [8.1928186, 48.0452191], [8.192808, 48.04507], [8.192611, 48.0450763], [8.1926216, 48.0452254]]};1
505;3;Zum Döbele;78120;Furtwangen im Schwarzwald;3;{'type': 'LineString', 'coordinates': [[8.197412, 48.0452849], [8.1974805, 48.0453447], [8.1975845, 48.0452915], [8.1975161, 48.0452317], [8.197412, 48.0452849]]};1
506;6;Stephan-Blattmann-Straße;78120;Furtwangen im Schwarzwald;3;{'type': 'LineString', 'coordinates': [[8.1916141, 48.0477563], [8.1915383, 48.0476709], [8.1913835, 48.0477323], [8.1914354, 48.0477909], [8.1913727, 48.0478209], [8.1914187, 48.047857], [8.1914722, 48.047833], [8.1914612, 48.0478149], [8.1916141, 48.0477563]]};1
507;48;Josef-Dorer-Straße;78120;Furtwangen im Schwarzwald;3;{'type': 'LineString', 'coordinates': [[8.1844837, 48.0487756], [8.184501, 48.0486851], [8.1843246, 48.0486701], [8.1843074, 48.0487605], [8.1844837, 48.0487756]]};1
508;42;Kohlheppstraße;78120;Furtwangen im Schwarzwald;3;{'type': 'LineString', 'coordinates': [[8.1933539, 48.047086], [8.1933726, 48.0469794], [8.1931939, 48.0469653], [8.1931751, 48.0470719], [8.1933539, 48.047086]]};1
509;74;Josef-Dorer-Straße;78120;Furtwangen im Schwarzwald;3;{'type': 'LineString', 'coordinates': [[8.1855509, 48.0490506], [8.1856302, 48.0490498], [8.1856275, 48.048929], [8.1855482, 48.0489298], [8.1855509, 48.0490506]]};1
510;20;Kussenhofstraße;78120;Furtwangen im Schwarzwald;3;{'type': 'LineString', 'coordinates': [[8.1888477, 48.0482839], [8.1891441, 48.0481836], [8.1890706, 48.0480865], [8.1887742, 48.0481869], [8.1888477, 48.0482839]]};1
511;7;Neue Heimat;78120;Furtwangen im Schwarzwald;3;{'type': 'LineString', 'coordinates': [[8.1919754, 48.0456406], [8.1922334, 48.0456406], [8.1922334, 48.045534], [8.1919754, 48.045534], [8.1919754, 48.0456406]]};1
512;54;Josef-Dorer-Straße;78120;Furtwangen im Schwarzwald;3;{'type': 'LineString', 'coordinates': [[8.1834256, 48.0489637], [8.1834533, 48.0488431], [8.1832582, 48.048823], [8.1832304, 48.0489437], [8.1834256, 48.0489637]]};1
513;2a;Neue Heimat;78120;Furtwangen im Schwarzwald;3;{'type': 'LineString', 'coordinates': [[8.1927624, 48.0453916], [8.192964, 48.0453885], [8.1929615, 48.0453159], [8.1927598, 48.045319], [8.1927624, 48.0453916]]};1
514;4;Zur Langeck;78120;Furtwangen im Schwarzwald;3;{'type': 'LineString', 'coordinates': [[8.1893728, 48.0499123], [8.1895884, 48.0497823], [8.1894581, 48.0496858], [8.1892426, 48.0498158], [8.1893728, 48.0499123]]};1
515;70;Bregstraße;78120;Furtwangen im Schwarzwald;3;{'type': 'LineString', 'coordinates': [[8.1935738, 48.0452254], [8.1936094, 48.0451029], [8.1934406, 48.0450809], [8.1934049, 48.0452034], [8.1935738, 48.0452254]]};1
516;33;Kussenhofstraße;78120;Furtwangen im Schwarzwald;3;{'type': 'LineString', 'coordinates': [[8.1865118, 48.0484545], [8.1865124, 48.0485465], [8.1865124, 48.0485595], [8.1867985, 48.0485587], [8.186798, 48.0484689], [8.1867979, 48.0484537], [8.1865118, 48.0484545]]};1
517;21;Kussenhofstraße;78120;Furtwangen im Schwarzwald;3;{'type': 'LineString', 'coordinates': [[8.1881508, 48.0479163], [8.1884622, 48.0478561], [8.188443, 48.0478118], [8.1888348, 48.047736], [8.1888026, 48.0476614], [8.1880994, 48.0477974], [8.1881508, 48.0479163]]};1
518;17;Kohlheppstraße;78120;Furtwangen im Schwarzwald;3;{'type': 'LineString', 'coordinates': [[8.1919379, 48.0483526], [8.1920867, 48.0483966], [8.1921566, 48.0482809], [8.1919884, 48.0482323], [8.1919765, 48.048234], [8.19195, 48.0482771], [8.1919561, 48.0482862], [8.1919786, 48.048293], [8.1919611, 48.0483199], [8.1919379, 48.0483526]]};1
519;15/1;Stephan-Blattmann-Straße;78120;Furtwangen im Schwarzwald;3;{'type': 'LineString', 'coordinates': [[8.1890841, 48.0486125], [8.1892567, 48.0485799], [8.1892115, 48.0484729], [8.1890389, 48.0485055], [8.1890841, 48.0486125]]};1
520;14;Stephan-Blattmann-Straße;78120;Furtwangen im Schwarzwald;3;{'type': 'LineString', 'coordinates': [[8.1901473, 48.0487028], [8.1900771, 48.048612], [8.1898942, 48.0486751], [8.1899468, 48.0487431], [8.1900227, 48.0487169], [8.1900403, 48.0487397], [8.1901473, 48.0487028]]};1
521;12;Kussenhofstraße;78120;Furtwangen im Schwarzwald;3;{'type': 'LineString', 'coordinates': [[8.1896432, 48.0477471], [8.1899434, 48.0476493], [8.1898583, 48.0475326], [8.1895582, 48.0476305], [8.1896432, 48.0477471]]};1
522;5;Stephan-Blattmann-Straße;78120;Furtwangen im Schwarzwald;3;{'type': 'LineString', 'coordinates': [[8.1906451, 48.0476192], [8.1908665, 48.047564], [8.1908111, 48.0474647], [8.1905897, 48.0475199], [8.1906451, 48.0476192]]};1
523;7;Zum Döbele;78120;Furtwangen im Schwarzwald;3;{'type': 'LineString', 'coordinates': [[8.1971911, 48.044985], [8.1972468, 48.0449108], [8.1970767, 48.0448538], [8.1970211, 48.0449281], [8.1971911, 48.044985]]};1
524;11;Stephan-Blattmann-Straße;78120;Furtwangen im Schwarzwald;3;{'type': 'LineString', 'coordinates': [[8.1897369, 48.0482952], [8.1899098, 48.0482619], [8.1898686, 48.0481664], [8.1897382, 48.0481916], [8.1897467, 48.0482113], [8.1897042, 48.0482195], [8.1897369, 48.0482952]]};1
525;9;Dr.-Guttenberg-Straße;78120;Furtwangen im Schwarzwald;3;{'type': 'LineString', 'coordinates': [[8.1841775, 48.0496204], [8.184161, 48.0496193], [8.1841556, 48.0496577], [8.1842547, 48.0496639], [8.1842532, 48.049675], [8.184317, 48.049679], [8.1843232, 48.0496347], [8.1843063, 48.0496336], [8.1843138, 48.0495807], [8.1842436, 48.0495763], [8.184242, 48.0495877], [8.1841826, 48.049584], [8.1841775, 48.0496204]]};1
526;10;Zum Döbele;78120;Furtwangen im Schwarzwald;3;{'type': 'LineString', 'coordinates': [[8.1975307, 48.0448698], [8.1976347, 48.0449143], [8.1976947, 48.0448516], [8.1975907, 48.0448071], [8.1975307, 48.0448698]]};1
527;20;Berliner Straße;78120;Furtwangen im Schwarzwald;3;{'type': 'LineString', 'coordinates': [[8.193222, 48.046072], [8.1932642, 48.0459372], [8.1930257, 48.0459038], [8.1929834, 48.0460387], [8.193222, 48.046072]]};1
528;27;Kohlheppstraße;78120;Furtwangen im Schwarzwald;3;{'type': 'LineString', 'coordinates': [[8.1933956, 48.0478123], [8.1934425, 48.047712], [8.1933007, 48.0476824], [8.1932538, 48.0477827], [8.1933956, 48.0478123]]};1
529;41;Kussenhofstraße;78120;Furtwangen im Schwarzwald;3;{'type': 'LineString', 'coordinates': [[8.1854537, 48.0494369], [8.185727, 48.0494415], [8.1857288, 48.0494296], [8.18573, 48.0493564], [8.1854569, 48.0493518], [8.1854537, 48.0494369]]};1
530;8;Friedlandweg;78120;Furtwangen im Schwarzwald;3;{'type': 'LineString', 'coordinates': [[8.1943465, 48.0463449], [8.1944641, 48.0464045], [8.1945336, 48.0463431], [8.1944983, 48.0463252], [8.1945047, 48.0463195], [8.194457, 48.0462953], [8.1944502, 48.0463013], [8.1944157, 48.0462839], [8.1943465, 48.0463449]]};1
531;26;Kussenhofstraße;78120;Furtwangen im Schwarzwald;3;{'type': 'LineString', 'coordinates': [[8.1872154, 48.0488734], [8.1874443, 48.0488684], [8.1874392, 48.048763], [8.1872103, 48.048768], [8.1872154, 48.0488734]]};1
532;30;Kussenhofstraße;78120;Furtwangen im Schwarzwald;3;{'type': 'LineString', 'coordinates': [[8.1866147, 48.0493937], [8.1867635, 48.049401], [8.1867747, 48.0492989], [8.1865599, 48.0492884], [8.1865549, 48.0493335], [8.1865287, 48.0493322], [8.1865241, 48.0493737], [8.1866164, 48.0493782], [8.1866147, 48.0493937]]};1
533;6;Berliner Straße;78120;Furtwangen im Schwarzwald;3;{'type': 'LineString', 'coordinates': [[8.1908346, 48.046787], [8.1907689, 48.0466898], [8.1905529, 48.046755], [8.1906186, 48.0468522], [8.1908346, 48.046787]]};1
534;5;Dr.-Guttenberg-Straße;78120;Furtwangen im Schwarzwald;3;{'type': 'LineString', 'coordinates': [[8.1849851, 48.0496581], [8.1849446, 48.0496487], [8.1849416, 48.0496545], [8.1848953, 48.0496438], [8.1849037, 48.0496274], [8.1848001, 48.0496035], [8.1847738, 48.0496545], [8.1847959, 48.0496596], [8.1847798, 48.0496909], [8.1848013, 48.0496958], [8.1847949, 48.0497083], [8.1849419, 48.0497421], [8.1849851, 48.0496581]]};1
535;9;Friedlandweg;78120;Furtwangen im Schwarzwald;3;{'type': 'LineString', 'coordinates': [[8.1955005, 48.0467543], [8.1956314, 48.046723], [8.1955721, 48.0466122], [8.1954412, 48.0466434], [8.1955005, 48.0467543]]};1
536;28;Stephan-Blattmann-Straße;78120;Furtwangen im Schwarzwald;3;{'type': 'LineString', 'coordinates': [[8.1871216, 48.0500373], [8.1873543, 48.0500398], [8.1873574, 48.0499095], [8.1871248, 48.049907], [8.1871216, 48.0500373]]};1
537;3;Zur Langeck;78120;Furtwangen im Schwarzwald;3;{'type': 'LineString', 'coordinates': [[8.1887767, 48.0498881], [8.1890112, 48.0497878], [8.1889146, 48.0496869], [8.1886801, 48.0497872], [8.1887767, 48.0498881]]};1
538;13;Dr.-Guttenberg-Straße;78120;Furtwangen im Schwarzwald;3;{'type': 'LineString', 'coordinates': [[8.1834511, 48.0496624], [8.1836067, 48.0496762], [8.1836248, 48.0495847], [8.1834692, 48.0495709], [8.183459, 48.0496224], [8.1834511, 48.0496624]]};1
539;21;Kohlheppstraße;78120;Furtwangen im Schwarzwald;3;{'type': 'LineString', 'coordinates': [[8.1925234, 48.0481434], [8.1925744, 48.0480679], [8.1924414, 48.0480278], [8.1924079, 48.0480775], [8.1923905, 48.0481033], [8.1924838, 48.0481314], [8.1925234, 48.0481434]]};1
540;9;Josef-Dorer-Straße;78120;Furtwangen im Schwarzwald;3;{'type': 'LineString', 'coordinates': [[8.1861197, 48.0479603], [8.1863111, 48.0479679], [8.1863211, 48.0478548], [8.1861297, 48.0478473], [8.1861197, 48.0479603]]};1
541;10;Zur Langeck;78120;Furtwangen im Schwarzwald;3;{'type': 'LineString', 'coordinates': [[8.1884034, 48.050368], [8.1885836, 48.0502775], [8.1884932, 48.0501971], [8.188313, 48.0502875], [8.1884034, 48.050368]]};1
542;3;Barbaraweg;78120;Furtwangen im Schwarzwald;3;{'type': 'LineString', 'coordinates': [[8.1880785, 48.0490039], [8.1883637, 48.0490139], [8.1883732, 48.0488924], [8.188088, 48.0488823], [8.1880785, 48.0490039]]};1
543;46;Josef-Dorer-Straße;78120;Furtwangen im Schwarzwald;3;{'type': 'LineString', 'coordinates': [[8.1847426, 48.0487706], [8.1847528, 48.0486685], [8.184584, 48.048661], [8.1845738, 48.048763], [8.1847426, 48.0487706]]};1
544;44;Berliner Straße;78120;Furtwangen im Schwarzwald;3;{'type': 'LineString', 'coordinates': [[8.1926451, 48.046972], [8.1928468, 48.0469626], [8.1928348, 48.046848], [8.1926331, 48.0468574], [8.1926451, 48.046972]]};1
545;10;Dr.-Guttenberg-Straße;78120;Furtwangen im Schwarzwald;3;{'type': 'LineString', 'coordinates': [[8.184539, 48.0499656], [8.1845542, 48.0498589], [8.1844485, 48.0498521], [8.1844501, 48.0498407], [8.184395, 48.049837], [8.184389, 48.0498811], [8.1844094, 48.0498823], [8.1844068, 48.0499013], [8.1843988, 48.0499566], [8.184539, 48.0499656]]};1
546;19;Berliner Straße;78120;Furtwangen im Schwarzwald;3;{'type': 'LineString', 'coordinates': [[8.1933346, 48.046671], [8.1933627, 48.0465361], [8.1929994, 48.0465022], [8.1929712, 48.0466371], [8.1933346, 48.046671]]};1
547;24;Stephan-Blattmann-Straße;78120;Furtwangen im Schwarzwald;3;{'type': 'LineString', 'coordinates': [[8.1880109, 48.0498065], [8.188176, 48.0498091], [8.1881797, 48.0497011], [8.1880146, 48.0496986], [8.1880109, 48.0498065]]};1
548;8;Berliner Straße;78120;Furtwangen im Schwarzwald;3;{'type': 'LineString', 'coordinates': [[8.191055, 48.0465016], [8.1909941, 48.0464326], [8.1907744, 48.0465194], [8.1908354, 48.0465884], [8.191055, 48.0465016]]};1
549;29;Kohlheppstraße;78120;Furtwangen im Schwarzwald;3;{'type': 'LineString', 'coordinates': [[8.1936348, 48.0476336], [8.1936582, 48.0475584], [8.1934732, 48.0475326], [8.1934497, 48.0476078], [8.1936348, 48.0476336]]};1
550;7;Zur Langeck;78120;Furtwangen im Schwarzwald;3;{'type': 'LineString', 'coordinates': [[8.1881823, 48.0501962], [8.1882642, 48.0501608], [8.1882918, 48.0501893], [8.1883888, 48.0501473], [8.1883544, 48.0501118], [8.1882529, 48.0500114], [8.1881557, 48.0500554], [8.1881884, 48.0500714], [8.188099, 48.05011], [8.1881823, 48.0501962]]};1
551;21;Josef-Dorer-Straße;78120;Furtwangen im Schwarzwald;3;{'type': 'LineString', 'coordinates': [[8.1840522, 48.0485398], [8.1840617, 48.0484187], [8.1839191, 48.0484137], [8.1839096, 48.0485348], [8.1840522, 48.0485398]]};1
552;48;Bregstraße;78120;Furtwangen im Schwarzwald;3;{'type': 'LineString', 'coordinates': [[8.1964687, 48.046051], [8.1965612, 48.0459908], [8.1964325, 48.0459024], [8.19634, 48.0459626], [8.1964687, 48.046051]]};1
553;2;Barbaraweg;78120;Furtwangen im Schwarzwald;3;{'type': 'LineString', 'coordinates': [[8.1874856, 48.0492998], [8.187752, 48.0492973], [8.1877496, 48.0491818], [8.1874832, 48.0491843], [8.1874856, 48.0492998]]};1
554;16;Josef-Dorer-Straße;78120;Furtwangen im Schwarzwald;3;{'type': 'LineString', 'coordinates': [[8.1863218, 48.0482688], [8.1863996, 48.048269], [8.1864006, 48.0481267], [8.1863229, 48.0481265], [8.1863226, 48.0481646], [8.1863218, 48.0482688]]};1
555;38;Kohlheppstraße;78120;Furtwangen im Schwarzwald;3;{'type': 'LineString', 'coordinates': [[8.1933064, 48.0474267], [8.1933393, 48.0472667], [8.1931262, 48.0472472], [8.1930934, 48.0474071], [8.1933064, 48.0474267]]};1
556;68;Bregstraße;78120;Furtwangen im Schwarzwald;3;{'type': 'LineString', 'coordinates': [[8.1938834, 48.0451972], [8.1939029, 48.0451085], [8.1937434, 48.0450928], [8.1937239, 48.0451815], [8.1938834, 48.0451972]]};1
557;67;Bregstraße;78120;Furtwangen im Schwarzwald;3;{'type': 'LineString', 'coordinates': [[8.1910391, 48.0443455], [8.1910503, 48.0442175], [8.1907292, 48.0442049], [8.1907179, 48.0443329], [8.1910391, 48.0443455]]};1
558;42;Josef-Dorer-Straße;78120;Furtwangen im Schwarzwald;3;{'type': 'LineString', 'coordinates': [[8.1851442, 48.0486137], [8.1852353, 48.0485862], [8.1851702, 48.0484899], [8.1851553, 48.0484679], [8.1850642, 48.0484954], [8.1851258, 48.0485865], [8.1851442, 48.0486137]]};1
559;34;Kohlheppstraße;78120;Furtwangen im Schwarzwald;3;{'type': 'LineString', 'coordinates': [[8.1925607, 48.0474204], [8.1927241, 48.0474236], [8.1927288, 48.047317], [8.1925654, 48.0473138], [8.1925607, 48.0474204]]};1
560;94;Bregstraße;78120;Furtwangen im Schwarzwald;3;{'type': 'LineString', 'coordinates': [[8.1902586, 48.0449701], [8.1904435, 48.0450629], [8.1905111, 48.0450027], [8.1903261, 48.0449099], [8.1902586, 48.0449701]]};1
561;58;Bregstraße;78120;Furtwangen im Schwarzwald;3;{'type': 'LineString', 'coordinates': [[8.194859, 48.0452536], [8.1948896, 48.0451548], [8.1947535, 48.045136], [8.194723, 48.0452348], [8.194859, 48.0452536]]};1
562;4;Dr.-Guttenberg-Straße;78120;Furtwangen im Schwarzwald;3;{'type': 'LineString', 'coordinates': [[8.1853509, 48.0501532], [8.1853692, 48.0500425], [8.1852849, 48.0500363], [8.1852832, 48.0500465], [8.1852023, 48.0500405], [8.185194, 48.0500837], [8.1851781, 48.0500823], [8.1851766, 48.0500901], [8.1851734, 48.0501099], [8.18519, 48.0501111], [8.1851851, 48.050141], [8.1853509, 48.0501532]]};1
563;13;Josef-Dorer-Straße;78120;Furtwangen im Schwarzwald;3;{'type': 'LineString', 'coordinates': [[8.1854256, 48.0481811], [8.1854362, 48.048058], [8.1852411, 48.0480505], [8.1852304, 48.0481736], [8.1854256, 48.0481811]]};1
564;56;Bregstraße;78120;Furtwangen im Schwarzwald;3;{'type': 'LineString', 'coordinates': [[8.1950466, 48.045285], [8.1950783, 48.0451941], [8.1949376, 48.0451721], [8.1949059, 48.045263], [8.1950466, 48.045285]]};1
565;3;Berliner Straße;78120;Furtwangen im Schwarzwald;3;{'type': 'LineString', 'coordinates': [[8.190218, 48.0474587], [8.190167, 48.0473827], [8.1900276, 48.0474244], [8.1900361, 48.0474372], [8.189989, 48.0474513], [8.1900027, 48.0474718], [8.1899931, 48.0474747], [8.1900217, 48.0475174], [8.190218, 48.0474587]]};1
566;1;Neue Heimat;78120;Furtwangen im Schwarzwald;3;{'type': 'LineString', 'coordinates': [[8.1912192, 48.0457647], [8.1914399, 48.0456762], [8.1913696, 48.0455978], [8.1911488, 48.0456863], [8.1912192, 48.0457647]]};1
567;44/1;Bregstraße;78120;Furtwangen im Schwarzwald;3;{'type': 'LineString', 'coordinates': [[8.196272, 48.0456239], [8.1963647, 48.0455419], [8.196335, 48.0455269], [8.1963247, 48.045536], [8.1962594, 48.045503], [8.1962568, 48.0455053], [8.1962088, 48.0455477], [8.1961769, 48.0455759], [8.196272, 48.0456239]]};1
568;58;Josef-Dorer-Straße;78120;Furtwangen im Schwarzwald;3;{'type': 'LineString', 'coordinates': [[8.1839096, 48.0491142], [8.1841685, 48.0491318], [8.1841862, 48.0490151], [8.1839273, 48.0489975], [8.1839096, 48.0491142]]};1
569;5;Berliner Straße;78120;Furtwangen im Schwarzwald;3;{'type': 'LineString', 'coordinates': [[8.1903602, 48.0474199], [8.1905527, 48.0473785], [8.1905075, 48.0472846], [8.1904047, 48.0473067], [8.1904108, 48.0473194], [8.1903211, 48.0473387], [8.1903602, 48.0474199]]};1
570;34;Stephan-Blattmann-Straße;78120;Furtwangen im Schwarzwald;3;{'type': 'LineString', 'coordinates': [[8.1859182, 48.050186], [8.1859581, 48.0501811], [8.1859607, 48.0501904], [8.1859953, 48.0501861], [8.1859925, 48.0501758], [8.1861028, 48.0501621], [8.1860777, 48.0500717], [8.1860265, 48.050078], [8.1860206, 48.0500566], [8.1859682, 48.0500631], [8.1859742, 48.0500848], [8.1858929, 48.0500948], [8.1859182, 48.050186]]};1
571;17;Kussenhofstraße;78120;Furtwangen im Schwarzwald;3;{'type': 'LineString', 'coordinates': [[8.1892755, 48.047406], [8.1895156, 48.047278], [8.189416, 48.0471945], [8.1891759, 48.0473224], [8.1892755, 48.047406]]};1
572;74;Bregstraße;78120;Furtwangen im Schwarzwald;3;{'type': 'LineString', 'coordinates': [[8.1932455, 48.0451752], [8.1932372, 48.0450624], [8.1930449, 48.0450687], [8.1930532, 48.0451815], [8.1932455, 48.0451752]]};1
573;46;Berliner Straße;78120;Furtwangen im Schwarzwald;3;{'type': 'LineString', 'coordinates': [[8.1926076, 48.0470911], [8.1925794, 48.0469751], [8.1923069, 48.0470047], [8.1923351, 48.0471207], [8.1926076, 48.0470911]]};1
574;11;Kussenhofstraße;78120;Furtwangen im Schwarzwald;3;{'type': 'LineString', 'coordinates': [[8.1905478, 48.0461844], [8.1904501, 48.0460948], [8.1902288, 48.0462026], [8.1903264, 48.0462922], [8.1905478, 48.0461844]]};1
575;12;Dr.-Guttenberg-Straße;78120;Furtwangen im Schwarzwald;3;{'type': 'LineString', 'coordinates': [[8.1842466, 48.0499541], [8.184259, 48.049874], [8.1842204, 48.0498713], [8.184113, 48.0498639], [8.184101, 48.0499412], [8.1841504, 48.0499446], [8.1841479, 48.0499607], [8.1842079, 48.0499648], [8.18421, 48.0499515], [8.1842466, 48.0499541]]};1
576;43;Josef-Dorer-Straße;78120;Furtwangen im Schwarzwald;3;{'type': 'LineString', 'coordinates': [[8.1845331, 48.0493385], [8.1846103, 48.0493449], [8.1846336, 48.0492197], [8.1845904, 48.0492161], [8.1845918, 48.0492085], [8.1845578, 48.0492057], [8.1845331, 48.0493385]]};1
577;9/1;Berliner Straße;78120;Furtwangen im Schwarzwald;3;{'type': 'LineString', 'coordinates': [[8.1927014, 48.0463386], [8.193088, 48.0463601], [8.1931068, 48.0462096], [8.1927201, 48.0461881], [8.1927014, 48.0463386]]};1
578;22;Stephan-Blattmann-Straße;78120;Furtwangen im Schwarzwald;3;{'type': 'LineString', 'coordinates': [[8.1883974, 48.0496485], [8.1886151, 48.0496109], [8.1885703, 48.0494953], [8.1883527, 48.0495329], [8.1883974, 48.0496485]]};1
579;22;Kussenhofstraße;78120;Furtwangen im Schwarzwald;3;{'type': 'LineString', 'coordinates': [[8.1884612, 48.0483767], [8.1886638, 48.0483216], [8.1886004, 48.0482174], [8.1883977, 48.0482726], [8.1884612, 48.0483767]]};1
580;9;Berliner Straße;78120;Furtwangen im Schwarzwald;3;{'type': 'LineString', 'coordinates': [[8.1915241, 48.0467243], [8.1920418, 48.0466328], [8.1919761, 48.0464667], [8.1914584, 48.0465581], [8.1915241, 48.0467243]]};1
581;62;Josef-Dorer-Straße;78120;Furtwangen im Schwarzwald;3;{'type': 'LineString', 'coordinates': [[8.1846334, 48.0490878], [8.184686, 48.0490905], [8.1846882, 48.0490709], [8.1847346, 48.0490733], [8.1847363, 48.0490581], [8.1847448, 48.048983], [8.184695, 48.0489805], [8.1846959, 48.0489723], [8.1846467, 48.0489698], [8.1846334, 48.0490878]]};1
582;5;Zur Langeck;78120;Furtwangen im Schwarzwald;3;{'type': 'LineString', 'coordinates': [[8.1884159, 48.0500655], [8.1886454, 48.0499709], [8.1885447, 48.0498616], [8.1883151, 48.0499562], [8.1884159, 48.0500655]]};1
583;30;Stephan-Blattmann-Straße;78120;Furtwangen im Schwarzwald;3;{'type': 'LineString', 'coordinates': [[8.1867069, 48.0500805], [8.1869808, 48.0500554], [8.1869582, 48.0499449], [8.1866842, 48.04997], [8.1867069, 48.0500805]]};1
584;23;Josef-Dorer-Straße;78120;Furtwangen im Schwarzwald;3;{'type': 'LineString', 'coordinates': [[8.1838045, 48.04859], [8.183814, 48.0484406], [8.1836377, 48.0484356], [8.1836282, 48.0485849], [8.1838045, 48.04859]]};1
585;21;Stephan-Blattmann-Straße;78120;Furtwangen im Schwarzwald;3;{'type': 'LineString', 'coordinates': [[8.1878346, 48.0494077], [8.1880935, 48.0494228], [8.1881065, 48.0493227], [8.1878476, 48.0493077], [8.1878346, 48.0494077]]};1
586;84;Bregstraße;78120;Furtwangen im Schwarzwald;3;{'type': 'LineString', 'coordinates': [[8.1919368, 48.0452599], [8.1918993, 48.0451627], [8.1917419, 48.0451898], [8.1917794, 48.0452871], [8.1919368, 48.0452599]]};1
587;4;Stephan-Blattmann-Straße;78120;Furtwangen im Schwarzwald;3;{'type': 'LineString', 'coordinates': [[8.1918609, 48.0475891], [8.1918218, 48.0475142], [8.1917283, 48.047536], [8.191723, 48.0475258], [8.1916292, 48.0475477], [8.1916736, 48.0476328], [8.1918609, 48.0475891]]};1
588;8;Stephan-Blattmann-Straße;78120;Furtwangen im Schwarzwald;3;{'type': 'LineString', 'coordinates': [[8.191366, 48.0479559], [8.1913133, 48.0478683], [8.1912533, 48.0478845], [8.1912291, 48.0478443], [8.1910839, 48.0478834], [8.1911608, 48.0480111], [8.191366, 48.0479559]]};1
589;16;Dr.-Guttenberg-Straße;78120;Furtwangen im Schwarzwald;3;{'type': 'LineString', 'coordinates': [[8.1836887, 48.0499487], [8.1837049, 48.0498639], [8.1836575, 48.0498598], [8.1836277, 48.0498573], [8.1835451, 48.0498503], [8.1835289, 48.0499351], [8.1836887, 48.0499487]]};1
590;44;Josef-Dorer-Straße;78120;Furtwangen im Schwarzwald;3;{'type': 'LineString', 'coordinates': [[8.1850187, 48.0486189], [8.1851258, 48.0485865], [8.1850642, 48.0484954], [8.1850551, 48.0484819], [8.184948, 48.0485142], [8.1850187, 48.0486189]]};1
591;13;Stephan-Blattmann-Straße;78120;Furtwangen im Schwarzwald;3;{'type': 'LineString', 'coordinates': [[8.1893937, 48.0485182], [8.1896438, 48.0484739], [8.1896122, 48.0483941], [8.1893621, 48.0484384], [8.1893937, 48.0485182]]};1
592;15;Josef-Dorer-Straße;78120;Furtwangen im Schwarzwald;3;{'type': 'LineString', 'coordinates': [[8.1851291, 48.0482639], [8.1851291, 48.0482262], [8.1851291, 48.0481736], [8.1851291, 48.0481234], [8.1849415, 48.0481234], [8.1849415, 48.0482639], [8.1851291, 48.0482639]]};1
593;4;Friedlandweg;78120;Furtwangen im Schwarzwald;3;{'type': 'LineString', 'coordinates': [[8.1949595, 48.0466696], [8.1950448, 48.0467553], [8.1951579, 48.046705], [8.1950725, 48.0466193], [8.1949595, 48.0466696]]};1
594;52;Josef-Dorer-Straße;78120;Furtwangen im Schwarzwald;3;{'type': 'LineString', 'coordinates': [[8.18381, 48.0487581], [8.18364, 48.0487502], [8.1836302, 48.0488573], [8.183717, 48.0488613], [8.1837196, 48.0488362], [8.1838029, 48.0488401], [8.18381, 48.0487581]]};1
595;26;Stephan-Blattmann-Straße;78120;Furtwangen im Schwarzwald;3;{'type': 'LineString', 'coordinates': [[8.1875381, 48.049937], [8.1877483, 48.0499295], [8.1877384, 48.0498057], [8.1875282, 48.0498132], [8.1875381, 48.049937]]};1
596;16;Stephan-Blattmann-Straße;78120;Furtwangen im Schwarzwald;3;{'type': 'LineString', 'coordinates': [[8.1899064, 48.0489217], [8.18989, 48.048892], [8.1898699, 48.0488964], [8.1898284, 48.0488174], [8.1897591, 48.0488358], [8.1897595, 48.0488504], [8.1896642, 48.048874], [8.1897024, 48.0489457], [8.1897836, 48.0489253], [8.1898093, 48.0489456], [8.1899064, 48.0489217]]};1
597;1;Stephan-Blattmann-Straße;78120;Furtwangen im Schwarzwald;3;{'type': 'LineString', 'coordinates': [[8.1912642, 48.0473508], [8.1915006, 48.0472655], [8.1914131, 48.0471571], [8.1911767, 48.0472424], [8.1912642, 48.0473508]]};1
598;10;Stephan-Blattmann-Straße;78120;Furtwangen im Schwarzwald;3;{'type': 'LineString', 'coordinates': [[8.1907145, 48.0483504], [8.1906903, 48.0482497], [8.1904977, 48.0482703], [8.1905176, 48.0483534], [8.1905565, 48.0483493], [8.1905607, 48.0483669], [8.1907145, 48.0483504]]};1
599;8;Zum Döbele;78120;Furtwangen im Schwarzwald;3;{'type': 'LineString', 'coordinates': [[8.1974181, 48.0448121], [8.1974856, 48.0447143], [8.1973046, 48.0446584], [8.197237, 48.0447562], [8.1974181, 48.0448121]]};1
600;38;Berliner Straße;78120;Furtwangen im Schwarzwald;3;{'type': 'LineString', 'coordinates': [[8.1939079, 48.0473958], [8.1940676, 48.0474338], [8.1941071, 48.0473583], [8.1941353, 48.0473085], [8.1940052, 48.0472775], [8.1939638, 48.0473552], [8.1939334, 48.047348], [8.1939079, 48.0473958]]};1
601;9;Stephan-Blattmann-Straße;78120;Furtwangen im Schwarzwald;3;{'type': 'LineString', 'coordinates': [[8.1900494, 48.0480506], [8.1902284, 48.0480111], [8.1902078, 48.0479694], [8.1901862, 48.0479742], [8.1901714, 48.0479442], [8.190014, 48.0479789], [8.1900494, 48.0480506]]};1
602;3;Carl-Diem-Straße;78120;Furtwangen im Schwarzwald;3;{'type': 'LineString', 'coordinates': [[8.1970092, 48.0452091], [8.1970877, 48.0452802], [8.1972801, 48.0451852], [8.1972016, 48.0451141], [8.1971224, 48.045158], [8.1971167, 48.0451531], [8.1970092, 48.0452091]]};1
603;15;Friedlandweg;78120;Furtwangen im Schwarzwald;3;{'type': 'LineString', 'coordinates': [[8.1946189, 48.0461881], [8.1947828, 48.0462394], [8.1948366, 48.0461625], [8.1947343, 48.0461304], [8.1947273, 48.0461404], [8.1946657, 48.0461212], [8.1946189, 48.0461881]]};1
604;27;Stephan-Blattmann-Straße;78120;Furtwangen im Schwarzwald;3;{'type': 'LineString', 'coordinates': [[8.1866826, 48.0496385], [8.1866875, 48.0497563], [8.1868226, 48.0497538], [8.1868177, 48.049636], [8.1866826, 48.0496385]]};1
605;5;Zum Döbele;78120;Furtwangen im Schwarzwald;3;{'type': 'LineString', 'coordinates': [[8.1976395, 48.045083], [8.1977814, 48.0451961], [8.1978977, 48.0451309], [8.1977558, 48.0450178], [8.1976395, 48.045083]]};1
606;16;Berliner Straße;78120;Furtwangen im Schwarzwald;3;{'type': 'LineString', 'coordinates': [[8.192298, 48.0460438], [8.1923027, 48.0459121], [8.1920688, 48.0459084], [8.1920641, 48.0460401], [8.192298, 48.0460438]]};1
608;6;Am Staatsberg;78120;Furtwangen im Schwarzwald;3;{'type': 'LineString', 'coordinates': [[8.186299, 48.0432042], [8.1865237, 48.0432043], [8.186524, 48.0429598], [8.1862994, 48.0429597], [8.186299, 48.0432042]]};1
610;5/1;Am Staatsberg;78120;Furtwangen im Schwarzwald;3;{'type': 'LineString', 'coordinates': [[8.1840207, 48.0444619], [8.184202, 48.0444706], [8.1842137, 48.0443608], [8.1840324, 48.0443522], [8.1840207, 48.0444619]]};1
611;4;Salomon-Siedle-Straße;78120;Furtwangen im Schwarzwald;3;{'type': 'LineString', 'coordinates': [[8.1924302, 48.0439271], [8.1926532, 48.0438298], [8.1925984, 48.0437737], [8.1924245, 48.0438496], [8.1924038, 48.0438284], [8.1923547, 48.0438499], [8.1924302, 48.0439271]]};1
612;8;Am Staatsberg;78120;Furtwangen im Schwarzwald;3;{'type': 'LineString', 'coordinates': [[8.1871249, 48.0430164], [8.1873183, 48.0430517], [8.1873859, 48.0428862], [8.1871924, 48.0428509], [8.1871249, 48.0430164]]};1
615;4;Am Staatsberg;78120;Furtwangen im Schwarzwald;3;{'type': 'LineString', 'coordinates': [[8.1783369, 48.0441135], [8.178295, 48.0442786], [8.178295, 48.0442846], [8.1785802, 48.0443162], [8.1786223, 48.0441467], [8.1784187, 48.0441241], [8.1784325, 48.0440685], [8.178351, 48.0440595], [8.1783369, 48.0441135]]};1
617;6/1;Am Staatsberg;78120;Furtwangen im Schwarzwald;3;{'type': 'LineString', 'coordinates': [[8.186618, 48.042894], [8.1868526, 48.0429018], [8.1868625, 48.0427689], [8.186628, 48.042761], [8.186618, 48.042894]]};1
633;21;Bismarckstraße;78120;Furtwangen im Schwarzwald;3;{'type': 'LineString', 'coordinates': [[8.2029899, 48.0537303], [8.2030607, 48.0536361], [8.2032939, 48.0537145], [8.2032231, 48.0538087], [8.2029899, 48.0537303]]};1
636;8;Jahnstraße;78120;Furtwangen im Schwarzwald;3;{'type': 'LineString', 'coordinates': [[8.2009361, 48.0480347], [8.2009814, 48.0478586], [8.2015278, 48.0479215], [8.2014825, 48.0480976], [8.2009361, 48.0480347]]};1
644;47;Josef-Dorer-Straße;78120;Furtwangen im Schwarzwald;3;{'type': 'LineString', 'coordinates': [[8.1849637, 48.0493365], [8.1850674, 48.0493429], [8.1850692, 48.0493301], [8.1850853, 48.0492134], [8.1850066, 48.0492085], [8.1850001, 48.0492562], [8.184975, 48.0492546], [8.1849637, 48.0493365]]};1
645;9;Am Staatsberg;78120;Furtwangen im Schwarzwald;3;{'type': 'LineString', 'coordinates': [[8.1875309, 48.0430476], [8.1876747, 48.0430756], [8.187829, 48.0431057], [8.1878711, 48.0430091], [8.1875731, 48.042951], [8.1875309, 48.0430476]]};1
646;17;Josef-Dorer-Straße;78120;Furtwangen im Schwarzwald;3;{'type': 'LineString', 'coordinates': [[8.1846163, 48.0483479], [8.1847744, 48.0483675], [8.1847993, 48.0482774], [8.1846413, 48.0482578], [8.1846163, 48.0483479]]};1
647;3;Salomon-Siedle-Straße;78120;Furtwangen im Schwarzwald;3;{'type': 'LineString', 'coordinates': [[8.1951168, 48.044422], [8.195265, 48.044468], [8.1953002, 48.0444174], [8.195152, 48.0443714], [8.1951168, 48.044422]]};1
648;14;Salomon-Siedle-Straße;78120;Furtwangen im Schwarzwald;3;{'type': 'LineString', 'coordinates': [[8.1951147, 48.0441067], [8.1952726, 48.0441714], [8.195292, 48.0441492], [8.1956204, 48.0437739], [8.1956843, 48.043701], [8.1955359, 48.0436427], [8.1951147, 48.0441067]]};1
649;9;Zum Döbele;78120;Furtwangen im Schwarzwald;3;{'type': 'LineString', 'coordinates': [[8.197135, 48.0446025], [8.1969926, 48.0445112], [8.1969185, 48.0445627], [8.1970542, 48.0446582], [8.1970601, 48.0446541], [8.1970984, 48.0446276], [8.197135, 48.0446025]]};1
650;43;Kussenhofstraße;78120;Furtwangen im Schwarzwald;3;{'type': 'LineString', 'coordinates': [[8.1857121, 48.0498944], [8.185856, 48.0499081], [8.1858838, 48.0497781], [8.1857398, 48.0497643], [8.1857121, 48.0498944]]};1
651;42/1;Bregstraße;78120;Furtwangen im Schwarzwald;3;{'type': 'LineString', 'coordinates': [[8.1968527, 48.0462738], [8.1969921, 48.0462189], [8.1969274, 48.0461508], [8.1969155, 48.0461331], [8.1969102, 48.0461228], [8.1968949, 48.0461168], [8.1968702, 48.0461208], [8.1968592, 48.0461329], [8.1968644, 48.0461584], [8.1967788, 48.0461913], [8.1968527, 48.0462738]]};1
653;12;Carl-Diem-Straße;78120;Furtwangen im Schwarzwald;3;{'type': 'LineString', 'coordinates': [[8.1943633, 48.0448733], [8.1945129, 48.0449073], [8.1945401, 48.0448538], [8.1943905, 48.0448198], [8.1943633, 48.0448733]]};1
654;3;Dr.-Guttenberg-Straße;78120;Furtwangen im Schwarzwald;3;{'type': 'LineString', 'coordinates': [[8.1851525, 48.0497581], [8.1853097, 48.0498008], [8.1853599, 48.0497184], [8.1852027, 48.0496756], [8.1851525, 48.0497581]]};1
655;7;Am Staatsberg;78120;Furtwangen im Schwarzwald;3;{'type': 'LineString', 'coordinates': [[8.1854645, 48.043641], [8.1856301, 48.043641], [8.1856301, 48.0435829], [8.1854645, 48.0435829], [8.1854645, 48.043641]]};1
656;42;Bregstraße;78120;Furtwangen im Schwarzwald;3;{'type': 'LineString', 'coordinates': [[8.1970516, 48.0464649], [8.1972006, 48.0464206], [8.1971267, 48.0463094], [8.1969777, 48.0463537], [8.1970516, 48.0464649]]};1
657;25;Bregstraße;78120;Furtwangen im Schwarzwald;3;{'type': 'LineString', 'coordinates': [[8.1984454, 48.0471371], [8.1988611, 48.0474267], [8.1990191, 48.047323], [8.1990894, 48.0471449], [8.1991274, 48.0471175], [8.1988406, 48.0469179], [8.1990455, 48.0468005], [8.1989899, 48.0467555], [8.1991333, 48.0466694], [8.1990367, 48.0465931], [8.1984835, 48.0469453], [8.1985889, 48.0470314], [8.1984454, 48.0471371]]};1
658;20;Bahnhofstraße;78120;Furtwangen im Schwarzwald;3;{'type': 'LineString', 'coordinates': [[8.2025261, 48.0475454], [8.2027427, 48.0476648], [8.2027661, 48.0476472], [8.2029651, 48.0477157], [8.203009, 48.0476706], [8.2031466, 48.0477176], [8.2031261, 48.0477411], [8.2032901, 48.0477988], [8.2033097, 48.0477761], [8.2040282, 48.0480354], [8.2042347, 48.0477764], [8.2031895, 48.0474001], [8.202757, 48.0473198], [8.2026701, 48.0474236], [8.2026307, 48.0474125], [8.2025261, 48.0475454]]};1
659;33/1;Bregstraße;78120;Furtwangen im Schwarzwald;3;{'type': 'LineString', 'coordinates': [[8.1985157, 48.0464151], [8.1986435, 48.0463631], [8.1985615, 48.046273], [8.1984337, 48.046325], [8.1985157, 48.0464151]]};1
660;12;Jahnstraße;78120;Furtwangen im Schwarzwald;3;{'type': 'LineString', 'coordinates': [[8.2002509, 48.0475837], [8.2004378, 48.0476658], [8.2005457, 48.047556], [8.2003588, 48.0474739], [8.2002509, 48.0475837]]};1
663;23;Bregstraße;78120;Furtwangen im Schwarzwald;3;{'type': 'LineString', 'coordinates': [[8.1986975, 48.0474032], [8.1986253, 48.0473426], [8.1985898, 48.0473614], [8.1984885, 48.0472763], [8.1984996, 48.0472704], [8.1984182, 48.0472021], [8.1983608, 48.0472327], [8.1983293, 48.0472062], [8.1982777, 48.0472337], [8.1983129, 48.0472632], [8.1982965, 48.0472719], [8.1985478, 48.0474829], [8.1986975, 48.0474032]]};1
665;37;Bregstraße;78120;Furtwangen im Schwarzwald;3;{'type': 'LineString', 'coordinates': [[8.1976581, 48.0465364], [8.1977758, 48.0464919], [8.1976997, 48.0464019], [8.197582, 48.0464464], [8.1976581, 48.0465364]]};1
666;4;Jahnstraße;78120;Furtwangen im Schwarzwald;3;{'type': 'LineString', 'coordinates': [[8.2024207, 48.0484902], [8.2026401, 48.0486258], [8.2028034, 48.0485077], [8.2025841, 48.0483721], [8.2024207, 48.0484902]]};1
667;5;Bregstraße;78120;Furtwangen im Schwarzwald;3;{'type': 'LineString', 'coordinates': [[8.2022549, 48.0487809], [8.2023687, 48.0488307], [8.202444, 48.0487538], [8.2023301, 48.048704], [8.2022549, 48.0487809]]};1
668;9;Bregstraße;78120;Furtwangen im Schwarzwald;3;{'type': 'LineString', 'coordinates': [[8.2009629, 48.0485115], [8.2016041, 48.0485969], [8.2016895, 48.0483105], [8.2011609, 48.0482401], [8.2011771, 48.0481858], [8.2010644, 48.0481708], [8.2009629, 48.0485115]]};1
669;18;Jahnstraße;78120;Furtwangen im Schwarzwald;3;{'type': 'LineString', 'coordinates': [[8.1998176, 48.0477117], [8.1999991, 48.0475122], [8.1998789, 48.0474633], [8.1996974, 48.0476629], [8.1998176, 48.0477117]]};1
670;12a;Jahnstraße;78120;Furtwangen im Schwarzwald;3;{'type': 'LineString', 'coordinates': [[8.2000484, 48.0472804], [8.2000051, 48.0473102], [8.2001046, 48.0473748], [8.2001479, 48.047345], [8.2000484, 48.0472804]]};1
671;29;Bregstraße;78120;Furtwangen im Schwarzwald;3;{'type': 'LineString', 'coordinates': [[8.197973, 48.0468979], [8.1980921, 48.0468506], [8.1979721, 48.0467156], [8.197853, 48.0467629], [8.197973, 48.0468979]]};1
672;9;Jahnstraße;78120;Furtwangen im Schwarzwald;3;{'type': 'LineString', 'coordinates': [[8.201477, 48.0477478], [8.201679, 48.0474973], [8.2015638, 48.0474558], [8.2013619, 48.0477063], [8.201477, 48.0477478]]};1
673;31;Bregstraße;78120;Furtwangen im Schwarzwald;3;{'type': 'LineString', 'coordinates': [[8.1983658, 48.0467024], [8.1985151, 48.04663], [8.1984504, 48.0465703], [8.1983011, 48.0466427], [8.1983658, 48.0467024]]};1
677;33;Bregstraße;78120;Furtwangen im Schwarzwald;3;{'type': 'LineString', 'coordinates': [[8.1979859, 48.0465148], [8.1981586, 48.0464444], [8.198099, 48.0463791], [8.1979263, 48.0464495], [8.1979859, 48.0465148]]};1
678;21;Bregstraße;78120;Furtwangen im Schwarzwald;3;{'type': 'LineString', 'coordinates': [[8.1987753, 48.0475885], [8.1988737, 48.0475356], [8.1988267, 48.0474966], [8.1987283, 48.0475495], [8.1987753, 48.0475885]]};1
679;3;Bregstraße;78120;Furtwangen im Schwarzwald;3;{'type': 'LineString', 'coordinates': [[8.2023794, 48.0488347], [8.2025905, 48.0489468], [8.2027148, 48.0488421], [8.2025037, 48.0487301], [8.2023794, 48.0488347]]};1
680;27;Bregstraße;78120;Furtwangen im Schwarzwald;3;{'type': 'LineString', 'coordinates': [[8.1979859, 48.0469571], [8.1980684, 48.0470371], [8.1982001, 48.0469764], [8.1981176, 48.0468964], [8.1979859, 48.0469571]]};1
681;1;Weibert-Mahler-Straße;78120;Furtwangen im Schwarzwald;3;{'type': 'LineString', 'coordinates': [[8.2017581, 48.0486331], [8.2019123, 48.0486779], [8.2019762, 48.0485797], [8.201822, 48.0485349], [8.2017581, 48.0486331]]};1
682;15b;Bregstraße;78120;Furtwangen im Schwarzwald;3;{'type': 'LineString', 'coordinates': [[8.1994377, 48.0477554], [8.1996016, 48.0478474], [8.1996822, 48.0477831], [8.1995183, 48.0476912], [8.1994377, 48.0477554]]};1
683;5;Jahnstraße;78120;Furtwangen im Schwarzwald;3;{'type': 'LineString', 'coordinates': [[8.2023088, 48.0479904], [8.2025717, 48.0480569], [8.2026303, 48.0479531], [8.2023675, 48.0478867], [8.2023088, 48.0479904]]};1
684;31a;Bregstraße;78120;Furtwangen im Schwarzwald;3;{'type': 'LineString', 'coordinates': [[8.198463, 48.0468729], [8.1981879, 48.0466283], [8.1980948, 48.0466752], [8.1982678, 48.0468289], [8.1982216, 48.0468522], [8.1983237, 48.046943], [8.198463, 48.0468729]]};1
687;35;Bregstraße;78120;Furtwangen im Schwarzwald;3;{'type': 'LineString', 'coordinates': [[8.1976194, 48.0460444], [8.1979841, 48.046168], [8.1979855, 48.0461968], [8.1978916, 48.046243], [8.1980007, 48.0463381], [8.1983298, 48.0461591], [8.1978038, 48.0459727], [8.1978237, 48.0459501], [8.1977206, 48.0459302], [8.1976194, 48.0460444]]};1
920;1;Werderstraße;78120;Furtwangen im Schwarzwald;3;{'type': 'LineString', 'coordinates': [[8.2029989, 48.0557907], [8.2031129, 48.0558001], [8.2031307, 48.0557163], [8.2030166, 48.055707], [8.2029989, 48.0557907]]};1
926;56;Bismarckstraße;78120;Furtwangen im Schwarzwald;3;{'type': 'LineString', 'coordinates': [[8.2029385, 48.05598], [8.2031066, 48.0559691], [8.2030957, 48.0558943], [8.2029277, 48.0559052], [8.2029385, 48.05598]]};1
954;5;Werderstraße;78120;Furtwangen im Schwarzwald;3;{'type': 'LineString', 'coordinates': [[8.2033008, 48.055821], [8.2033399, 48.0558257], [8.2033444, 48.0558093], [8.2034368, 48.0558205], [8.203456, 48.0557498], [8.2033245, 48.0557338], [8.2033008, 48.055821]]};1
968;41;Bismarckstraße;78120;Furtwangen im Schwarzwald;3;{'type': 'LineString', 'coordinates': [[8.2025495, 48.0558955], [8.2025345, 48.0559912], [8.2024913, 48.0559885], [8.2024856, 48.0560291], [8.2025701, 48.0560344], [8.2025759, 48.0559938], [8.2026765, 48.0560008], [8.2026914, 48.0559054], [8.2025495, 48.0558955]]};1
974;2;Kirnerstraße;78120;Furtwangen im Schwarzwald;3;{'type': 'LineString', 'coordinates': [[8.203056, 48.0545253], [8.2034273, 48.0545595], [8.20345, 48.0544495], [8.2030787, 48.0544153], [8.203056, 48.0545253]]};1
982;32;Bismarckstraße;78120;Furtwangen im Schwarzwald;3;{'type': 'LineString', 'coordinates': [[8.203193, 48.0540555], [8.2033241, 48.0540861], [8.2034083, 48.0539251], [8.2032771, 48.0538944], [8.203193, 48.0540555]]};1
985;54;Bismarckstraße;78120;Furtwangen im Schwarzwald;3;{'type': 'LineString', 'coordinates': [[8.2031487, 48.0556152], [8.2031675, 48.0555162], [8.203028, 48.0555044], [8.2030092, 48.0556033], [8.2031487, 48.0556152]]};1
989;44;Bismarckstraße;78120;Furtwangen im Schwarzwald;3;{'type': 'LineString', 'coordinates': [[8.2032319, 48.0551461], [8.2033044, 48.0550368], [8.2031516, 48.054993], [8.203079, 48.0551024], [8.2032319, 48.0551461]]};1
991;25;Bismarckstraße;78120;Furtwangen im Schwarzwald;3;{'type': 'LineString', 'coordinates': [[8.2027177, 48.0543687], [8.2028804, 48.0543901], [8.2029216, 48.05425], [8.202759, 48.0542286], [8.2027177, 48.0543687]]};1
997;33;Bismarckstraße;78120;Furtwangen im Schwarzwald;3;{'type': 'LineString', 'coordinates': [[8.2028683, 48.0550191], [8.2028799, 48.0549372], [8.2027629, 48.0549297], [8.2027513, 48.0550116], [8.2028683, 48.0550191]]};1
999;27;Bismarckstraße;78120;Furtwangen im Schwarzwald;3;{'type': 'LineString', 'coordinates': [[8.2027738, 48.0546412], [8.2028002, 48.0545022], [8.2026439, 48.0544889], [8.2026175, 48.0546279], [8.2027738, 48.0546412]]};1
1003;42;Bismarckstraße;78120;Furtwangen im Schwarzwald;3;{'type': 'LineString', 'coordinates': [[8.2030258, 48.054828], [8.2033502, 48.0548639], [8.2033718, 48.0547767], [8.2031715, 48.0547545], [8.203201, 48.0546353], [8.2030769, 48.0546216], [8.2030258, 48.054828]]};1
1004;35;Bismarckstraße;78120;Furtwangen im Schwarzwald;3;{'type': 'LineString', 'coordinates': [[8.2028274, 48.0552055], [8.2028391, 48.0550939], [8.2026234, 48.0550838], [8.2026161, 48.0551538], [8.2026906, 48.0551573], [8.2026863, 48.0551989], [8.2028274, 48.0552055]]};1
1044;20;Bregstraße;78120;Furtwangen im Schwarzwald;3;{'type': 'LineString', 'coordinates': [[8.1991535, 48.0489392], [8.1998252, 48.049103], [8.199883, 48.0489778], [8.1997977, 48.0489521], [8.1999519, 48.0486668], [8.2001363, 48.0487184], [8.2002657, 48.0487405], [8.200296, 48.0486006], [8.2000234, 48.0485307], [8.199806, 48.0484552], [8.1997151, 48.0484111], [8.199594, 48.0485399], [8.1997316, 48.0485914], [8.199894, 48.0486484], [8.199817, 48.0487662], [8.1993297, 48.0486448], [8.1992334, 48.0488057], [8.1992288, 48.0488133], [8.1991535, 48.0489392]]};1
1045;24;Ganterhofstraße;78120;Furtwangen im Schwarzwald;3;{'type': 'LineString', 'coordinates': [[8.1879692, 48.0551394], [8.1882106, 48.0551485], [8.1882196, 48.0550415], [8.1879782, 48.0550324], [8.1879692, 48.0551394]]};1
1046;22;Gartenstraße;78120;Furtwangen im Schwarzwald;3;{'type': 'LineString', 'coordinates': [[8.2025238, 48.0498999], [8.2026421, 48.0499054], [8.2026493, 48.0498362], [8.202531, 48.0498307], [8.2025238, 48.0498999]]};1
1047;9;Buchenweg;78120;Furtwangen im Schwarzwald;3;{'type': 'LineString', 'coordinates': [[8.1894739, 48.0552891], [8.1896179, 48.0552917], [8.1896231, 48.0551627], [8.1894791, 48.0551601], [8.1894739, 48.0552891]]};1
1048;3;Buchenweg;78120;Furtwangen im Schwarzwald;3;{'type': 'LineString', 'coordinates': [[8.1885532, 48.0552774], [8.1887575, 48.055263], [8.1887426, 48.0551677], [8.1885382, 48.055182], [8.1885532, 48.0552774]]};1
1050;39;Albert-Schweitzer-Straße;78120;Furtwangen im Schwarzwald;3;{'type': 'LineString', 'coordinates': [[8.1992898, 48.0505783], [8.1991624, 48.0505436], [8.199117, 48.0506167], [8.1992021, 48.0506365], [8.1991846, 48.0506551], [8.1992173, 48.0506637], [8.1992376, 48.050669], [8.1992315, 48.0506793], [8.1993348, 48.0507098], [8.1993583, 48.0507012], [8.1993703, 48.050686], [8.1993498, 48.0506805], [8.1993656, 48.0506542], [8.1993858, 48.0506232], [8.1993489, 48.0506129], [8.1993737, 48.0505704], [8.1993053, 48.0505529], [8.1992898, 48.0505783]]};1
1051;5/1;Hans-Thoma-Straße;78120;Furtwangen im Schwarzwald;3;{'type': 'LineString', 'coordinates': [[8.2009196, 48.0503134], [8.2009939, 48.0501846], [8.2008486, 48.0501471], [8.200781, 48.0502427], [8.2009196, 48.0503134]]};1
1052;18;Hans-Frank-Straße;78120;Furtwangen im Schwarzwald;3;{'type': 'LineString', 'coordinates': [[8.1969236, 48.0533751], [8.1970606, 48.0534094], [8.1971002, 48.0533387], [8.1970638, 48.0533295], [8.1970808, 48.0532992], [8.1970289, 48.0532862], [8.1970117, 48.0533169], [8.196963, 48.0533047], [8.1969236, 48.0533751]]};1
1053;4;Ahornweg;78120;Furtwangen im Schwarzwald;3;{'type': 'LineString', 'coordinates': [[8.1916656, 48.0537863], [8.1919304, 48.0537902], [8.1919332, 48.0537043], [8.1916685, 48.0537004], [8.1916656, 48.0537863]]};1
1054;2a;Raben;78120;Furtwangen im Schwarzwald;3;{'type': 'LineString', 'coordinates': [[8.1932183, 48.0535698], [8.1933438, 48.0536237], [8.1934337, 48.05353], [8.1933082, 48.0534762], [8.1932183, 48.0535698]]};1
1055;18;Eigenheimweg;78120;Furtwangen im Schwarzwald;3;{'type': 'LineString', 'coordinates': [[8.2011306, 48.0510738], [8.2011903, 48.0510381], [8.2011057, 48.0509737], [8.2010447, 48.0510124], [8.2011306, 48.0510738]]};1
1056;5;Hansjakobstraße;78120;Furtwangen im Schwarzwald;3;{'type': 'LineString', 'coordinates': [[8.2033, 48.0508586], [8.2034019, 48.0508862], [8.2034378, 48.050827], [8.2033359, 48.0507994], [8.2033, 48.0508586]]};1
1057;5;Hans-Thoma-Straße;78120;Furtwangen im Schwarzwald;3;{'type': 'LineString', 'coordinates': [[8.2007527, 48.0506942], [8.2007898, 48.0507204], [8.2009784, 48.0506002], [8.2008778, 48.050528], [8.2008279, 48.0505593], [8.2008368, 48.0505656], [8.2007619, 48.050613], [8.2007515, 48.0506057], [8.2006861, 48.0506471], [8.2007527, 48.0506942]]};1
1058;15;Bühlhofstraße;78120;Furtwangen im Schwarzwald;3;{'type': 'LineString', 'coordinates': [[8.2010311, 48.0500727], [8.2011009, 48.0499282], [8.2009433, 48.0498942], [8.2008736, 48.0500387], [8.2010311, 48.0500727]]};1
1059;7;Ahornweg;78120;Furtwangen im Schwarzwald;3;{'type': 'LineString', 'coordinates': [[8.1915216, 48.0539867], [8.1917065, 48.0539932], [8.1917142, 48.0538961], [8.1915292, 48.0538896], [8.1915216, 48.0539867]]};1
1060;7;Birkenweg;78120;Furtwangen im Schwarzwald;3;{'type': 'LineString', 'coordinates': [[8.1903887, 48.054701], [8.1905853, 48.0546984], [8.1905821, 48.0545904], [8.1903855, 48.054593], [8.1903887, 48.054701]]};1
1061;5b;Friedhofweg;78120;Furtwangen im Schwarzwald;3;{'type': 'LineString', 'coordinates': [[8.2011053, 48.0529977], [8.201242, 48.0529509], [8.2011478, 48.052828], [8.2010892, 48.0528481], [8.2010475, 48.0527938], [8.2009695, 48.0528205], [8.2011053, 48.0529977]]};1
1062;10;Buchenweg;78120;Furtwangen im Schwarzwald;3;{'type': 'LineString', 'coordinates': [[8.1900542, 48.0549188], [8.1902196, 48.0549214], [8.1902235, 48.054812], [8.190058, 48.0548094], [8.1900542, 48.0549188]]};1
1064;4;Birkenweg;78120;Furtwangen im Schwarzwald;3;{'type': 'LineString', 'coordinates': [[8.1901668, 48.0543302], [8.1903323, 48.054325], [8.190325, 48.0542221], [8.1901596, 48.0542273], [8.1901668, 48.0543302]]};1
1065;30;Ganterhofstraße;78120;Furtwangen im Schwarzwald;3;{'type': 'LineString', 'coordinates': [[8.1875838, 48.05525], [8.1877745, 48.0552526], [8.1877775, 48.0551554], [8.1875868, 48.0551528], [8.1875838, 48.05525]]};1
1066;8;Buchenweg;78120;Furtwangen im Schwarzwald;3;{'type': 'LineString', 'coordinates': [[8.1897094, 48.054835], [8.1899391, 48.0548376], [8.1899416, 48.0547374], [8.1897119, 48.0547348], [8.1897094, 48.054835]]};1
1067;4;Buchenweg;78120;Furtwangen im Schwarzwald;3;{'type': 'LineString', 'coordinates': [[8.1890943, 48.0548662], [8.1893045, 48.0548688], [8.189307, 48.0547779], [8.1890968, 48.0547753], [8.1890943, 48.0548662]]};1
1068;1;Buchenweg;78120;Furtwangen im Schwarzwald;3;{'type': 'LineString', 'coordinates': [[8.1882904, 48.0553255], [8.1885064, 48.0553242], [8.1885052, 48.0552356], [8.1882892, 48.0552369], [8.1882904, 48.0553255]]};1
1069;34;Ganterhofstraße;78120;Furtwangen im Schwarzwald;3;{'type': 'LineString', 'coordinates': [[8.1869336, 48.0555181], [8.187177, 48.0555129], [8.1871713, 48.0553949], [8.186928, 48.0554001], [8.1869336, 48.0555181]]};1
1070;5;Buchenweg;78120;Furtwangen im Schwarzwald;3;{'type': 'LineString', 'coordinates': [[8.1888471, 48.0552474], [8.1890534, 48.0552487], [8.189055, 48.055138], [8.1888486, 48.0551367], [8.1888471, 48.0552474]]};1
1071;20;Gartenstraße;78120;Furtwangen im Schwarzwald;3;{'type': 'LineString', 'coordinates': [[8.2026421, 48.0499054], [8.2027715, 48.0499146], [8.2027827, 48.0498445], [8.2026533, 48.0498353], [8.2026421, 48.0499054]]};1
1072;24;Wilhelmstraße;78120;Furtwangen im Schwarzwald;3;{'type': 'LineString', 'coordinates': [[8.2031024, 48.049606], [8.2033114, 48.0496611], [8.203374, 48.049555], [8.203165, 48.0494999], [8.2031024, 48.049606]]};1
1073;40;Eigenheimweg;78120;Furtwangen im Schwarzwald;3;{'type': 'LineString', 'coordinates': [[8.2032092, 48.0503397], [8.2033771, 48.0503986], [8.2034325, 48.050328], [8.2032645, 48.0502692], [8.2032092, 48.0503397]]};1
1074;14;Gartenstraße;78120;Furtwangen im Schwarzwald;3;{'type': 'LineString', 'coordinates': [[8.2032503, 48.0499747], [8.2031065, 48.0499361], [8.2030731, 48.049992], [8.2032168, 48.0500305], [8.2032503, 48.0499747]]};1
1075;18;Hans-Thoma-Straße;78120;Furtwangen im Schwarzwald;3;{'type': 'LineString', 'coordinates': [[8.2009208, 48.050904], [8.2009617, 48.0509267], [8.2010443, 48.0508605], [8.2010034, 48.0508377], [8.2009208, 48.050904]]};1
1076;13;Eigenheimweg;78120;Furtwangen im Schwarzwald;3;{'type': 'LineString', 'coordinates': [[8.2023633, 48.0506169], [8.2024179, 48.0506738], [8.2026711, 48.0505652], [8.2026166, 48.0505083], [8.2023633, 48.0506169]]};1
1077;28;Albert-Schweitzer-Straße;78120;Furtwangen im Schwarzwald;3;{'type': 'LineString', 'coordinates': [[8.1996283, 48.0509256], [8.199627, 48.0509172], [8.19962, 48.0509137], [8.1995256, 48.0509417], [8.1995398, 48.050959], [8.1995222, 48.05099], [8.1995684, 48.0510017], [8.1995714, 48.0509964], [8.1996462, 48.0510154], [8.1996857, 48.0509459], [8.1996283, 48.0509256]]};1
1078;38;Eigenheimweg;78120;Furtwangen im Schwarzwald;3;{'type': 'LineString', 'coordinates': [[8.2026331, 48.0502452], [8.2027404, 48.0503022], [8.2028255, 48.0502307], [8.2027182, 48.0501736], [8.2026331, 48.0502452]]};1
1080;16;Hans-Frank-Straße;78120;Furtwangen im Schwarzwald;3;{'type': 'LineString', 'coordinates': [[8.1967175, 48.0532754], [8.1967509, 48.0532607], [8.1968449, 48.0532181], [8.1967258, 48.0531], [8.1965982, 48.0531571], [8.1966314, 48.0531902], [8.1965985, 48.053205], [8.1966323, 48.0532387], [8.1966657, 48.0532238], [8.1967175, 48.0532754]]};1
1081;23;Hans-Frank-Straße;78120;Furtwangen im Schwarzwald;3;{'type': 'LineString', 'coordinates': [[8.1980263, 48.0537829], [8.1981633, 48.0537825], [8.1981627, 48.0537002], [8.1980257, 48.0537006], [8.1980263, 48.0537829]]};1
1082;3;Birkenweg;78120;Furtwangen im Schwarzwald;3;{'type': 'LineString', 'coordinates': [[8.1899002, 48.054619], [8.1900637, 48.0546229], [8.1900692, 48.0545195], [8.1899057, 48.0545156], [8.1899002, 48.054619]]};1
1083;32;Ganterhofstraße;78120;Furtwangen im Schwarzwald;3;{'type': 'LineString', 'coordinates': [[8.1873015, 48.0553385], [8.1874592, 48.0553346], [8.1874532, 48.0552261], [8.1872955, 48.05523], [8.1873015, 48.0553385]]};1
1084;26;Gartenstraße;78120;Furtwangen im Schwarzwald;3;{'type': 'LineString', 'coordinates': [[8.202298, 48.0499312], [8.2024136, 48.0499091], [8.2023948, 48.0498651], [8.2022792, 48.0498872], [8.202298, 48.0499312]]};1
1085;24;Eigenheimweg;78120;Furtwangen im Schwarzwald;3;{'type': 'LineString', 'coordinates': [[8.201388, 48.0509212], [8.2014781, 48.0508665], [8.201407, 48.0508141], [8.2013168, 48.0508688], [8.201388, 48.0509212]]};1
1086;17;Eigenheimweg;78120;Furtwangen im Schwarzwald;3;{'type': 'LineString', 'coordinates': [[8.2032863, 48.0505991], [8.2034625, 48.0506599], [8.2035098, 48.0505984], [8.2033337, 48.0505377], [8.2032863, 48.0505991]]};1
1087;1;Hansjakobstraße;78120;Furtwangen im Schwarzwald;3;{'type': 'LineString', 'coordinates': [[8.2019944, 48.0501385], [8.2021087, 48.050133], [8.2020991, 48.0500436], [8.2019848, 48.0500491], [8.2019944, 48.0501385]]};1
1088;26;Hans-Thoma-Straße;78120;Furtwangen im Schwarzwald;3;{'type': 'LineString', 'coordinates': [[8.2005766, 48.0511693], [8.2006463, 48.0511265], [8.2005563, 48.0510644], [8.2004879, 48.0511049], [8.2005766, 48.0511693]]};1
1089;7;Hans-Thoma-Straße;78120;Furtwangen im Schwarzwald;3;{'type': 'LineString', 'coordinates': [[8.2002637, 48.0509121], [8.200374, 48.0509895], [8.2006351, 48.0508235], [8.2005249, 48.050746], [8.2002637, 48.0509121]]};1
1090;34;Eigenheimweg;78120;Furtwangen im Schwarzwald;3;{'type': 'LineString', 'coordinates': [[8.2020137, 48.0505948], [8.2021679, 48.0505396], [8.2021102, 48.0504677], [8.201956, 48.0505229], [8.2020137, 48.0505948]]};1
1091;10;Hans-Frank-Straße;78120;Furtwangen im Schwarzwald;3;{'type': 'LineString', 'coordinates': [[8.1957846, 48.0527751], [8.1958882, 48.0527839], [8.1958818, 48.0528171], [8.1960445, 48.0528309], [8.1960589, 48.0527552], [8.1959664, 48.0527474], [8.1959753, 48.0527007], [8.1958016, 48.0526859], [8.1957846, 48.0527751]]};1
1092;5;Birkenweg;78120;Furtwangen im Schwarzwald;3;{'type': 'LineString', 'coordinates': [[8.190089, 48.0546593], [8.1902914, 48.0546593], [8.1902914, 48.0545592], [8.190089, 48.0545592], [8.190089, 48.0546593]]};1
1093;9;Gartenstraße;78120;Furtwangen im Schwarzwald;3;{'type': 'LineString', 'coordinates': [[8.2025375, 48.0497471], [8.2027357, 48.0497435], [8.2027322, 48.0496587], [8.202534, 48.0496623], [8.2025375, 48.0497471]]};1
1094;2;Ahornweg;78120;Furtwangen im Schwarzwald;3;{'type': 'LineString', 'coordinates': [[8.1913211, 48.0537902], [8.1915819, 48.0537954], [8.1915868, 48.0536875], [8.1913259, 48.0536823], [8.1913211, 48.0537902]]};1
1095;5;Ahornweg;78120;Furtwangen im Schwarzwald;3;{'type': 'LineString', 'coordinates': [[8.1913503, 48.0541688], [8.1915294, 48.0541675], [8.1915276, 48.0540571], [8.1913485, 48.0540584], [8.1913503, 48.0541688]]};1
1096;22;Rabenstraße;78120;Furtwangen im Schwarzwald;3;{'type': 'LineString', 'coordinates': [[8.2011478, 48.0493657], [8.2011833, 48.0493178], [8.2011502, 48.0493068], [8.2011586, 48.0492954], [8.2010821, 48.0492701], [8.2009885, 48.0493964], [8.2010044, 48.0494003], [8.2009428, 48.0494431], [8.2009681, 48.0494568], [8.2010503, 48.0493962], [8.2010739, 48.0494104], [8.201115, 48.0493549], [8.2011478, 48.0493657]]};1
1097;6;Buchenweg;78120;Furtwangen im Schwarzwald;3;{'type': 'LineString', 'coordinates': [[8.1894447, 48.0548597], [8.1896413, 48.0548636], [8.1896454, 48.0547701], [8.1894488, 48.0547662], [8.1894447, 48.0548597]]};1
1098;8;Ganterhofstraße;78120;Furtwangen im Schwarzwald;3;{'type': 'LineString', 'coordinates': [[8.1928163, 48.0530149], [8.1927892, 48.0530095], [8.1927263, 48.0531495], [8.192921, 48.0531886], [8.1929838, 48.0530485], [8.1928163, 48.0530149]]};1
1099;4;Bühlhofstraße;78120;Furtwangen im Schwarzwald;3;{'type': 'LineString', 'coordinates': [[8.2022457, 48.0496091], [8.2023613, 48.0495337], [8.2022815, 48.049479], [8.2021658, 48.0495544], [8.2022457, 48.0496091]]};1
1100;6;Birkenweg;78120;Furtwangen im Schwarzwald;3;{'type': 'LineString', 'coordinates': [[8.1903323, 48.054325], [8.1905055, 48.054325], [8.1905055, 48.0541649], [8.1903323, 48.0541649], [8.1903323, 48.054325]]};1
1101;10;Birkenweg;78120;Furtwangen im Schwarzwald;3;{'type': 'LineString', 'coordinates': [[8.1910486, 48.0543536], [8.1912705, 48.0543497], [8.1912659, 48.054233], [8.191044, 48.0542369], [8.1910486, 48.0543536]]};1
1103;8;Hansjakobstraße;78120;Furtwangen im Schwarzwald;3;{'type': 'LineString', 'coordinates': [[8.2029394, 48.0501998], [8.2031211, 48.0502642], [8.2031994, 48.0501655], [8.2030177, 48.0501011], [8.2029394, 48.0501998]]};1
1104;15;Eigenheimweg;78120;Furtwangen im Schwarzwald;3;{'type': 'LineString', 'coordinates': [[8.2027514, 48.0504734], [8.2027852, 48.050555], [8.2029448, 48.0505256], [8.2029111, 48.0504439], [8.2027514, 48.0504734]]};1
1105;16;Auf dem Bühl;78120;Furtwangen im Schwarzwald;3;{'type': 'LineString', 'coordinates': [[8.1986853, 48.0518216], [8.1987153, 48.0517381], [8.1985923, 48.0517183], [8.1985623, 48.0518017], [8.1985965, 48.0518072], [8.1985921, 48.0518194], [8.1986379, 48.0518268], [8.1986422, 48.0518147], [8.1986853, 48.0518216]]};1
1106;23;Bühlhofstraße;78120;Furtwangen im Schwarzwald;3;{'type': 'LineString', 'coordinates': [[8.2015297, 48.050182], [8.2016162, 48.0501201], [8.2014923, 48.0500428], [8.2014058, 48.0501047], [8.2015297, 48.050182]]};1
1107;16;Ludwig-Zier-Straße;78120;Furtwangen im Schwarzwald;3;{'type': 'LineString', 'coordinates': [[8.1961709, 48.0534855], [8.196209, 48.053509], [8.1961968, 48.0535201], [8.1962315, 48.0535427], [8.1962536, 48.0535365], [8.1962757, 48.0535529], [8.1963171, 48.0535234], [8.1963782, 48.0534955], [8.1962586, 48.0534219], [8.1962393, 48.0534359], [8.1962132, 48.05343], [8.1961848, 48.0534526], [8.1961969, 48.0534667], [8.1961709, 48.0534855]]};1
1109;12;Buchenweg;78120;Furtwangen im Schwarzwald;3;{'type': 'LineString', 'coordinates': [[8.1903459, 48.0549196], [8.1905347, 48.0549248], [8.1905415, 48.0548142], [8.1903527, 48.054809], [8.1903459, 48.0549196]]};1
1110;18;Rabenstraße;78120;Furtwangen im Schwarzwald;3;{'type': 'LineString', 'coordinates': [[8.2014485, 48.0493824], [8.2016609, 48.0493991], [8.2016783, 48.0493007], [8.2016125, 48.0492955], [8.201611, 48.0493039], [8.2014644, 48.0492923], [8.2014485, 48.0493824]]};1
1111;2;Buchenweg;78120;Furtwangen im Schwarzwald;3;{'type': 'LineString', 'coordinates': [[8.1888218, 48.0548688], [8.1890067, 48.0548675], [8.1890049, 48.054753], [8.18882, 48.0547543], [8.1888218, 48.0548688]]};1
1112;10;Rabenstraße;78120;Furtwangen im Schwarzwald;3;{'type': 'LineString', 'coordinates': [[8.2020994, 48.0493818], [8.2020918, 48.0494022], [8.2021547, 48.0494126], [8.2021895, 48.0493191], [8.2020745, 48.0493], [8.2020473, 48.0493731], [8.2020994, 48.0493818]]};1
1113;1;Birkenweg;78120;Furtwangen im Schwarzwald;3;{'type': 'LineString', 'coordinates': [[8.1896101, 48.05458], [8.1897756, 48.0545891], [8.1897877, 48.0544903], [8.1896223, 48.0544812], [8.1896101, 48.05458]]};1
1114;11;Birkenweg;78120;Furtwangen im Schwarzwald;3;{'type': 'LineString', 'coordinates': [[8.1908403, 48.054567], [8.1910408, 48.0545618], [8.1910353, 48.0544675], [8.1908348, 48.0544727], [8.1908403, 48.054567]]};1
1115;7;Buchenweg;78120;Furtwangen im Schwarzwald;3;{'type': 'LineString', 'coordinates': [[8.1891391, 48.05525], [8.1893434, 48.0552487], [8.1893421, 48.0551565], [8.1891377, 48.0551578], [8.1891391, 48.05525]]};1
1116;28;Ganterhofstraße;78120;Furtwangen im Schwarzwald;3;{'type': 'LineString', 'coordinates': [[8.1876033, 48.0554894], [8.1877999, 48.0554803], [8.1877886, 48.0553717], [8.187592, 48.0553808], [8.1876033, 48.0554894]]};1
1117;11;Eigenheimweg;78120;Furtwangen im Schwarzwald;3;{'type': 'LineString', 'coordinates': [[8.1997595, 48.0522754], [8.1998041, 48.0523221], [8.1998279, 48.052313], [8.1998546, 48.0523357], [8.1999501, 48.0522906], [8.1998919, 48.0522372], [8.1998503, 48.0522329], [8.1997595, 48.0522754]]};1
1118;26;Eigenheimweg;78120;Furtwangen im Schwarzwald;3;{'type': 'LineString', 'coordinates': [[8.2015976, 48.0507972], [8.2016906, 48.0507561], [8.2016278, 48.0506926], [8.2015347, 48.0507338], [8.2015976, 48.0507972]]};1
1119;12;Gartenstraße;78120;Furtwangen im Schwarzwald;3;{'type': 'LineString', 'coordinates': [[8.2032084, 48.0500502], [8.2033791, 48.0500926], [8.203421, 48.050017], [8.2032503, 48.0499747], [8.2032084, 48.0500502]]};1
1121;3;Hansjakobstraße;78120;Furtwangen im Schwarzwald;3;{'type': 'LineString', 'coordinates': [[8.2024349, 48.0501624], [8.2025698, 48.0501937], [8.2026096, 48.0501169], [8.2024747, 48.0500856], [8.2024349, 48.0501624]]};1
1122;9;Hans-Thoma-Straße;78120;Furtwangen im Schwarzwald;3;{'type': 'LineString', 'coordinates': [[8.1998842, 48.0511349], [8.1999967, 48.0512152], [8.2002561, 48.051053], [8.2001436, 48.0509727], [8.1998842, 48.0511349]]};1
1123;36;Eigenheimweg;78120;Furtwangen im Schwarzwald;3;{'type': 'LineString', 'coordinates': [[8.202267, 48.0504108], [8.2023495, 48.050466], [8.2024541, 48.0503961], [8.2023716, 48.0503409], [8.202267, 48.0504108]]};1
1124;24;Gartenstraße;78120;Furtwangen im Schwarzwald;3;{'type': 'LineString', 'coordinates': [[8.2024136, 48.0499091], [8.2025238, 48.0498999], [8.2025137, 48.049846], [8.2024036, 48.0498552], [8.2024136, 48.0499091]]};1
1125;25;Hans-Frank-Straße;78120;Furtwangen im Schwarzwald;3;{'type': 'LineString', 'coordinates': [[8.1983697, 48.0537584], [8.1984966, 48.0537574], [8.1984951, 48.0536646], [8.1983682, 48.0536655], [8.1983697, 48.0537584]]};1
1126;5;Friedhofweg;78120;Furtwangen im Schwarzwald;3;{'type': 'LineString', 'coordinates': [[8.2024319, 48.0513075], [8.2025062, 48.0512321], [8.2024137, 48.0511932], [8.2023454, 48.0512748], [8.2023657, 48.0512824], [8.2023579, 48.0513001], [8.2023876, 48.051312], [8.2024166, 48.0513014], [8.2024319, 48.0513075]]};1
1127;45;Albert-Schweitzer-Straße;78120;Furtwangen im Schwarzwald;3;{'type': 'LineString', 'coordinates': [[8.1987685, 48.0516255], [8.1988846, 48.0516233], [8.198882, 48.0515613], [8.1988542, 48.0515618], [8.198855, 48.0515119], [8.1987598, 48.0515148], [8.1987685, 48.0516255]]};1
1128;17;Hans-Frank-Straße;78120;Furtwangen im Schwarzwald;3;{'type': 'LineString', 'coordinates': [[8.1967112, 48.0535532], [8.1968513, 48.0536008], [8.1969064, 48.0535281], [8.1968611, 48.0535128], [8.1968661, 48.0535061], [8.1968234, 48.0534917], [8.1968182, 48.0534986], [8.196766, 48.053481], [8.1967112, 48.0535532]]};1
1129;26;Ganterhofstraße;78120;Furtwangen im Schwarzwald;3;{'type': 'LineString', 'coordinates': [[8.1879517, 48.055401], [8.18816, 48.0554062], [8.1881659, 48.0553], [8.1879576, 48.0552948], [8.1879517, 48.055401]]};1
1130;3;Hans-Thoma-Straße;78120;Furtwangen im Schwarzwald;3;{'type': 'LineString', 'coordinates': [[8.2011168, 48.050504], [8.2012448, 48.0504222], [8.2011516, 48.0503571], [8.2010236, 48.050439], [8.2011168, 48.050504]]};1
1131;11;Buchenweg;78120;Furtwangen im Schwarzwald;3;{'type': 'LineString', 'coordinates': [[8.1897542, 48.0552448], [8.1897624, 48.0553325], [8.1899181, 48.055326], [8.1899099, 48.0552383], [8.1897542, 48.0552448]]};1
1132;28;Hans-Thoma-Straße;78120;Furtwangen im Schwarzwald;3;{'type': 'LineString', 'coordinates': [[8.2004099, 48.0512711], [8.2004769, 48.0512303], [8.2003879, 48.0511682], [8.2003232, 48.0512097], [8.2004099, 48.0512711]]};1
1133;32;Eigenheimweg;78120;Furtwangen im Schwarzwald;3;{'type': 'LineString', 'coordinates': [[8.2017715, 48.0506887], [8.2018678, 48.0506537], [8.2018166, 48.0505906], [8.2017202, 48.0506256], [8.2017715, 48.0506887]]};1
1134;6;Bühlhofstraße;78120;Furtwangen im Schwarzwald;3;{'type': 'LineString', 'coordinates': [[8.2020227, 48.0497048], [8.2021714, 48.0496294], [8.2020993, 48.0495659], [8.2019507, 48.0496413], [8.2020227, 48.0497048]]};1
1135;12;Ludwig-Zier-Straße;78120;Furtwangen im Schwarzwald;3;{'type': 'LineString', 'coordinates': [[8.1955563, 48.0533767], [8.1956953, 48.0533788], [8.1956977, 48.0533071], [8.1956661, 48.0533066], [8.1956665, 48.0532955], [8.1955887, 48.0532943], [8.1955883, 48.0533065], [8.1955587, 48.053306], [8.1955563, 48.0533767]]};1
1136;26;Albert-Schweitzer-Straße;78120;Furtwangen im Schwarzwald;3;{'type': 'LineString', 'coordinates': [[8.1997548, 48.0508488], [8.1997893, 48.0507656], [8.1998027, 48.050768], [8.1998348, 48.0506909], [8.1997052, 48.0506668], [8.199675, 48.0507395], [8.1996528, 48.0507354], [8.1996436, 48.0507576], [8.1996658, 48.0507617], [8.1996386, 48.0508272], [8.1997548, 48.0508488]]};1
1137;3;Ahornweg;78120;Furtwangen im Schwarzwald;3;{'type': 'LineString', 'coordinates': [[8.1910953, 48.0541558], [8.191288, 48.0541597], [8.1912926, 48.0540582], [8.1910999, 48.0540543], [8.1910953, 48.0541558]]};1
1138;14;Ganterhofstraße;78120;Furtwangen im Schwarzwald;3;{'type': 'LineString', 'coordinates': [[8.1913211, 48.0537902], [8.1913232, 48.053737], [8.1911733, 48.0537344], [8.1911712, 48.0537876], [8.1913211, 48.0537902]]};1
1139;12;Ganterhofstraße;78120;Furtwangen im Schwarzwald;3;{'type': 'LineString', 'coordinates': [[8.1918837, 48.0535963], [8.192125, 48.0535989], [8.1921282, 48.0534687], [8.1918868, 48.0534661], [8.1918837, 48.0535963]]};1
1140;17;Ludwig-Zier-Straße;78120;Furtwangen im Schwarzwald;3;{'type': 'LineString', 'coordinates': [[8.1946769, 48.0542198], [8.194749, 48.0541043], [8.194646, 48.0540756], [8.194574, 48.0541911], [8.1946769, 48.0542198]]};1
1141;8;Birkenweg;78120;Furtwangen im Schwarzwald;3;{'type': 'LineString', 'coordinates': [[8.190634, 48.0543237], [8.1908715, 48.0543237], [8.1908715, 48.0542157], [8.190634, 48.0542157], [8.190634, 48.0543237]]};1
1142;14;Bregstraße;78120;Furtwangen im Schwarzwald;3;{'type': 'LineString', 'coordinates': [[8.201129, 48.0489728], [8.2013135, 48.0489968], [8.2013767, 48.0487794], [8.2011923, 48.0487555], [8.201129, 48.0489728]]};1
1144;19;Bühlhofstraße;78120;Furtwangen im Schwarzwald;3;{'type': 'LineString', 'coordinates': [[8.2013507, 48.0501029], [8.2014284, 48.0500159], [8.2012577, 48.0499478], [8.2011801, 48.0500348], [8.2013507, 48.0501029]]};1
1145;13;Buchenweg;78120;Furtwangen im Schwarzwald;3;{'type': 'LineString', 'coordinates': [[8.1899897, 48.0551681], [8.1901727, 48.0551707], [8.1901763, 48.0550557], [8.1899933, 48.0550531], [8.1899897, 48.0551681]]};1
1146;20;Rabenstraße;78120;Furtwangen im Schwarzwald;3;{'type': 'LineString', 'coordinates': [[8.2011934, 48.0493084], [8.2013449, 48.0493496], [8.2013483, 48.0492084], [8.201249, 48.0492048], [8.201245, 48.0492725], [8.2011974, 48.0492689], [8.2011934, 48.0493084]]};1
1147;14;Rabenstraße;78120;Furtwangen im Schwarzwald;3;{'type': 'LineString', 'coordinates': [[8.2019751, 48.0493471], [8.2019906, 48.0493499], [8.2020033, 48.0493195], [8.2019883, 48.0493167], [8.2020022, 48.0492834], [8.2018227, 48.0492499], [8.2018098, 48.0492809], [8.201801, 48.0492793], [8.2017822, 48.0493244], [8.20197, 48.0493594], [8.2019751, 48.0493471]]};1
1148;20;Ganterhofstraße;78120;Furtwangen im Schwarzwald;3;{'type': 'LineString', 'coordinates': [[8.1894116, 48.0546502], [8.1895848, 48.0546541], [8.1895897, 48.0545576], [8.1894164, 48.0545537], [8.1894116, 48.0546502]]};1
1149;9;Birkenweg;78120;Furtwangen im Schwarzwald;3;{'type': 'LineString', 'coordinates': [[8.1905892, 48.0547387], [8.1907644, 48.0547361], [8.1907611, 48.0546375], [8.1905859, 48.0546401], [8.1905892, 48.0547387]]};1
1150;11c;Eigenheimweg;78120;Furtwangen im Schwarzwald;3;{'type': 'LineString', 'coordinates': [[8.2002955, 48.0517944], [8.2003603, 48.0518575], [8.2004672, 48.0518084], [8.2004024, 48.0517453], [8.2002955, 48.0517944]]};1
1152;1;Am Straßberg;78120;Furtwangen im Schwarzwald;3;{'type': 'LineString', 'coordinates': [[8.2013125, 48.049555], [8.2011371, 48.0494487], [8.2010465, 48.0495156], [8.2012219, 48.0496218], [8.2013125, 48.049555]]};1
1153;1;Bühlhofstraße;78120;Furtwangen im Schwarzwald;3;{'type': 'LineString', 'coordinates': [[8.2018898, 48.0495706], [8.2019799, 48.0495199], [8.2019071, 48.049462], [8.20184, 48.0494998], [8.2018267, 48.0494892], [8.2018037, 48.0495021], [8.2018898, 48.0495706]]};1
1154;27;Hans-Thoma-Straße;78120;Furtwangen im Schwarzwald;3;{'type': 'LineString', 'coordinates': [[8.1996657, 48.0514119], [8.1997639, 48.0513507], [8.1996978, 48.0513032], [8.1995995, 48.0513644], [8.1996657, 48.0514119]]};1
1156;2;Martin-Blessing-Straße;78120;Furtwangen im Schwarzwald;3;{'type': 'LineString', 'coordinates': [[8.1937493, 48.0508771], [8.1938568, 48.0508512], [8.1937965, 48.0507396], [8.193689, 48.0507655], [8.1937493, 48.0508771]]};1
1157;6;Laulestraße;78120;Furtwangen im Schwarzwald;3;{'type': 'LineString', 'coordinates': [[8.196419, 48.0485667], [8.1966778, 48.0485667], [8.1966778, 48.0484986], [8.196419, 48.0484986], [8.196419, 48.0485667]]};1
1158;16;Weiherstraße;78120;Furtwangen im Schwarzwald;3;{'type': 'LineString', 'coordinates': [[8.194542, 48.048529], [8.1946452, 48.0484743], [8.1945759, 48.0484159], [8.1944727, 48.0484706], [8.194542, 48.048529]]};1
1159;25;Ilbenstraße;78120;Furtwangen im Schwarzwald;3;{'type': 'LineString', 'coordinates': [[8.1952721, 48.0501389], [8.1953967, 48.0499697], [8.1952053, 48.0499067], [8.1950807, 48.0500759], [8.1952721, 48.0501389]]};1
1160;6;Hebelstraße;78120;Furtwangen im Schwarzwald;3;{'type': 'LineString', 'coordinates': [[8.1971084, 48.0480469], [8.1974222, 48.0480708], [8.1974381, 48.0479777], [8.1971243, 48.0479537], [8.1971084, 48.0480469]]};1
1161;29;Ilbenstraße;78120;Furtwangen im Schwarzwald;3;{'type': 'LineString', 'coordinates': [[8.1948517, 48.0503692], [8.1949334, 48.0502755], [8.1948151, 48.0502293], [8.1947333, 48.050323], [8.1948517, 48.0503692]]};1
1162;35;Ilbenstraße;78120;Furtwangen im Schwarzwald;3;{'type': 'LineString', 'coordinates': [[8.1933808, 48.0511363], [8.1934334, 48.0511559], [8.193425, 48.0511659], [8.1934559, 48.0511774], [8.1934648, 48.0511668], [8.1935136, 48.051185], [8.1935789, 48.0511068], [8.1934953, 48.0510755], [8.1934847, 48.0510882], [8.1934361, 48.0510701], [8.1933961, 48.0511179], [8.1933808, 48.0511363]]};1
1163;40;Bregstraße;78120;Furtwangen im Schwarzwald;3;{'type': 'LineString', 'coordinates': [[8.1973435, 48.0466973], [8.1974228, 48.0467874], [8.1975551, 48.0467353], [8.1974759, 48.0466452], [8.1973435, 48.0466973]]};1
1164;14;Weiherstraße;78120;Furtwangen im Schwarzwald;3;{'type': 'LineString', 'coordinates': [[8.1947405, 48.0485316], [8.1949605, 48.0484197], [8.194888, 48.048356], [8.1946681, 48.048468], [8.1947405, 48.0485316]]};1
1165;22;Eichendorffstraße;78120;Furtwangen im Schwarzwald;3;{'type': 'LineString', 'coordinates': [[8.1940412, 48.0501867], [8.194149, 48.050128], [8.1940834, 48.0500743], [8.1939757, 48.050133], [8.1940314, 48.0501787], [8.1940412, 48.0501867]]};1
1166;19;Martin-Blessing-Straße;78120;Furtwangen im Schwarzwald;3;{'type': 'LineString', 'coordinates': [[8.1923945, 48.0517271], [8.1924803, 48.0517398], [8.1925129, 48.0516409], [8.1924271, 48.0516283], [8.1923945, 48.0517271]]};1
1167;46;Ilbenstraße;78120;Furtwangen im Schwarzwald;3;{'type': 'LineString', 'coordinates': [[8.1935151, 48.0516456], [8.1935862, 48.0516605], [8.1936475, 48.0516733], [8.1936506, 48.0516666], [8.1937022, 48.0515565], [8.1935664, 48.0515281], [8.1935286, 48.0516088], [8.1935117, 48.0516053], [8.1934995, 48.0516314], [8.1935198, 48.0516357], [8.1935151, 48.0516456]]};1
1168;62;Ilbenstraße;78120;Furtwangen im Schwarzwald;3;{'type': 'LineString', 'coordinates': [[8.193237, 48.0523926], [8.1933324, 48.0524179], [8.1933406, 48.0524041], [8.1933764, 48.0523436], [8.1933689, 48.0523416], [8.193281, 48.0523183], [8.1932647, 48.0523458], [8.193237, 48.0523926]]};1
1169;1;Raben;78120;Furtwangen im Schwarzwald;3;{'type': 'LineString', 'coordinates': [[8.1942715, 48.0523944], [8.1943317, 48.0524314], [8.1943892, 48.0523897], [8.1944008, 48.0523968], [8.1944634, 48.0523512], [8.1944084, 48.0523174], [8.19435, 48.0523598], [8.1943333, 48.0523495], [8.1942715, 48.0523944]]};1
1170;10;Laulestraße;78120;Furtwangen im Schwarzwald;3;{'type': 'LineString', 'coordinates': [[8.1958327, 48.04869], [8.1960034, 48.0486384], [8.1959489, 48.0485578], [8.1957782, 48.0486094], [8.1958327, 48.04869]]};1
1171;6;Martin-Blessing-Straße;78120;Furtwangen im Schwarzwald;3;{'type': 'LineString', 'coordinates': [[8.1932616, 48.051049], [8.1932939, 48.0510363], [8.1933633, 48.0510091], [8.1932943, 48.0509305], [8.1931926, 48.0509705], [8.1932447, 48.0510298], [8.1932616, 48.051049]]};1
1172;12;Laulestraße;78120;Furtwangen im Schwarzwald;3;{'type': 'LineString', 'coordinates': [[8.1955629, 48.0487801], [8.1957639, 48.0487139], [8.1957116, 48.048643], [8.1955106, 48.0487093], [8.1955629, 48.0487801]]};1
1173;13;Martin-Blessing-Straße;78120;Furtwangen im Schwarzwald;3;{'type': 'LineString', 'coordinates': [[8.1926843, 48.0511594], [8.1927611, 48.0510365], [8.1926102, 48.0509943], [8.1925459, 48.0510972], [8.1926034, 48.0511132], [8.1925908, 48.0511333], [8.1926843, 48.0511594]]};1
1174;11;Geschwister-Scholl-Weg;78120;Furtwangen im Schwarzwald;3;{'type': 'LineString', 'coordinates': [[8.194336, 48.0503532], [8.1944442, 48.0502749], [8.1943948, 48.0502444], [8.1943408, 48.0502111], [8.1943347, 48.0502155], [8.1942906, 48.0502474], [8.1942976, 48.0502517], [8.1942782, 48.0502658], [8.1942376, 48.0502407], [8.194199, 48.0502686], [8.194336, 48.0503532]]};1
1175;30;Ilbenstraße;78120;Furtwangen im Schwarzwald;3;{'type': 'LineString', 'coordinates': [[8.1946823, 48.0507726], [8.1948049, 48.0506997], [8.1946905, 48.0506136], [8.1945678, 48.0506865], [8.1946823, 48.0507726]]};1
1176;14;Eichendorffstraße;78120;Furtwangen im Schwarzwald;3;{'type': 'LineString', 'coordinates': [[8.1948731, 48.0496327], [8.1950269, 48.049565], [8.194957, 48.0494941], [8.1948033, 48.0495618], [8.1948731, 48.0496327]]};1
1177;18;Eichendorffstraße;78120;Furtwangen im Schwarzwald;3;{'type': 'LineString', 'coordinates': [[8.1944176, 48.0499567], [8.1945577, 48.0498903], [8.1944842, 48.0498209], [8.194344, 48.0498873], [8.1944176, 48.0499567]]};1
1178;24;Weiherstraße;78120;Furtwangen im Schwarzwald;3;{'type': 'LineString', 'coordinates': [[8.193, 48.049423], [8.1932199, 48.0494919], [8.1932765, 48.0494144], [8.1930542, 48.0493452], [8.193, 48.049423]]};1
1179;45;Ilbenstraße;78120;Furtwangen im Schwarzwald;3;{'type': 'LineString', 'coordinates': [[8.1929322, 48.0520919], [8.193035, 48.0521187], [8.1930429, 48.0521208], [8.193089, 48.0520419], [8.1929783, 48.052013], [8.1929322, 48.0520919]]};1
1180;4;Eichendorffstraße;78120;Furtwangen im Schwarzwald;3;{'type': 'LineString', 'coordinates': [[8.1962824, 48.0491564], [8.196479, 48.0491278], [8.1964562, 48.0490581], [8.1962596, 48.0490867], [8.1962824, 48.0491564]]};1
1181;31;Eichendorffstraße;78120;Furtwangen im Schwarzwald;3;{'type': 'LineString', 'coordinates': [[8.193633, 48.0499894], [8.1937295, 48.0499292], [8.1937241, 48.0499246], [8.1936447, 48.0498693], [8.1935489, 48.0499292], [8.193633, 48.0499894]]};1
1182;36/1;Bregstraße;78120;Furtwangen im Schwarzwald;3;{'type': 'LineString', 'coordinates': [[8.1980527, 48.0476179], [8.1982454, 48.047513], [8.1981049, 48.0473977], [8.1979122, 48.0475026], [8.1980527, 48.0476179]]};1
1183;42;Ilbenstraße;78120;Furtwangen im Schwarzwald;3;{'type': 'LineString', 'coordinates': [[8.1935797, 48.0514458], [8.1936111, 48.0514487], [8.1937012, 48.051457], [8.1937337, 48.05146], [8.1937615, 48.0513246], [8.1936076, 48.0513104], [8.1935797, 48.0514458]]};1
1184;20;Martin-Blessing-Straße;78120;Furtwangen im Schwarzwald;3;{'type': 'LineString', 'coordinates': [[8.1925254, 48.05226], [8.1926222, 48.0522804], [8.1926256, 48.0522734], [8.1926418, 48.0522768], [8.1926529, 48.0522533], [8.1926806, 48.0522591], [8.1926948, 48.0522291], [8.1926519, 48.05222], [8.19268, 48.0521605], [8.1925831, 48.0521401], [8.1925563, 48.0521971], [8.1925357, 48.0521928], [8.1925214, 48.052223], [8.1925409, 48.0522271], [8.1925254, 48.05226]]};1
1185;13;Hebelstraße;78120;Furtwangen im Schwarzwald;3;{'type': 'LineString', 'coordinates': [[8.1964119, 48.0477653], [8.1965985, 48.0478094], [8.1966949, 48.0476273], [8.1965083, 48.0475832], [8.1964119, 48.0477653]]};1
1186;40;Weiherstraße;78120;Furtwangen im Schwarzwald;3;{'type': 'LineString', 'coordinates': [[8.1920246, 48.0508021], [8.192243, 48.0506646], [8.1921483, 48.0505974], [8.1921067, 48.0506236], [8.192119, 48.0506324], [8.1920779, 48.0506582], [8.1920649, 48.050649], [8.1920173, 48.0506789], [8.1920267, 48.0506856], [8.1919847, 48.0507121], [8.1919745, 48.0507048], [8.1919285, 48.0507338], [8.1920246, 48.0508021]]};1
1187;10;Martin-Blessing-Straße;78120;Furtwangen im Schwarzwald;3;{'type': 'LineString', 'coordinates': [[8.1928989, 48.0513242], [8.1929611, 48.0513366], [8.1929553, 48.0513496], [8.1929906, 48.0513566], [8.1929971, 48.0513419], [8.193041, 48.0513506], [8.1930714, 48.051282], [8.19293, 48.051254], [8.1928989, 48.0513242]]};1
1188;17;Martin-Blessing-Straße;78120;Furtwangen im Schwarzwald;3;{'type': 'LineString', 'coordinates': [[8.1924065, 48.0514757], [8.1924406, 48.0514802], [8.1925242, 48.0514901], [8.192552, 48.0513888], [8.1924346, 48.0513742], [8.1924065, 48.0514757]]};1
1189;9;Weiherstraße;78120;Furtwangen im Schwarzwald;3;{'type': 'LineString', 'coordinates': [[8.1957458, 48.0475997], [8.1958284, 48.0475574], [8.1957654, 48.0475025], [8.1956829, 48.0475449], [8.1957458, 48.0475997]]};1
1190;34;Ilbenstraße;78120;Furtwangen im Schwarzwald;3;{'type': 'LineString', 'coordinates': [[8.1943709, 48.0509872], [8.1945024, 48.0510292], [8.1945647, 48.0509421], [8.1944332, 48.0509001], [8.1943709, 48.0509872]]};1
1191;5;Geschwister-Scholl-Weg;78120;Furtwangen im Schwarzwald;3;{'type': 'LineString', 'coordinates': [[8.1949432, 48.0498448], [8.1951826, 48.0497368], [8.1950984, 48.0496534], [8.194859, 48.0497614], [8.1949432, 48.0498448]]};1
1192;37;Ilbenstraße;78120;Furtwangen im Schwarzwald;3;{'type': 'LineString', 'coordinates': [[8.1932185, 48.0513417], [8.1933229, 48.0513597], [8.1933969, 48.051372], [8.1934296, 48.0512854], [8.1932507, 48.0512544], [8.1932221, 48.0513341], [8.1932185, 48.0513417]]};1
1193;25;Weiherstraße;78120;Furtwangen im Schwarzwald;3;{'type': 'LineString', 'coordinates': [[8.1932028, 48.0489441], [8.193341, 48.0488725], [8.1932548, 48.0487981], [8.1931166, 48.0488697], [8.1932028, 48.0489441]]};1
1194;32;Eichendorffstraße;78120;Furtwangen im Schwarzwald;3;{'type': 'LineString', 'coordinates': [[8.193154, 48.0505476], [8.193282, 48.0505007], [8.1932267, 48.050435], [8.1930998, 48.0504814], [8.193154, 48.0505476]]};1
1195;41;Albert-Schweitzer-Straße;78120;Furtwangen im Schwarzwald;3;{'type': 'LineString', 'coordinates': [[8.1990238, 48.0510237], [8.1989337, 48.0511654], [8.1991139, 48.0512167], [8.1991879, 48.0511004], [8.1991615, 48.0510929], [8.1991841, 48.0510575], [8.199133, 48.051043], [8.1991523, 48.0510126], [8.1990955, 48.0509993], [8.1990318, 48.0510159], [8.1990238, 48.0510237]]};1
1196;5;Martin-Blessing-Straße;78120;Furtwangen im Schwarzwald;3;{'type': 'LineString', 'coordinates': [[8.1935464, 48.0506734], [8.1936848, 48.0506323], [8.1936653, 48.0505996], [8.1936359, 48.050561], [8.1934987, 48.0506017], [8.1935464, 48.0506734]]};1
1197;10;Eichendorffstraße;78120;Furtwangen im Schwarzwald;3;{'type': 'LineString', 'coordinates': [[8.1953597, 48.049375], [8.1955427, 48.0493217], [8.1954851, 48.0492335], [8.1953021, 48.0492868], [8.1953597, 48.049375]]};1
1198;40;Ilbenstraße;78120;Furtwangen im Schwarzwald;3;{'type': 'LineString', 'coordinates': [[8.1940643, 48.0512986], [8.1941114, 48.0513107], [8.1941279, 48.0512821], [8.1942106, 48.0513034], [8.1942559, 48.051225], [8.1941885, 48.0512076], [8.1941821, 48.0512188], [8.1941294, 48.0512053], [8.1940943, 48.0512661], [8.1940844, 48.0512636], [8.1940643, 48.0512986]]};1
1199;14;Martin-Blessing-Straße;78120;Furtwangen im Schwarzwald;3;{'type': 'LineString', 'coordinates': [[8.1927162, 48.0517114], [8.1928253, 48.0517297], [8.1928021, 48.0517913], [8.1928572, 48.0518005], [8.1929217, 48.0516289], [8.1928767, 48.0516214], [8.1928634, 48.0516569], [8.1927443, 48.0516369], [8.1927162, 48.0517114]]};1
1200;49;Ilbenstraße;78120;Furtwangen im Schwarzwald;3;{'type': 'LineString', 'coordinates': [[8.192934, 48.0522845], [8.1929769, 48.0522155], [8.1928957, 48.052193], [8.1928529, 48.052262], [8.192934, 48.0522845]]};1
1201;8;Laulestraße;78120;Furtwangen im Schwarzwald;3;{'type': 'LineString', 'coordinates': [[8.196163, 48.0486237], [8.1962924, 48.0485888], [8.1962522, 48.0485222], [8.1961228, 48.0485572], [8.196163, 48.0486237]]};1
1202;9;Martin-Blessing-Straße;78120;Furtwangen im Schwarzwald;3;{'type': 'LineString', 'coordinates': [[8.1930203, 48.050856], [8.1931721, 48.0507859], [8.1931088, 48.0507253], [8.1930658, 48.0507453], [8.1930536, 48.0507336], [8.1929459, 48.0507839], [8.1929643, 48.0508008], [8.1930203, 48.050856]]};1
1203;9;Geschwister-Scholl-Weg;78120;Furtwangen im Schwarzwald;3;{'type': 'LineString', 'coordinates': [[8.1945208, 48.0501584], [8.19462, 48.0500595], [8.1945237, 48.0500163], [8.1944244, 48.0501152], [8.1945208, 48.0501584]]};1
1204;14;Hebelstraße;78120;Furtwangen im Schwarzwald;3;{'type': 'LineString', 'coordinates': [[8.1959027, 48.0480469], [8.196189, 48.0480469], [8.196189, 48.0479402], [8.1959027, 48.0479402], [8.1959027, 48.0480469]]};1
1205;1;Martin-Blessing-Straße;78120;Furtwangen im Schwarzwald;3;{'type': 'LineString', 'coordinates': [[8.1941473, 48.0504809], [8.1942078, 48.0504406], [8.1942174, 48.0504471], [8.1942445, 48.0504291], [8.1942368, 48.050424], [8.1942605, 48.0504082], [8.1941829, 48.050356], [8.1941386, 48.0503855], [8.1940716, 48.05043], [8.1941413, 48.0504768], [8.1941473, 48.0504809]]};1
1206;46;Weiherstraße;78120;Furtwangen im Schwarzwald;3;{'type': 'LineString', 'coordinates': [[8.1919725, 48.0516849], [8.1921034, 48.0516805], [8.1921093, 48.0516803], [8.1921089, 48.0516748], [8.1921, 48.0515595], [8.1919632, 48.0515642], [8.1919725, 48.0516849]]};1
1207;15;Eichendorffstraße;78120;Furtwangen im Schwarzwald;3;{'type': 'LineString', 'coordinates': [[8.1951651, 48.0490966], [8.1952281, 48.0491625], [8.1954442, 48.0490701], [8.1953811, 48.0490042], [8.1951651, 48.0490966]]};1
1208;44;Weiherstraße;78120;Furtwangen im Schwarzwald;3;{'type': 'LineString', 'coordinates': [[8.1919119, 48.0513646], [8.1919912, 48.0514264], [8.1921894, 48.0513126], [8.1921101, 48.0512509], [8.1919119, 48.0513646]]};1
1209;20;Eichendorffstraße;78120;Furtwangen im Schwarzwald;3;{'type': 'LineString', 'coordinates': [[8.1942541, 48.0500244], [8.1943501, 48.0499784], [8.1942372, 48.049873], [8.1941412, 48.049919], [8.1942541, 48.0500244]]};1
1210;48;Ilbenstraße;78120;Furtwangen im Schwarzwald;3;{'type': 'LineString', 'coordinates': [[8.193493, 48.0517964], [8.1935004, 48.0517835], [8.1934404, 48.0517682], [8.1933925, 48.0518526], [8.1934632, 48.0518706], [8.1934593, 48.0518774], [8.1935427, 48.0518986], [8.1935871, 48.0518202], [8.193493, 48.0517964]]};1
1211;33;Eichendorffstraße;78120;Furtwangen im Schwarzwald;3;{'type': 'LineString', 'coordinates': [[8.1933376, 48.0501585], [8.1935419, 48.0500482], [8.1934659, 48.0499853], [8.193407, 48.0500171], [8.1934184, 48.0500265], [8.1933781, 48.0500483], [8.1933658, 48.0500381], [8.193306, 48.0500703], [8.1933169, 48.0500793], [8.1932716, 48.0501038], [8.1933376, 48.0501585]]};1
1212;28;Weiherstraße;78120;Furtwangen im Schwarzwald;3;{'type': 'LineString', 'coordinates': [[8.1936373, 48.0496032], [8.1936941, 48.0495226], [8.193505, 48.049463], [8.1934902, 48.0494841], [8.193447, 48.0495432], [8.1936373, 48.0496032]]};1
1213;5;Hebelstraße;78120;Furtwangen im Schwarzwald;3;{'type': 'LineString', 'coordinates': [[8.1975957, 48.0478535], [8.1978104, 48.0479161], [8.1978647, 48.0478329], [8.1976499, 48.0477703], [8.1975957, 48.0478535]]};1
1214;58;Ilbenstraße;78120;Furtwangen im Schwarzwald;3;{'type': 'LineString', 'coordinates': [[8.1932338, 48.0521836], [8.1933416, 48.0522243], [8.1933941, 48.0521623], [8.193296, 48.0521251], [8.1932864, 48.0521215], [8.1932338, 48.0521836]]};1
1215;8;Weiherstraße;78120;Furtwangen im Schwarzwald;3;{'type': 'LineString', 'coordinates': [[8.1962835, 48.0476301], [8.1964131, 48.0475636], [8.1963328, 48.0474937], [8.1962032, 48.0475601], [8.1962835, 48.0476301]]};1
1216;8;Eichendorffstraße;78120;Furtwangen im Schwarzwald;3;{'type': 'LineString', 'coordinates': [[8.1956965, 48.0492579], [8.1958969, 48.0492176], [8.1958519, 48.0491175], [8.1956514, 48.0491578], [8.1956965, 48.0492579]]};1
1217;14;Laulestraße;78120;Furtwangen im Schwarzwald;3;{'type': 'LineString', 'coordinates': [[8.1952133, 48.0489237], [8.1954143, 48.048839], [8.1953553, 48.0487765], [8.1951543, 48.0488611], [8.1952133, 48.0489237]]};1
1218;8;Martin-Blessing-Straße;78120;Furtwangen im Schwarzwald;3;{'type': 'LineString', 'coordinates': [[8.1929932, 48.0511245], [8.1930536, 48.0511475], [8.1930327, 48.0511721], [8.1930823, 48.0511909], [8.1931026, 48.0511671], [8.193141, 48.0511817], [8.1932021, 48.0511098], [8.193104, 48.0510725], [8.1931127, 48.0510623], [8.1930623, 48.0510432], [8.1929932, 48.0511245]]};1
1219;18;Laulestraße;78120;Furtwangen im Schwarzwald;3;{'type': 'LineString', 'coordinates': [[8.1946683, 48.0491574], [8.1948114, 48.0491022], [8.1947549, 48.0490367], [8.1946117, 48.0490919], [8.1946683, 48.0491574]]};1
1220;9;Auf dem Bühl;78120;Furtwangen im Schwarzwald;3;{'type': 'LineString', 'coordinates': [[8.1974723, 48.0523843], [8.1973375, 48.0523068], [8.1972327, 48.0523883], [8.1972383, 48.0523915], [8.1972211, 48.0524049], [8.197255, 48.0524244], [8.1972756, 48.0524084], [8.1973381, 48.0524443], [8.1973039, 48.0524709], [8.1973536, 48.0524994], [8.1973844, 48.0524755], [8.1973675, 48.0524658], [8.1974723, 48.0523843]]};1
1221;15;Martin-Blessing-Straße;78120;Furtwangen im Schwarzwald;3;{'type': 'LineString', 'coordinates': [[8.1925925, 48.0512928], [8.1926495, 48.0511865], [8.1924979, 48.0511503], [8.1924758, 48.0511915], [8.1924563, 48.0511868], [8.1924216, 48.0512517], [8.1925124, 48.051273], [8.1925925, 48.0512928]]};1
1222;3;Martin-Blessing-Straße;78120;Furtwangen im Schwarzwald;3;{'type': 'LineString', 'coordinates': [[8.1938265, 48.0505986], [8.1938856, 48.0505753], [8.1938995, 48.0505911], [8.1939451, 48.0505732], [8.1939309, 48.0505571], [8.193975, 48.0505397], [8.1939115, 48.0504676], [8.1937627, 48.0505262], [8.1938265, 48.0505986]]};1
1223;11/1;Weiherstraße;78120;Furtwangen im Schwarzwald;3;{'type': 'LineString', 'coordinates': [[8.1952846, 48.0477899], [8.1954867, 48.0476862], [8.1953717, 48.047586], [8.1951696, 48.0476897], [8.1952846, 48.0477899]]};1
1224;7;Weiherstraße;78120;Furtwangen im Schwarzwald;3;{'type': 'LineString', 'coordinates': [[8.1959134, 48.0475315], [8.1960218, 48.0474771], [8.1959486, 48.0474119], [8.1958402, 48.0474664], [8.1959134, 48.0475315]]};1
1225;7;Martin-Blessing-Straße;78120;Furtwangen im Schwarzwald;3;{'type': 'LineString', 'coordinates': [[8.1932761, 48.0507233], [8.1934048, 48.0506844], [8.1933599, 48.0506179], [8.1932875, 48.0506398], [8.1932825, 48.0506324], [8.1932261, 48.0506494], [8.1932286, 48.0506532], [8.1932735, 48.0507195], [8.1932761, 48.0507233]]};1
1226;42;Weiherstraße;78120;Furtwangen im Schwarzwald;3;{'type': 'LineString', 'coordinates': [[8.1919495, 48.0511115], [8.1921603, 48.0509926], [8.1920816, 48.0509302], [8.1918707, 48.0510491], [8.1919495, 48.0511115]]};1
1227;14;Auf dem Bühl;78120;Furtwangen im Schwarzwald;3;{'type': 'LineString', 'coordinates': [[8.1984601, 48.0515073], [8.1984036, 48.0514393], [8.1982735, 48.0514855], [8.1982909, 48.0515051], [8.1983089, 48.0515038], [8.19839, 48.051601], [8.1984832, 48.0515643], [8.1984443, 48.0515127], [8.1984601, 48.0515073]]};1
1228;27;Eichendorffstraße;78120;Furtwangen im Schwarzwald;3;{'type': 'LineString', 'coordinates': [[8.1939667, 48.0498203], [8.194053, 48.0497509], [8.1940497, 48.0497491], [8.1939616, 48.0497001], [8.1938753, 48.0497695], [8.193905, 48.049786], [8.1939667, 48.0498203]]};1
1229;34;Weiherstraße;78120;Furtwangen im Schwarzwald;3;{'type': 'LineString', 'coordinates': [[8.1931654, 48.0499901], [8.193269, 48.0499244], [8.1931827, 48.0498635], [8.193079, 48.0499293], [8.1931654, 48.0499901]]};1
1230;39;Ilbenstraße;78120;Furtwangen im Schwarzwald;3;{'type': 'LineString', 'coordinates': [[8.1931281, 48.0515345], [8.1932987, 48.0515706], [8.1933377, 48.0514879], [8.1931672, 48.0514519], [8.1931281, 48.0515345]]};1
1231;16;Eichendorffstraße;78120;Furtwangen im Schwarzwald;3;{'type': 'LineString', 'coordinates': [[8.194622, 48.0497342], [8.1947777, 48.0496704], [8.1947292, 48.0496175], [8.1945735, 48.0496813], [8.194622, 48.0497342]]};1
1232;36;Weiherstraße;78120;Furtwangen im Schwarzwald;3;{'type': 'LineString', 'coordinates': [[8.1926859, 48.0502065], [8.1927302, 48.0501295], [8.1926546, 48.05011], [8.1926493, 48.0501192], [8.1925992, 48.0501063], [8.1926046, 48.0500969], [8.1925401, 48.0500803], [8.1925362, 48.0500871], [8.1924759, 48.0500716], [8.1924354, 48.050142], [8.1926859, 48.0502065]]};1
1233;23;Weiherstraße;78120;Furtwangen im Schwarzwald;3;{'type': 'LineString', 'coordinates': [[8.1934383, 48.048814], [8.1935648, 48.0487437], [8.1934674, 48.0486653], [8.1933409, 48.0487356], [8.1934383, 48.048814]]};1
1234;2;Eichendorffstraße;78120;Furtwangen im Schwarzwald;3;{'type': 'LineString', 'coordinates': [[8.1965821, 48.0491148], [8.1967359, 48.0490889], [8.1966853, 48.0489548], [8.1965315, 48.0489808], [8.1965821, 48.0491148]]};1
1235;35;Eichendorffstraße;78120;Furtwangen im Schwarzwald;3;{'type': 'LineString', 'coordinates': [[8.1928962, 48.0502984], [8.1931345, 48.0502239], [8.1930808, 48.0501471], [8.1930159, 48.0501674], [8.1930236, 48.0501784], [8.1929708, 48.0501949], [8.1929645, 48.0501859], [8.1928944, 48.0502078], [8.1929007, 48.0502167], [8.1928501, 48.0502326], [8.1928962, 48.0502984]]};1
1236;40a;Bregstraße;78120;Furtwangen im Schwarzwald;3;{'type': 'LineString', 'coordinates': [[8.1972267, 48.0466504], [8.1973207, 48.0466164], [8.1973749, 48.0465968], [8.1974199, 48.0465806], [8.1974642, 48.0465646], [8.1973929, 48.0464764], [8.1973555, 48.04649], [8.1973072, 48.0465074], [8.1972531, 48.046527], [8.1971554, 48.0465623], [8.1972267, 48.0466504]]};1
1237;12;Martin-Blessing-Straße;78120;Furtwangen im Schwarzwald;3;{'type': 'LineString', 'coordinates': [[8.1928024, 48.0515243], [8.1929629, 48.0515492], [8.1930029, 48.0514341], [8.1929519, 48.0514262], [8.1929398, 48.0514612], [8.1928302, 48.0514442], [8.1928024, 48.0515243]]};1
1238;13;Weiherstraße;78120;Furtwangen im Schwarzwald;3;{'type': 'LineString', 'coordinates': [[8.1947548, 48.0480837], [8.1950466, 48.0479218], [8.1949121, 48.0478135], [8.1946203, 48.0479755], [8.1947548, 48.0480837]]};1
1240;12;Eichendorffstraße;78120;Furtwangen im Schwarzwald;3;{'type': 'LineString', 'coordinates': [[8.1950989, 48.0495117], [8.1952604, 48.0494505], [8.1951957, 48.0493741], [8.1950341, 48.0494353], [8.1950989, 48.0495117]]};1
1241;5;Laulestraße;78120;Furtwangen im Schwarzwald;3;{'type': 'LineString', 'coordinates': [[8.1964823, 48.0483274], [8.1967521, 48.0483403], [8.1967617, 48.048251], [8.1964919, 48.0482381], [8.1964823, 48.0483274]]};1
1242;20;Weiherstraße;78120;Furtwangen im Schwarzwald;3;{'type': 'LineString', 'coordinates': [[8.1938374, 48.0489038], [8.194032, 48.0487945], [8.1939446, 48.0487249], [8.1937499, 48.0488342], [8.1938374, 48.0489038]]};1
1243;43;Weiherstraße;78120;Furtwangen im Schwarzwald;3;{'type': 'LineString', 'coordinates': [[8.191962, 48.0503182], [8.1920541, 48.050209], [8.1919297, 48.0501621], [8.1918376, 48.0502714], [8.1918738, 48.050285], [8.191962, 48.0503182]]};1
1244;7a;Martin-Blessing-Straße;78120;Furtwangen im Schwarzwald;3;{'type': 'LineString', 'coordinates': [[8.1925686, 48.0508963], [8.1926443, 48.0508123], [8.1926094, 48.0507973], [8.1925486, 48.0507724], [8.192472, 48.0508574], [8.1925686, 48.0508963]]};1
1245;4;Ilbenstraße;78120;Furtwangen im Schwarzwald;3;{'type': 'LineString', 'coordinates': [[8.1983994, 48.0482787], [8.1985536, 48.0484002], [8.1986778, 48.0483297], [8.1985237, 48.0482083], [8.1983994, 48.0482787]]};1
1246;44;Ilbenstraße;78120;Furtwangen im Schwarzwald;3;{'type': 'LineString', 'coordinates': [[8.1938733, 48.0516052], [8.1939906, 48.0516303], [8.1940437, 48.0515193], [8.1939264, 48.0514942], [8.1938733, 48.0516052]]};1
1247;12;Weiherstraße;78120;Furtwangen im Schwarzwald;3;{'type': 'LineString', 'coordinates': [[8.1950245, 48.0483137], [8.1952337, 48.048196], [8.1951499, 48.0481294], [8.1949407, 48.0482472], [8.1950245, 48.0483137]]};1
1248;12;Ilbenstraße;78120;Furtwangen im Schwarzwald;3;{'type': 'LineString', 'coordinates': [[8.1966769, 48.0496977], [8.1966778, 48.0494472], [8.1963645, 48.0494467], [8.1963636, 48.0496972], [8.1966769, 48.0496977]]};1
1249;16;Laulestraße;78120;Furtwangen im Schwarzwald;3;{'type': 'LineString', 'coordinates': [[8.1949545, 48.0490525], [8.1951032, 48.0489881], [8.1950355, 48.0489183], [8.1948869, 48.0489827], [8.1949545, 48.0490525]]};1
1250;3;Weiherstraße;78120;Furtwangen im Schwarzwald;3;{'type': 'LineString', 'coordinates': [[8.1969717, 48.0470161], [8.1970848, 48.0469568], [8.1969427, 48.0468357], [8.1968296, 48.0468951], [8.1969717, 48.0470161]]};1
1251;10;Weiherstraße;78120;Furtwangen im Schwarzwald;3;{'type': 'LineString', 'coordinates': [[8.1953218, 48.0480635], [8.1954815, 48.0479917], [8.1954014, 48.0479121], [8.1952417, 48.0479838], [8.1953218, 48.0480635]]};1
1252;32;Ilbenstraße;78120;Furtwangen im Schwarzwald;3;{'type': 'LineString', 'coordinates': [[8.1941563, 48.0508159], [8.1942494, 48.0508656], [8.1943071, 48.0508174], [8.1942924, 48.0508095], [8.194329, 48.0507788], [8.1942349, 48.0507286], [8.1941908, 48.0507655], [8.1942065, 48.0507739], [8.1941563, 48.0508159]]};1
1253;4;Laulestraße;78120;Furtwangen im Schwarzwald;3;{'type': 'LineString', 'coordinates': [[8.1967494, 48.0485796], [8.1969366, 48.0485814], [8.1969385, 48.0484949], [8.1967513, 48.0484931], [8.1967494, 48.0485796]]};1
1254;4;Martin-Blessing-Straße;78120;Furtwangen im Schwarzwald;3;{'type': 'LineString', 'coordinates': [[8.1934976, 48.050963], [8.1936053, 48.0509363], [8.1935874, 48.0509042], [8.1935991, 48.0509013], [8.1935866, 48.0508788], [8.1935764, 48.0508813], [8.1935505, 48.0508348], [8.1934415, 48.0508618], [8.193468, 48.0509097], [8.1934976, 48.050963]]};1
1255;11;Hebelstraße;78120;Furtwangen im Schwarzwald;3;{'type': 'LineString', 'coordinates': [[8.1968772, 48.047769], [8.1970561, 48.0477837], [8.197073, 48.047692], [8.1968941, 48.0476773], [8.1968772, 48.047769]]};1
1256;27;Ilbenstraße;78120;Furtwangen im Schwarzwald;3;{'type': 'LineString', 'coordinates': [[8.1950502, 48.050269], [8.1951261, 48.0501688], [8.1949662, 48.0501146], [8.1948903, 48.0502148], [8.1950502, 48.050269]]};1
1257;30;Weiherstraße;78120;Furtwangen im Schwarzwald;3;{'type': 'LineString', 'coordinates': [[8.1928766, 48.0495861], [8.1928265, 48.0496623], [8.1929386, 48.0496952], [8.1929344, 48.0497016], [8.1929724, 48.0497128], [8.1929758, 48.0497075], [8.1930952, 48.0497425], [8.193146, 48.0496652], [8.1928766, 48.0495861]]};1
1258;8;Hebelstraße;78120;Furtwangen im Schwarzwald;3;{'type': 'LineString', 'coordinates': [[8.1966652, 48.0480303], [8.1968827, 48.0480377], [8.1968886, 48.0479591], [8.1966712, 48.0479518], [8.1966652, 48.0480303]]};1
1259;41;Ilbenstraße;78120;Furtwangen im Schwarzwald;3;{'type': 'LineString', 'coordinates': [[8.193046, 48.0517351], [8.1931125, 48.0517513], [8.1932161, 48.0517748], [8.19326, 48.0516888], [8.1930895, 48.0516499], [8.193046, 48.0517351]]};1
1260;32;Weiherstraße;78120;Furtwangen im Schwarzwald;3;{'type': 'LineString', 'coordinates': [[8.192613, 48.0498974], [8.192888, 48.0499756], [8.1929373, 48.0498982], [8.1926623, 48.04982], [8.192613, 48.0498974]]};1
1261;38;Bregstraße;78120;Furtwangen im Schwarzwald;3;{'type': 'LineString', 'coordinates': [[8.1977327, 48.0471946], [8.1975647, 48.0469848], [8.1974511, 48.0470254], [8.197619, 48.0472352], [8.1977327, 48.0471946]]};1
1262;36;Ilbenstraße;78120;Furtwangen im Schwarzwald;3;{'type': 'LineString', 'coordinates': [[8.1939177, 48.0510697], [8.1940345, 48.0511017], [8.1940995, 48.0509956], [8.1939826, 48.0509636], [8.1939177, 48.0510697]]};1
1263;27;Weiherstraße;78120;Furtwangen im Schwarzwald;3;{'type': 'LineString', 'coordinates': [[8.1929439, 48.0491601], [8.1930607, 48.0490755], [8.1929635, 48.0490156], [8.1928467, 48.0491001], [8.1929439, 48.0491601]]};1
1264;6;Eichendorffstraße;78120;Furtwangen im Schwarzwald;3;{'type': 'LineString', 'coordinates': [[8.1960021, 48.0491929], [8.1961481, 48.0491629], [8.1961081, 48.0490759], [8.1959622, 48.0491059], [8.1960021, 48.0491929]]};1
1265;11;Martin-Blessing-Straße;78120;Furtwangen im Schwarzwald;3;{'type': 'LineString', 'coordinates': [[8.1928193, 48.0509895], [8.192926, 48.0509116], [8.1928415, 48.050859], [8.192805, 48.0508852], [8.1928087, 48.0508875], [8.1927373, 48.0509387], [8.1927649, 48.0509561], [8.1928193, 48.0509895]]};1
1267;16;Hebelstraße;78120;Furtwangen im Schwarzwald;3;{'type': 'LineString', 'coordinates': [[8.1955889, 48.047988], [8.1958063, 48.0478886], [8.1957304, 48.0478143], [8.1955129, 48.0479137], [8.1955889, 48.047988]]};1
1268;3;Laulestraße;78120;Furtwangen im Schwarzwald;3;{'type': 'LineString', 'coordinates': [[8.1969145, 48.0483458], [8.197143, 48.0483679], [8.1971623, 48.0482788], [8.1969338, 48.0482567], [8.1969145, 48.0483458]]};1
1269;21/1;Weiherstraße;78120;Furtwangen im Schwarzwald;3;{'type': 'LineString', 'coordinates': [[8.1935902, 48.0486487], [8.1934928, 48.0485771], [8.1934193, 48.0486218], [8.1935166, 48.0486934], [8.1935902, 48.0486487]]};1
1270;21;Weiherstraße;78120;Furtwangen im Schwarzwald;3;{'type': 'LineString', 'coordinates': [[8.1938685, 48.0486396], [8.1939639, 48.0485719], [8.1938773, 48.0485174], [8.193782, 48.0485851], [8.1938685, 48.0486396]]};1
1271;43;Ilbenstraße;78120;Furtwangen im Schwarzwald;3;{'type': 'LineString', 'coordinates': [[8.1929952, 48.0519279], [8.1930298, 48.0519348], [8.1931158, 48.0519537], [8.1931422, 48.0519589], [8.1931799, 48.0518789], [8.1930329, 48.0518479], [8.1929952, 48.0519279]]};1
1272;15;Ilbenstraße;78120;Furtwangen im Schwarzwald;3;{'type': 'LineString', 'coordinates': [[8.1960488, 48.0494687], [8.1962824, 48.0493256], [8.1961624, 48.0492381], [8.1959288, 48.0493812], [8.1960488, 48.0494687]]};1
1273;33;Laulestraße;78120;Furtwangen im Schwarzwald;3;{'type': 'LineString', 'coordinates': [[8.1937763, 48.0491298], [8.1938519, 48.0490479], [8.1936509, 48.0489651], [8.1935754, 48.049047], [8.1937763, 48.0491298]]};1
1274;38;Weiherstraße;78120;Furtwangen im Schwarzwald;3;{'type': 'LineString', 'coordinates': [[8.1923175, 48.0504308], [8.1925101, 48.0503218], [8.1924287, 48.0502576], [8.1923826, 48.0502836], [8.1923774, 48.0502795], [8.1922748, 48.0503377], [8.1922821, 48.0503435], [8.1922382, 48.0503683], [8.1923175, 48.0504308]]};1
1275;34;Eichendorffstraße;78120;Furtwangen im Schwarzwald;3;{'type': 'LineString', 'coordinates': [[8.1928779, 48.0506477], [8.1930072, 48.0506025], [8.1929546, 48.0505352], [8.1928253, 48.0505804], [8.1928678, 48.0506348], [8.1928779, 48.0506477]]};1
1276;18;Weiherstraße;78120;Furtwangen im Schwarzwald;3;{'type': 'LineString', 'coordinates': [[8.1941352, 48.0487411], [8.1943162, 48.0486292], [8.1942261, 48.0485641], [8.1940451, 48.048676], [8.1941352, 48.0487411]]};1
1277;6;Weiherstraße;78120;Furtwangen im Schwarzwald;3;{'type': 'LineString', 'coordinates': [[8.1965854, 48.0474102], [8.1967505, 48.0473476], [8.1966963, 48.0472837], [8.1965312, 48.0473462], [8.1965854, 48.0474102]]};1
1278;18;Martin-Blessing-Straße;78120;Furtwangen im Schwarzwald;3;{'type': 'LineString', 'coordinates': [[8.1926008, 48.0520674], [8.1927174, 48.0520895], [8.1927531, 48.0520054], [8.1926961, 48.0519946], [8.1927104, 48.0519611], [8.1926359, 48.051947], [8.1926222, 48.0519794], [8.1926369, 48.0519822], [8.1926008, 48.0520674]]};1
1279;38;Ilbenstraße;78120;Furtwangen im Schwarzwald;3;{'type': 'LineString', 'coordinates': [[8.1937718, 48.0512591], [8.1939007, 48.0512671], [8.1939168, 48.0511514], [8.1937879, 48.0511434], [8.1937718, 48.0512591]]};1
1280;10;Ilbenstraße;78120;Furtwangen im Schwarzwald;3;{'type': 'LineString', 'coordinates': [[8.1970002, 48.0493687], [8.1977296, 48.0493816], [8.1977382, 48.0491652], [8.1970087, 48.0491523], [8.1970002, 48.0493687]]};1
1281;28;Eichendorffstraße;78120;Furtwangen im Schwarzwald;3;{'type': 'LineString', 'coordinates': [[8.1935243, 48.0504398], [8.193609, 48.0503975], [8.193681, 48.0503659], [8.1936273, 48.0503157], [8.1936059, 48.0502943], [8.1934914, 48.0503494], [8.1935302, 48.0503854], [8.1934877, 48.0504059], [8.1935243, 48.0504398]]};1
1282;6;Ilbenstraße;78120;Furtwangen im Schwarzwald;3;{'type': 'LineString', 'coordinates': [[8.1980362, 48.0488454], [8.1983335, 48.0489006], [8.1983828, 48.0487818], [8.1980855, 48.0487266], [8.1980362, 48.0488454]]};1
1283;7;Hebelstraße;78120;Furtwangen im Schwarzwald;3;{'type': 'LineString', 'coordinates': [[8.1972268, 48.0478206], [8.1973974, 48.0478371], [8.1975599, 48.0477709], [8.1975048, 48.0477065], [8.1973672, 48.0477635], [8.1972488, 48.0477506], [8.1972268, 48.0478206]]};1
1284;16;Ilbenstraße;78120;Furtwangen im Schwarzwald;3;{'type': 'LineString', 'coordinates': [[8.195522, 48.0503742], [8.1956675, 48.0503711], [8.1956644, 48.0503059], [8.1958685, 48.0503016], [8.1958569, 48.0500562], [8.1957016, 48.0500595], [8.1957045, 48.0501213], [8.1955103, 48.0501254], [8.195522, 48.0503742]]};1
1285;2;Weiherstraße;78120;Furtwangen im Schwarzwald;3;{'type': 'LineString', 'coordinates': [[8.1972522, 48.0469978], [8.1971777, 48.0470316], [8.1973219, 48.047174], [8.1971089, 48.0472704], [8.1971826, 48.0473432], [8.1973955, 48.0472468], [8.1974832, 48.0473334], [8.1975578, 48.0472996], [8.1972522, 48.0469978]]};1
1286;14;Ilbenstraße;78120;Furtwangen im Schwarzwald;3;{'type': 'LineString', 'coordinates': [[8.1959442, 48.0500346], [8.1960897, 48.0500315], [8.1960866, 48.0499663], [8.1962908, 48.049962], [8.1962791, 48.0497165], [8.1961238, 48.0497198], [8.1961267, 48.0497816], [8.1959325, 48.0497857], [8.1959442, 48.0500346]]};1
1287;18;Ilbenstraße;78120;Furtwangen im Schwarzwald;3;{'type': 'LineString', 'coordinates': [[8.1951011, 48.0507147], [8.1952465, 48.0507116], [8.1952434, 48.0506464], [8.1954476, 48.0506421], [8.195436, 48.0503967], [8.1952806, 48.0504], [8.1952836, 48.0504618], [8.1950893, 48.0504659], [8.1951011, 48.0507147]]};1
1288;2;Hinterbreg;78120;Furtwangen im Schwarzwald;3;{'type': 'LineString', 'coordinates': [[8.1906306, 48.0419955], [8.1907534, 48.0419791], [8.1907196, 48.0418662], [8.1905968, 48.0418826], [8.1906306, 48.0419955]]};1
1289;10/1;Salomon-Siedle-Straße;78120;Furtwangen im Schwarzwald;3;{'type': 'LineString', 'coordinates': [[8.1928474, 48.0425108], [8.1929969, 48.042469], [8.1929263, 48.0423561], [8.1927768, 48.0423979], [8.1928474, 48.0425108]]};1
1290;10;Salomon-Siedle-Straße;78120;Furtwangen im Schwarzwald;3;{'type': 'LineString', 'coordinates': [[8.1926171, 48.0422788], [8.1928208, 48.0422036], [8.1925137, 48.041832], [8.1923101, 48.0419072], [8.1926171, 48.0422788]]};1
1291;8;Bühlhofstraße;78120;Furtwangen im Schwarzwald;3;{'type': 'LineString', 'coordinates': [[8.2019639, 48.0497105], [8.202177, 48.0498918], [8.2020796, 48.0499429], [8.2020001, 48.0498754], [8.2018746, 48.0499413], [8.2017432, 48.0498045], [8.2019639, 48.0497105]]};1
1292;54;Bregstraße;78120;Furtwangen im Schwarzwald;3;{'type': 'LineString', 'coordinates': [[8.1952355, 48.0453344], [8.1953185, 48.0453483], [8.1953406, 48.0452893], [8.1952576, 48.0452754], [8.1952355, 48.0453344]]};1
1293;19;Kussenhofstraße;78120;Furtwangen im Schwarzwald;3;{'type': 'LineString', 'coordinates': [[8.1889125, 48.0477031], [8.1891259, 48.0475754], [8.1890272, 48.0475016], [8.1888137, 48.0476293], [8.1889125, 48.0477031]]};1
1294;31a;Kussenhofstraße;78120;Furtwangen im Schwarzwald;3;{'type': 'LineString', 'coordinates': [[8.1871029, 48.0485065], [8.1873697, 48.0485065], [8.1873697, 48.0484258], [8.1871029, 48.0484258], [8.1871029, 48.0485065]]};1
1295;1;Eichendorffstraße;78120;Furtwangen im Schwarzwald;3;{'type': 'LineString', 'coordinates': [[8.1969093, 48.0488146], [8.1970611, 48.048826], [8.1970822, 48.0487014], [8.1969304, 48.0486899], [8.1969093, 48.0488146]]};1
1296;18;Ganterhofstraße;78120;Furtwangen im Schwarzwald;3;{'type': 'LineString', 'coordinates': [[8.1899105, 48.0543177], [8.190017, 48.0543194], [8.1900191, 48.054263], [8.1899126, 48.0542613], [8.1899105, 48.0543177]]};1
1300;23/5;Eigenheimweg;78120;Furtwangen im Schwarzwald;3;{'type': 'LineString', 'coordinates': [[8.2011142, 48.0512585], [8.2011447, 48.0512393], [8.2011998, 48.0512783], [8.2011693, 48.0512976], [8.2011142, 48.0512585]]};1
1301;21;Eigenheimweg;78120;Furtwangen im Schwarzwald;3;{'type': 'LineString', 'coordinates': [[8.2005134, 48.0516757], [8.2004656, 48.0516361], [8.2005303, 48.0516012], [8.200578, 48.0516408], [8.2005134, 48.0516757]]};1
1302;25/6;Eigenheimweg;78120;Furtwangen im Schwarzwald;3;{'type': 'LineString', 'coordinates': [[8.2017251, 48.0509038], [8.2017804, 48.0509475], [8.201706, 48.0509895], [8.2017003, 48.050985], [8.2016019, 48.0510406], [8.2015524, 48.0510014], [8.2017251, 48.0509038]]};1
1303;20;Eigenheimweg;78120;Furtwangen im Schwarzwald;3;{'type': 'LineString', 'coordinates': [[8.2011057, 48.0509737], [8.2011664, 48.0509381], [8.201251, 48.0510024], [8.2011903, 48.0510381], [8.2011057, 48.0509737]]};1
1304;23;Eigenheimweg;78120;Furtwangen im Schwarzwald;3;{'type': 'LineString', 'coordinates': [[8.2010137, 48.0513956], [8.2009586, 48.0513566], [8.2009902, 48.0513367], [8.2010452, 48.0513757], [8.2010137, 48.0513956]]};1
1305;25/5;Eigenheimweg;78120;Furtwangen im Schwarzwald;3;{'type': 'LineString', 'coordinates': [[8.2015035, 48.051027], [8.201534, 48.0510077], [8.201589, 48.0510467], [8.2015585, 48.051066], [8.2015035, 48.051027]]};1
1306;27/5;Eigenheimweg;78120;Furtwangen im Schwarzwald;3;{'type': 'LineString', 'coordinates': [[8.2019206, 48.0508174], [8.2019584, 48.0508014], [8.2020003, 48.0508455], [8.2019625, 48.0508615], [8.2019206, 48.0508174]]};1
1307;25;Eigenheimweg;78120;Furtwangen im Schwarzwald;3;{'type': 'LineString', 'coordinates': [[8.2014029, 48.051164], [8.2013479, 48.051125], [8.2013794, 48.0511051], [8.2014345, 48.0511442], [8.2014029, 48.051164]]};1
1308;30;Hans-Thoma-Straße;78120;Furtwangen im Schwarzwald;3;{'type': 'LineString', 'coordinates': [[8.2003232, 48.0512097], [8.2003199, 48.0512074], [8.200253, 48.0512496], [8.200343, 48.0513133], [8.2004099, 48.0512711], [8.2003232, 48.0512097]]};1
1309;24;Hans-Thoma-Straße;78120;Furtwangen im Schwarzwald;3;{'type': 'LineString', 'coordinates': [[8.2005563, 48.0510644], [8.2006244, 48.0510202], [8.2007172, 48.0510842], [8.2007069, 48.0510909], [8.2007185, 48.0510995], [8.2007386, 48.0511123], [8.2006802, 48.0511499], [8.2006463, 48.0511265], [8.2005563, 48.0510644]]};1
1310;72;Josef-Dorer-Straße;78120;Furtwangen im Schwarzwald;3;{'type': 'LineString', 'coordinates': [[8.1855509, 48.0490506], [8.1855107, 48.0490511], [8.1855111, 48.0490698], [8.1854728, 48.0490701], [8.1854714, 48.0490101], [8.1854466, 48.0490103], [8.1854459, 48.0489789], [8.1854667, 48.0489787], [8.1854657, 48.0489306], [8.1855482, 48.0489298], [8.1855509, 48.0490506]]};1
1311;70/1;Josef-Dorer-Straße;78120;Furtwangen im Schwarzwald;3;{'type': 'LineString', 'coordinates': [[8.1852201, 48.0489308], [8.1852982, 48.0489297], [8.1852993, 48.0489657], [8.1853194, 48.0489654], [8.1853204, 48.0489996], [8.1853003, 48.0489999], [8.1853018, 48.0490479], [8.1852607, 48.0490484], [8.1852604, 48.0490362], [8.1852233, 48.0490367], [8.1852201, 48.0489308]]};1
1312;80;Josef-Dorer-Straße;78120;Furtwangen im Schwarzwald;3;{'type': 'LineString', 'coordinates': [[8.1857906, 48.0489273], [8.1858679, 48.0489265], [8.1858689, 48.0489675], [8.1858915, 48.0489673], [8.1858923, 48.0489995], [8.1858672, 48.0489997], [8.1858684, 48.0490561], [8.1858421, 48.0490563], [8.1858419, 48.0490477], [8.1857934, 48.0490482], [8.1857906, 48.0489273]]};1
1313;66;Josef-Dorer-Straße;78120;Furtwangen im Schwarzwald;3;{'type': 'LineString', 'coordinates': [[8.1850637, 48.0490388], [8.1850285, 48.0490393], [8.1850291, 48.0490581], [8.1849908, 48.0490586], [8.1849894, 48.049013], [8.1849724, 48.0490133], [8.1849712, 48.048974], [8.1849865, 48.0489738], [8.1849854, 48.0489385], [8.1850606, 48.0489375], [8.1850637, 48.0490388]]};1
1315;78;Josef-Dorer-Straße;78120;Furtwangen im Schwarzwald;3;{'type': 'LineString', 'coordinates': [[8.1857065, 48.0489282], [8.1857906, 48.0489273], [8.1857934, 48.0490482], [8.1857092, 48.049049], [8.1857065, 48.0489282]]};1
1316;37d;Kussenhofstraße;78120;Furtwangen im Schwarzwald;3;{'type': 'LineString', 'coordinates': [[8.185926, 48.049054], [8.1859235, 48.0490043], [8.1863614, 48.0489943], [8.1863639, 48.049044], [8.185926, 48.049054]]};1
1318;76;Josef-Dorer-Straße;78120;Furtwangen im Schwarzwald;3;{'type': 'LineString', 'coordinates': [[8.1856275, 48.048929], [8.1857065, 48.0489282], [8.1857092, 48.049049], [8.1856302, 48.0490498], [8.1856275, 48.048929]]};1
1319;39;Kussenhofstraße;78120;Furtwangen im Schwarzwald;3;{'type': 'LineString', 'coordinates': [[8.18573, 48.0493564], [8.1857304, 48.0493368], [8.1859887, 48.0493387], [8.1859872, 48.0494316], [8.1857288, 48.0494296], [8.18573, 48.0493564]]};1
1320;70;Josef-Dorer-Straße;78120;Furtwangen im Schwarzwald;3;{'type': 'LineString', 'coordinates': [[8.1851424, 48.0489184], [8.1852197, 48.0489174], [8.1852201, 48.0489308], [8.1852233, 48.0490367], [8.185146, 48.0490377], [8.1851424, 48.0489184]]};1
1321;43/1;Josef-Dorer-Straße;78120;Furtwangen im Schwarzwald;3;{'type': 'LineString', 'coordinates': [[8.1846103, 48.0493449], [8.1846892, 48.0493515], [8.1846933, 48.0493298], [8.1847143, 48.0492169], [8.1846742, 48.0492136], [8.1846725, 48.049223], [8.1846336, 48.0492197], [8.1846103, 48.0493449]]};1
1322;45;Josef-Dorer-Straße;78120;Furtwangen im Schwarzwald;3;{'type': 'LineString', 'coordinates': [[8.1847143, 48.0492169], [8.1847178, 48.0491979], [8.1847644, 48.0492018], [8.1847621, 48.049214], [8.1847979, 48.0492169], [8.1847757, 48.0493367], [8.1846933, 48.0493298], [8.1847143, 48.0492169]]};1
1323;45/1;Josef-Dorer-Straße;78120;Furtwangen im Schwarzwald;3;{'type': 'LineString', 'coordinates': [[8.1847979, 48.0492169], [8.1848005, 48.0492034], [8.1848336, 48.0492061], [8.184835, 48.0491988], [8.1848811, 48.0492026], [8.1848549, 48.0493433], [8.1847757, 48.0493367], [8.1847979, 48.0492169]]};1
1325;7;Dr.-Guttenberg-Straße;78120;Furtwangen im Schwarzwald;3;{'type': 'LineString', 'coordinates': [[8.184483, 48.0496303], [8.1844909, 48.0495911], [8.1845411, 48.0495956], [8.1845432, 48.0495852], [8.1845846, 48.0495889], [8.1845822, 48.0496009], [8.1846327, 48.0496054], [8.1846162, 48.0496869], [8.1844742, 48.0496741], [8.184483, 48.0496303]]};1
1326;64;Josef-Dorer-Straße;78120;Furtwangen im Schwarzwald;3;{'type': 'LineString', 'coordinates': [[8.1847448, 48.048983], [8.1847475, 48.0489588], [8.1847991, 48.0489614], [8.1847977, 48.0489731], [8.1848369, 48.0489751], [8.1848237, 48.049092], [8.1847685, 48.0490893], [8.1847718, 48.0490599], [8.1847363, 48.0490581], [8.1847448, 48.048983]]};1
1327;49;Josef-Dorer-Straße;78120;Furtwangen im Schwarzwald;3;{'type': 'LineString', 'coordinates': [[8.1850853, 48.0492134], [8.1850877, 48.0491955], [8.1851731, 48.0492007], [8.1851664, 48.0492494], [8.1851862, 48.0492507], [8.1851792, 48.0493012], [8.1851531, 48.0492996], [8.1851482, 48.049335], [8.1850692, 48.0493301], [8.1850853, 48.0492134]]};1
1328;54;Ilbenstraße;78120;Furtwangen im Schwarzwald;3;{'type': 'LineString', 'coordinates': [[8.1933593, 48.0520743], [8.1933826, 48.0520468], [8.1933637, 48.0520396], [8.1933779, 48.0520229], [8.1933545, 48.052014], [8.1933676, 48.0519986], [8.1933766, 48.052002], [8.1934391, 48.0520256], [8.1935292, 48.0520597], [8.1934786, 48.0521195], [8.1934457, 48.052107], [8.1933593, 48.0520743]]};1
1329;36;Eichendorffstraße;78120;Furtwangen im Schwarzwald;3;{'type': 'LineString', 'coordinates': [[8.1928253, 48.0505804], [8.1928167, 48.0505694], [8.1926984, 48.0506107], [8.1926834, 48.0505916], [8.192604, 48.0506193], [8.1926437, 48.0506701], [8.192676, 48.0506588], [8.1927219, 48.0507176], [8.1927631, 48.0507032], [8.1927435, 48.0506782], [8.1928678, 48.0506348], [8.1928253, 48.0505804]]};1
1330;50;Ilbenstraße;78120;Furtwangen im Schwarzwald;3;{'type': 'LineString', 'coordinates': [[8.1934976, 48.0519509], [8.1935283, 48.0519026], [8.1936115, 48.0519262], [8.1935811, 48.0519747], [8.1934976, 48.0519509]]};1
1331;26;Weiherstraße;78120;Furtwangen im Schwarzwald;3;{'type': 'LineString', 'coordinates': [[8.1932765, 48.0494144], [8.1934902, 48.0494841], [8.193447, 48.0495432], [8.1934336, 48.0495616], [8.1932199, 48.0494919], [8.1932765, 48.0494144]]};1
1332;29;Eichendorffstraße;78120;Furtwangen im Schwarzwald;3;{'type': 'LineString', 'coordinates': [[8.1936447, 48.0498693], [8.1936379, 48.0498645], [8.1937379, 48.0498003], [8.1938242, 48.0498604], [8.1937241, 48.0499246], [8.1936447, 48.0498693]]};1
1333;47;Ilbenstraße;78120;Furtwangen im Schwarzwald;3;{'type': 'LineString', 'coordinates': [[8.1928703, 48.0521737], [8.19292, 48.0520887], [8.1929322, 48.0520919], [8.193035, 48.0521187], [8.1929853, 48.0522037], [8.1928703, 48.0521737]]};1
1334;4;Ganterhofstraße;78120;Furtwangen im Schwarzwald;3;{'type': 'LineString', 'coordinates': [[8.1928927, 48.0529027], [8.1930621, 48.0529366], [8.1930898, 48.0529422], [8.1931512, 48.0528052], [8.1929542, 48.0527657], [8.1928927, 48.0529027]]};1
1335;51;Ilbenstraße;78120;Furtwangen im Schwarzwald;3;{'type': 'LineString', 'coordinates': [[8.1927159, 48.0522906], [8.1928176, 48.0523189], [8.1928432, 48.052326], [8.1928104, 48.0523787], [8.1926831, 48.0523434], [8.1927159, 48.0522906]]};1
1336;6;Ganterhofstraße;78120;Furtwangen im Schwarzwald;3;{'type': 'LineString', 'coordinates': [[8.1930621, 48.0529366], [8.1928927, 48.0529027], [8.1928689, 48.0528979], [8.1928163, 48.0530149], [8.1929838, 48.0530485], [8.1930096, 48.0530537], [8.1930621, 48.0529366]]};1
1337;25;Eichendorffstraße;78120;Furtwangen im Schwarzwald;3;{'type': 'LineString', 'coordinates': [[8.1939616, 48.0497001], [8.1939533, 48.0496955], [8.1940386, 48.0496268], [8.1940762, 48.0496477], [8.1941351, 48.0496804], [8.1940497, 48.0497491], [8.1939616, 48.0497001]]};1
1338;56;Ilbenstraße;78120;Furtwangen im Schwarzwald;3;{'type': 'LineString', 'coordinates': [[8.193296, 48.0521251], [8.1933131, 48.052105], [8.1933284, 48.0521108], [8.1933593, 48.0520743], [8.1934457, 48.052107], [8.1933978, 48.0521636], [8.1933941, 48.0521623], [8.193296, 48.0521251]]};1
1339;64;Ilbenstraße;78120;Furtwangen im Schwarzwald;3;{'type': 'LineString', 'coordinates': [[8.1933689, 48.0523416], [8.1933754, 48.0523308], [8.1934159, 48.0523415], [8.1934102, 48.0523512], [8.1934694, 48.0523669], [8.1934329, 48.0524285], [8.1933406, 48.0524041], [8.1933764, 48.0523436], [8.1933689, 48.0523416]]};1
1340;30;Eichendorffstraße;78120;Furtwangen im Schwarzwald;3;{'type': 'LineString', 'coordinates': [[8.1932267, 48.050435], [8.1932188, 48.0504257], [8.1932741, 48.0504049], [8.193291, 48.050425], [8.1933596, 48.0503992], [8.1934152, 48.0504652], [8.1932913, 48.0505118], [8.193282, 48.0505007], [8.1932267, 48.050435]]};1
1341;60;Ilbenstraße;78120;Furtwangen im Schwarzwald;3;{'type': 'LineString', 'coordinates': [[8.193237, 48.0523926], [8.1932173, 48.0524257], [8.1931818, 48.0524163], [8.1931859, 48.0524093], [8.1931276, 48.0523938], [8.1931837, 48.0522992], [8.1932444, 48.0523153], [8.1932316, 48.052337], [8.1932647, 48.0523458], [8.193237, 48.0523926]]};1
1342;26;Eichendorffstraße;78120;Furtwangen im Schwarzwald;3;{'type': 'LineString', 'coordinates': [[8.1936273, 48.0503157], [8.193744, 48.0502602], [8.1937769, 48.050291], [8.1938095, 48.0502755], [8.1938436, 48.0503076], [8.1937582, 48.0503478], [8.1937209, 48.0503664], [8.1936938, 48.0503789], [8.193681, 48.0503659], [8.1936273, 48.0503157]]};1
1343;24;Eichendorffstraße;78120;Furtwangen im Schwarzwald;3;{'type': 'LineString', 'coordinates': [[8.1939757, 48.050133], [8.1939652, 48.0501243], [8.1938531, 48.0501854], [8.1939079, 48.0502304], [8.1938761, 48.0502477], [8.1939044, 48.050271], [8.1939418, 48.0502505], [8.193925, 48.0502367], [8.1940314, 48.0501787], [8.1939757, 48.050133]]};1
1344;2;Raben;78120;Furtwangen im Schwarzwald;3;{'type': 'LineString', 'coordinates': [[8.1939852, 48.0524527], [8.1939608, 48.0524458], [8.1938622, 48.0524182], [8.1939276, 48.0523139], [8.1939404, 48.0523175], [8.1939478, 48.0523056], [8.1940239, 48.0523269], [8.1940153, 48.0523405], [8.1940496, 48.0523501], [8.1939852, 48.0524527]]};1
1345;18/1;Stephan-Blattmann-Straße;78120;Furtwangen im Schwarzwald;3;{'type': 'LineString', 'coordinates': [[8.1893486, 48.0490959], [8.1892745, 48.0491231], [8.1893118, 48.0491683], [8.1893859, 48.0491411], [8.1893486, 48.0490959]]};1
1350;11;Berliner Straße;78120;Furtwangen im Schwarzwald;3;{'type': 'LineString', 'coordinates': [[8.1940399, 48.0465724], [8.194059, 48.04656], [8.1941421, 48.0465059], [8.1942474, 48.0465782], [8.1942602, 48.0465698], [8.1943101, 48.0466041], [8.194207, 48.0466712], [8.194149, 48.0466313], [8.194137, 48.0466391], [8.1940444, 48.0465755], [8.1940399, 48.0465724]]};1
1351;17;Berliner Straße;78120;Furtwangen im Schwarzwald;3;{'type': 'LineString', 'coordinates': [[8.1937199, 48.0467867], [8.193803, 48.0467083], [8.1938781, 48.0467439], [8.1938649, 48.0467564], [8.193921, 48.046783], [8.1938524, 48.0468477], [8.1938329, 48.0468385], [8.1938178, 48.0468528], [8.1937786, 48.0468342], [8.1937925, 48.0468211], [8.1937199, 48.0467867]]};1
1352;11;Friedlandweg;78120;Furtwangen im Schwarzwald;3;{'type': 'LineString', 'coordinates': [[8.1952057, 48.0464675], [8.1952575, 48.0464264], [8.1952875, 48.0464434], [8.1953053, 48.0464293], [8.1953273, 48.0464418], [8.1953605, 48.0464155], [8.1954703, 48.0464775], [8.1953825, 48.046547], [8.1953336, 48.0465193], [8.1953186, 48.0465312], [8.1952057, 48.0464675]]};1
1353;34;Berliner Straße;78120;Furtwangen im Schwarzwald;3;{'type': 'LineString', 'coordinates': [[8.1946654, 48.0471891], [8.1946886, 48.0471542], [8.1947084, 48.0471601], [8.194735, 48.04712], [8.1947181, 48.047115], [8.194763, 48.0470475], [8.1949035, 48.0470893], [8.1948708, 48.0471385], [8.1948566, 48.0471342], [8.1948163, 48.0471947], [8.1947682, 48.0471804], [8.1947464, 48.0472131], [8.1946654, 48.0471891]]};1
1354;40;Berliner Straße;78120;Furtwangen im Schwarzwald;3;{'type': 'LineString', 'coordinates': [[8.193624, 48.0471913], [8.1936422, 48.0471598], [8.1936276, 48.047156], [8.1936431, 48.0471293], [8.1936541, 48.0471321], [8.1936669, 48.0471098], [8.1937199, 48.0471235], [8.1937265, 48.0471123], [8.1937429, 48.0471165], [8.1938328, 48.0471398], [8.1938274, 48.0471491], [8.1938822, 48.0471633], [8.193869, 48.047186], [8.1938876, 48.0471908], [8.1938706, 48.04722], [8.1938549, 48.0472159], [8.1938372, 48.0472465], [8.193624, 48.0471913]]};1
1355;15;Berliner Straße;78120;Furtwangen im Schwarzwald;3;{'type': 'LineString', 'coordinates': [[8.1940559, 48.0470046], [8.1941262, 48.0469381], [8.1942877, 48.0470144], [8.1942211, 48.0470772], [8.1940559, 48.0470046]]};1
1356;3;Friedlandweg;78120;Furtwangen im Schwarzwald;3;{'type': 'LineString', 'coordinates': [[8.1949235, 48.0473087], [8.1950088, 48.0472051], [8.1951317, 48.0472503], [8.1950464, 48.0473539], [8.1949235, 48.0473087]]};1
1357;5;Weiherstraße;78120;Furtwangen im Schwarzwald;3;{'type': 'LineString', 'coordinates': [[8.1962617, 48.0472479], [8.1963937, 48.0471808], [8.1964425, 48.0472236], [8.1963105, 48.0472908], [8.1962617, 48.0472479]]};1
1358;5;Friedlandweg;78120;Furtwangen im Schwarzwald;3;{'type': 'LineString', 'coordinates': [[8.1951846, 48.0471509], [8.1952709, 48.0470768], [8.1953698, 48.0471282], [8.1952835, 48.0472024], [8.1951846, 48.0471509]]};1
1359;5/1;Weiherstraße;78120;Furtwangen im Schwarzwald;3;{'type': 'LineString', 'coordinates': [[8.1961293, 48.0473153], [8.1962617, 48.0472479], [8.1963105, 48.0472908], [8.1961781, 48.0473582], [8.1961293, 48.0473153]]};1
1360;16;Neue Heimat;78120;Furtwangen im Schwarzwald;3;{'type': 'LineString', 'coordinates': [[8.1956706, 48.0458131], [8.1955586, 48.0457734], [8.1955076, 48.0458375], [8.195616, 48.0458782], [8.1956706, 48.0458131]]};1
1361;51;Neue Heimat;78120;Furtwangen im Schwarzwald;3;{'type': 'LineString', 'coordinates': [[8.1959927, 48.0464946], [8.195991, 48.0464099], [8.1961065, 48.0464091], [8.1961084, 48.0464909], [8.1959927, 48.0464946]]};1
1362;53;Neue Heimat;78120;Furtwangen im Schwarzwald;3;{'type': 'LineString', 'coordinates': [[8.1959988, 48.046581], [8.1959927, 48.0464946], [8.1961084, 48.0464909], [8.1961144, 48.0465766], [8.1961014, 48.0465763], [8.1959988, 48.046581]]};1
1363;41;Neue Heimat;78120;Furtwangen im Schwarzwald;3;{'type': 'LineString', 'coordinates': [[8.1952068, 48.0459179], [8.1953216, 48.0459589], [8.1953095, 48.0459742], [8.1952694, 48.0460253], [8.1951539, 48.0459848], [8.1952068, 48.0459179]]};1
1364;57;Neue Heimat;78120;Furtwangen im Schwarzwald;3;{'type': 'LineString', 'coordinates': [[8.1958493, 48.0468287], [8.1959087, 48.0467561], [8.1960109, 48.0467935], [8.1959515, 48.0468661], [8.1959433, 48.0468631], [8.1958493, 48.0468287]]};1
1365;39;Neue Heimat;78120;Furtwangen im Schwarzwald;3;{'type': 'LineString', 'coordinates': [[8.1950926, 48.0458838], [8.1950965, 48.0458791], [8.1952068, 48.0459179], [8.1951539, 48.0459848], [8.195044, 48.0459498], [8.1950926, 48.0458838]]};1
1366;49;Neue Heimat;78120;Furtwangen im Schwarzwald;3;{'type': 'LineString', 'coordinates': [[8.1958095, 48.0462709], [8.1958992, 48.0463309], [8.1959326, 48.0463086], [8.1959755, 48.0462799], [8.1958857, 48.0462199], [8.1958095, 48.0462709]]};1
1367;13;Berliner Straße;78120;Furtwangen im Schwarzwald;3;{'type': 'LineString', 'coordinates': [[8.1944398, 48.046878], [8.194327, 48.0467891], [8.1944338, 48.0467286], [8.1944806, 48.0467655], [8.1944704, 48.0467713], [8.1945363, 48.0468232], [8.1944398, 48.046878]]};1
1368;13;Friedlandweg;78120;Furtwangen im Schwarzwald;3;{'type': 'LineString', 'coordinates': [[8.1949293, 48.0463256], [8.1950386, 48.046232], [8.1951985, 48.0463155], [8.1951363, 48.0463687], [8.1952011, 48.0464025], [8.195154, 48.0464429], [8.1949293, 48.0463256]]};1
1369;36;Berliner Straße;78120;Furtwangen im Schwarzwald;3;{'type': 'LineString', 'coordinates': [[8.1944934, 48.0473749], [8.1944146, 48.0473143], [8.1945704, 48.0472237], [8.1946094, 48.0472537], [8.1945914, 48.0472641], [8.1946313, 48.0472947], [8.1944934, 48.0473749]]};1
1370;43;Neue Heimat;78120;Furtwangen im Schwarzwald;3;{'type': 'LineString', 'coordinates': [[8.1953521, 48.0460489], [8.1954029, 48.0459969], [8.1954501, 48.0460175], [8.195461, 48.0460063], [8.1955661, 48.0460495], [8.1955043, 48.046113], [8.1953521, 48.0460489]]};1
1371;14;Neue Heimat;78120;Furtwangen im Schwarzwald;3;{'type': 'LineString', 'coordinates': [[8.1955076, 48.0458375], [8.1953012, 48.0457642], [8.1953638, 48.0456854], [8.1954675, 48.0457222], [8.1954559, 48.0457369], [8.1955586, 48.0457734], [8.1955076, 48.0458375]]};1
1372;55;Neue Heimat;78120;Furtwangen im Schwarzwald;3;{'type': 'LineString', 'coordinates': [[8.1959087, 48.0467561], [8.1959954, 48.0466546], [8.1960756, 48.0466882], [8.1960537, 48.0467138], [8.1960747, 48.0467199], [8.1960109, 48.0467935], [8.1959087, 48.0467561]]};1
1373;7;Friedlandweg;78120;Furtwangen im Schwarzwald;3;{'type': 'LineString', 'coordinates': [[8.1954181, 48.0469317], [8.1954571, 48.0468733], [8.1955225, 48.0468929], [8.1956156, 48.0469207], [8.1955555, 48.0470106], [8.1954114, 48.0469675], [8.1954325, 48.046936], [8.1954181, 48.0469317]]};1
1374;59;Neue Heimat;78120;Furtwangen im Schwarzwald;3;{'type': 'LineString', 'coordinates': [[8.1959044, 48.0472776], [8.1958044, 48.0472097], [8.1958922, 48.0471519], [8.1959057, 48.0471611], [8.195962, 48.0471241], [8.1960377, 48.0471755], [8.195946, 48.0472358], [8.1959568, 48.0472431], [8.1959044, 48.0472776]]};1
1375;45;Neue Heimat;78120;Furtwangen im Schwarzwald;3;{'type': 'LineString', 'coordinates': [[8.1955661, 48.0460495], [8.1956723, 48.0460957], [8.1956684, 48.0460996], [8.1957141, 48.0461195], [8.1956341, 48.0462017], [8.1955827, 48.0461794], [8.1956048, 48.0461567], [8.1955043, 48.046113], [8.1955661, 48.0460495]]};1
1376;2;Friedlandweg;78120;Furtwangen im Schwarzwald;3;{'type': 'LineString', 'coordinates': [[8.1950471, 48.0469343], [8.1950118, 48.0468407], [8.1951473, 48.0468179], [8.1951715, 48.046882], [8.1951851, 48.0468797], [8.1952061, 48.0469351], [8.195077, 48.0469568], [8.1950672, 48.0469309], [8.1950471, 48.0469343]]};1
1377;47;Neue Heimat;78120;Furtwangen im Schwarzwald;3;{'type': 'LineString', 'coordinates': [[8.1956553, 48.0462364], [8.1957003, 48.0462063], [8.1956873, 48.0461976], [8.1957698, 48.0461425], [8.1958857, 48.0462199], [8.1958095, 48.0462709], [8.1958058, 48.0462734], [8.1957624, 48.0462444], [8.1957148, 48.0462762], [8.1956553, 48.0462364]]};1
1378;14;Kohlheppstraße;78120;Furtwangen im Schwarzwald;3;{'type': 'LineString', 'coordinates': [[8.1911864, 48.0484262], [8.1912175, 48.048403], [8.1912169, 48.0483789], [8.1913127, 48.0483726], [8.1913147, 48.0483957], [8.1913555, 48.0484203], [8.1913147, 48.0484489], [8.1913358, 48.0484607], [8.1912937, 48.0484898], [8.1912354, 48.0484532], [8.1911864, 48.0484262]]};1
1379;23;Kohlheppstraße;78120;Furtwangen im Schwarzwald;3;{'type': 'LineString', 'coordinates': [[8.1926565, 48.0479547], [8.192674, 48.0479289], [8.1926593, 48.0479244], [8.1926735, 48.0479036], [8.1928252, 48.0479498], [8.1928075, 48.0479759], [8.1928292, 48.0479825], [8.1928118, 48.0480082], [8.1927957, 48.0480033], [8.1927681, 48.0480437], [8.1926254, 48.0480002], [8.1926565, 48.0479547]]};1
1380;11;Kohlheppstraße;78120;Furtwangen im Schwarzwald;3;{'type': 'LineString', 'coordinates': [[8.1913239, 48.0487447], [8.19134, 48.0487333], [8.1913341, 48.0487296], [8.1913831, 48.0486947], [8.1913905, 48.0486994], [8.1914251, 48.0486747], [8.1914693, 48.0487024], [8.1914594, 48.0487095], [8.1915098, 48.048741], [8.1914474, 48.0487855], [8.1914254, 48.0487718], [8.1913982, 48.0487912], [8.1913239, 48.0487447]]};1
1381;26;Kohlheppstraße;78120;Furtwangen im Schwarzwald;3;{'type': 'LineString', 'coordinates': [[8.192244, 48.0478193], [8.1921499, 48.0477483], [8.1921987, 48.0477214], [8.1921935, 48.0477117], [8.1922175, 48.0476979], [8.1922286, 48.0477025], [8.1922611, 48.0476842], [8.1923749, 48.0477677], [8.192321, 48.0477952], [8.1923433, 48.0478123], [8.1923114, 48.0478283], [8.1922762, 48.0478008], [8.192244, 48.0478193]]};1
1382;22;Kohlheppstraße;78120;Furtwangen im Schwarzwald;3;{'type': 'LineString', 'coordinates': [[8.1918259, 48.0479577], [8.19186, 48.0479387], [8.1918545, 48.0479249], [8.1918915, 48.0479039], [8.1919175, 48.0479245], [8.1919689, 48.0479217], [8.1919792, 48.0479298], [8.1919689, 48.0479488], [8.1920276, 48.0479901], [8.1919344, 48.0480402], [8.1918763, 48.0479986], [8.191857, 48.0479969], [8.1918588, 48.047984], [8.1918498, 48.0479771], [8.1918259, 48.0479577]]};1
1383;20;Kohlheppstraße;78120;Furtwangen im Schwarzwald;3;{'type': 'LineString', 'coordinates': [[8.1916728, 48.0480368], [8.1916711, 48.048028], [8.1916908, 48.0480151], [8.1917092, 48.0480166], [8.1917366, 48.0480331], [8.191749, 48.0480257], [8.1917883, 48.0480514], [8.1917832, 48.0480606], [8.191797, 48.0480683], [8.1918212, 48.0480869], [8.191741, 48.0481367], [8.1916943, 48.0481031], [8.1916859, 48.0481083], [8.1916265, 48.0480656], [8.1916728, 48.0480368]]};1
1384;28;Kohlheppstraße;78120;Furtwangen im Schwarzwald;3;{'type': 'LineString', 'coordinates': [[8.1924704, 48.0476722], [8.1925101, 48.0476212], [8.1925302, 48.0475954], [8.1925737, 48.0476126], [8.1925846, 48.0476013], [8.1926104, 48.0476117], [8.1926057, 48.0476167], [8.192622, 48.047624], [8.1926152, 48.0476331], [8.1926335, 48.0476399], [8.1925731, 48.0476985], [8.1925506, 48.0476917], [8.1925432, 48.0477035], [8.1925126, 48.0476926], [8.1925194, 48.0476849], [8.1924704, 48.0476722]]};1
1385;24;Kohlheppstraße;78120;Furtwangen im Schwarzwald;3;{'type': 'LineString', 'coordinates': [[8.1922046, 48.0478806], [8.192197, 48.0479016], [8.1921169, 48.0479496], [8.1920257, 48.0478815], [8.192078, 48.0478502], [8.1920678, 48.0478426], [8.1921154, 48.047814], [8.1921604, 48.0478475], [8.1922046, 48.0478806]]};1
1386;19;Kohlheppstraße;78120;Furtwangen im Schwarzwald;3;{'type': 'LineString', 'coordinates': [[8.192116, 48.0481659], [8.1921287, 48.0481457], [8.1921567, 48.0481535], [8.1921834, 48.0481111], [8.1923135, 48.0481477], [8.1922485, 48.0482509], [8.1921131, 48.0482128], [8.1921386, 48.0481723], [8.192116, 48.0481659]]};1
1387;30;Kohlheppstraße;78120;Furtwangen im Schwarzwald;3;{'type': 'LineString', 'coordinates': [[8.19242, 48.0476145], [8.1922975, 48.047579], [8.1923145, 48.0475527], [8.1923016, 48.047549], [8.1923254, 48.047515], [8.1923335, 48.0475172], [8.1923431, 48.0475045], [8.1924708, 48.0475413], [8.1924494, 48.0475744], [8.19242, 48.0476145]]};1
1388;7;Kohlheppstraße;78120;Furtwangen im Schwarzwald;3;{'type': 'LineString', 'coordinates': [[8.1909748, 48.0490233], [8.1909482, 48.0489946], [8.1907286, 48.0490851], [8.1907781, 48.0491387], [8.1908017, 48.049129], [8.1908478, 48.049179], [8.1909123, 48.0491524], [8.1908794, 48.0491167], [8.1910397, 48.0490506], [8.1910036, 48.0490114], [8.1909748, 48.0490233]]};1
1406;11;Jahnstraße;78120;Furtwangen im Schwarzwald;3;{'type': 'LineString', 'coordinates': [[8.1994922, 48.0467003], [8.2001011, 48.0471414], [8.2012759, 48.0476937], [8.2016085, 48.0473728], [8.2016836, 48.0474068], [8.2017694, 48.0472939], [8.2010935, 48.0470859], [8.2004793, 48.0468492], [8.2000474, 48.0466734], [8.1996102, 48.0465515], [8.1994922, 48.0467003]]};1
1407;1;Hans-Thoma-Straße;78120;Furtwangen im Schwarzwald;3;{'type': 'LineString', 'coordinates': [[8.2012448, 48.0504222], [8.2013728, 48.0503403], [8.2012796, 48.0502752], [8.2011516, 48.0503571], [8.2012448, 48.0504222]]};1
1408;2;Hansjakobstraße;78120;Furtwangen im Schwarzwald;3;{'type': 'LineString', 'coordinates': [[8.2021087, 48.050133], [8.2022229, 48.0501274], [8.2022133, 48.0500381], [8.2020991, 48.0500436], [8.2021087, 48.050133]]};1
1409;7;Carl-Diem-Straße;78120;Furtwangen im Schwarzwald;3;{'type': 'LineString', 'coordinates': [[8.1960785, 48.0448235], [8.1961933, 48.0446908], [8.1963059, 48.0447329], [8.1961917, 48.0448653], [8.1960785, 48.0448235]]};1
1410;15/3;Carl-Diem-Straße;78120;Furtwangen im Schwarzwald;3;{'type': 'LineString', 'coordinates': [[8.1949543, 48.0446578], [8.1950225, 48.0445568], [8.1950931, 48.0445781], [8.1950249, 48.0446792], [8.1949543, 48.0446578]]};1
1411;15/1;Carl-Diem-Straße;78120;Furtwangen im Schwarzwald;3;{'type': 'LineString', 'coordinates': [[8.1951565, 48.0445973], [8.1952213, 48.0446168], [8.1951531, 48.0447179], [8.1950882, 48.0446983], [8.1951565, 48.0445973]]};1
1412;13/3;Carl-Diem-Straße;78120;Furtwangen im Schwarzwald;3;{'type': 'LineString', 'coordinates': [[8.1952871, 48.0446367], [8.1953543, 48.044657], [8.1952861, 48.044758], [8.1952189, 48.0447377], [8.1952871, 48.0446367]]};1
1413;11;Carl-Diem-Straße;78120;Furtwangen im Schwarzwald;3;{'type': 'LineString', 'coordinates': [[8.195719, 48.04472], [8.1958476, 48.0445685], [8.195959, 48.0446108], [8.1958304, 48.0447623], [8.195719, 48.04472]]};1
1414;15/2;Carl-Diem-Straße;78120;Furtwangen im Schwarzwald;3;{'type': 'LineString', 'coordinates': [[8.1950931, 48.0445781], [8.1951565, 48.0445973], [8.1950882, 48.0446983], [8.1950249, 48.0446792], [8.1950931, 48.0445781]]};1
1415;13/1;Carl-Diem-Straße;78120;Furtwangen im Schwarzwald;3;{'type': 'LineString', 'coordinates': [[8.1954243, 48.0446781], [8.1954902, 48.044698], [8.195422, 48.0447991], [8.1953561, 48.0447792], [8.1954243, 48.0446781]]};1
1416;15/4;Carl-Diem-Straße;78120;Furtwangen im Schwarzwald;3;{'type': 'LineString', 'coordinates': [[8.1948577, 48.0446427], [8.1948843, 48.0446061], [8.194927, 48.04462], [8.1949005, 48.0446566], [8.1948577, 48.0446427]]};1
1417;15;Carl-Diem-Straße;78120;Furtwangen im Schwarzwald;3;{'type': 'LineString', 'coordinates': [[8.1952213, 48.0446168], [8.1952871, 48.0446367], [8.1952189, 48.0447377], [8.1951531, 48.0447179], [8.1952213, 48.0446168]]};1
1418;13/2;Carl-Diem-Straße;78120;Furtwangen im Schwarzwald;3;{'type': 'LineString', 'coordinates': [[8.1953543, 48.044657], [8.1954243, 48.0446781], [8.1953561, 48.0447792], [8.1952861, 48.044758], [8.1953543, 48.044657]]};1
1419;4;Zum Döbele;78120;Furtwangen im Schwarzwald;3;{'type': 'LineString', 'coordinates': [[8.1964188, 48.0449631], [8.1965335, 48.0448301], [8.1966517, 48.0448757], [8.196537, 48.0450086], [8.1964188, 48.0449631]]};1
1420;13;Carl-Diem-Straße;78120;Furtwangen im Schwarzwald;3;{'type': 'LineString', 'coordinates': [[8.1954902, 48.044698], [8.1955571, 48.0447183], [8.1954889, 48.0448193], [8.195422, 48.0447991], [8.1954902, 48.044698]]};1
1421;44;Bregstraße;78120;Furtwangen im Schwarzwald;3;{'type': 'LineString', 'coordinates': [[8.196272, 48.0456239], [8.1963636, 48.0456703], [8.1964496, 48.0455943], [8.1963893, 48.0455638], [8.1963961, 48.0455578], [8.1963647, 48.0455419], [8.196272, 48.0456239]]};1
1422;1;Carl-Diem-Straße;78120;Furtwangen im Schwarzwald;3;{'type': 'LineString', 'coordinates': [[8.197412, 48.0452849], [8.1974073, 48.0452808], [8.1973031, 48.0453341], [8.197373, 48.0453951], [8.1974056, 48.0453784], [8.1974191, 48.0453902], [8.1974615, 48.0453685], [8.1974513, 48.0453596], [8.1974805, 48.0453447], [8.197412, 48.0452849]]};1
1451;5a;Friedhofweg;78120;Furtwangen im Schwarzwald;3;{'type': 'LineString', 'coordinates': [[8.2004289, 48.0527127], [8.2005347, 48.0526398], [8.200518, 48.0526289], [8.2005577, 48.0526015], [8.200615, 48.0526386], [8.2006075, 48.0526439], [8.2006614, 48.0526788], [8.2006361, 48.0526962], [8.2006949, 48.0527343], [8.2005822, 48.052812], [8.2004289, 48.0527127]]};1
1452;9;Eigenheimweg;78120;Furtwangen im Schwarzwald;3;{'type': 'LineString', 'coordinates': [[8.199336, 48.0524879], [8.1993046, 48.0524536], [8.1993632, 48.0524298], [8.1993726, 48.05244], [8.1994234, 48.0524191], [8.1994563, 48.0524548], [8.1994761, 48.0524467], [8.199512, 48.0524854], [8.1993823, 48.0525385], [8.199336, 48.0524879]]};1
1453;27;Eigenheimweg;78120;Furtwangen im Schwarzwald;3;{'type': 'LineString', 'coordinates': [[8.2017411, 48.0508936], [8.2017752, 48.0508791], [8.2018171, 48.0509233], [8.201783, 48.0509377], [8.2017411, 48.0508936]]};1
1454;32;Hans-Thoma-Straße;78120;Furtwangen im Schwarzwald;3;{'type': 'LineString', 'coordinates': [[8.2001292, 48.0513174], [8.2001545, 48.0513025], [8.2001795, 48.0513216], [8.2001987, 48.0513104], [8.2002313, 48.0513354], [8.2002148, 48.051345], [8.2002393, 48.0513638], [8.2002305, 48.0513689], [8.2002527, 48.0513859], [8.2001915, 48.0514217], [8.200172, 48.0514068], [8.2000871, 48.0513419], [8.2001292, 48.0513174]]};1
1455;34;Hans-Thoma-Straße;78120;Furtwangen im Schwarzwald;3;{'type': 'LineString', 'coordinates': [[8.2000087, 48.0514492], [8.1999931, 48.0514368], [8.2000449, 48.0514077], [8.2000129, 48.0513822], [8.2000871, 48.0513419], [8.200172, 48.0514068], [8.2000449, 48.051478], [8.2000087, 48.0514492]]};1
1456;36;Hans-Thoma-Straße;78120;Furtwangen im Schwarzwald;3;{'type': 'LineString', 'coordinates': [[8.199836, 48.0514953], [8.1999209, 48.0515571], [8.1999413, 48.051572], [8.1999705, 48.051554], [8.1999533, 48.0515415], [8.2000106, 48.0515064], [8.1999477, 48.0514604], [8.1999232, 48.051442], [8.1999103, 48.0514496], [8.199836, 48.0514953]]};1
1457;38;Hans-Thoma-Straße;78120;Furtwangen im Schwarzwald;3;{'type': 'LineString', 'coordinates': [[8.1998376, 48.0516276], [8.1997808, 48.0515853], [8.1997861, 48.0515821], [8.1997433, 48.0515502], [8.1997622, 48.0515389], [8.199836, 48.0514953], [8.1999209, 48.0515571], [8.1998726, 48.0515861], [8.1998878, 48.0515975], [8.1998376, 48.0516276]]};1
1458;12;Eigenheimweg;78120;Furtwangen im Schwarzwald;3;{'type': 'LineString', 'coordinates': [[8.2006272, 48.0512624], [8.2006854, 48.0512264], [8.2007073, 48.0512421], [8.2007727, 48.051289], [8.2007141, 48.0513252], [8.2006272, 48.0512624]]};1
1459;10;Eigenheimweg;78120;Furtwangen im Schwarzwald;3;{'type': 'LineString', 'coordinates': [[8.2006552, 48.0513608], [8.2005707, 48.0512959], [8.2006272, 48.0512624], [8.2007141, 48.0513252], [8.2006552, 48.0513608]]};1
1460;8;Eigenheimweg;78120;Furtwangen im Schwarzwald;3;{'type': 'LineString', 'coordinates': [[8.2003902, 48.0514015], [8.2004524, 48.0513675], [8.2004834, 48.0513927], [8.2005312, 48.0514322], [8.2004687, 48.0514658], [8.2003902, 48.0514015]]};1
1461;6;Eigenheimweg;78120;Furtwangen im Schwarzwald;3;{'type': 'LineString', 'coordinates': [[8.2003268, 48.0514801], [8.2002736, 48.0514352], [8.2003085, 48.0514165], [8.2003297, 48.0514338], [8.2003902, 48.0514015], [8.2004687, 48.0514658], [8.2003756, 48.0515187], [8.2003268, 48.0514801]]};1
1462;42;Hans-Thoma-Straße;78120;Furtwangen im Schwarzwald;3;{'type': 'LineString', 'coordinates': [[8.1995717, 48.0516194], [8.1995048, 48.0516587], [8.1995887, 48.0517225], [8.1996556, 48.0516832], [8.1995717, 48.0516194]]};1
1463;40;Hans-Thoma-Straße;78120;Furtwangen im Schwarzwald;3;{'type': 'LineString', 'coordinates': [[8.1995717, 48.0516194], [8.1996381, 48.0515802], [8.1997234, 48.051643], [8.1996556, 48.0516832], [8.1995717, 48.0516194]]};1
1464;4;Eigenheimweg;78120;Furtwangen im Schwarzwald;3;{'type': 'LineString', 'coordinates': [[8.2001063, 48.051527], [8.2001729, 48.0514974], [8.2002421, 48.0515669], [8.2001756, 48.0515965], [8.2001063, 48.051527]]};1
1465;2;Eigenheimweg;78120;Furtwangen im Schwarzwald;3;{'type': 'LineString', 'coordinates': [[8.2001092, 48.0516266], [8.2000399, 48.0515574], [8.2001063, 48.051527], [8.2001756, 48.0515965], [8.2001092, 48.0516266]]};1
1466;11a;Eigenheimweg;78120;Furtwangen im Schwarzwald;3;{'type': 'LineString', 'coordinates': [[8.2000181, 48.0522064], [8.1999598, 48.0521503], [8.2000109, 48.0521265], [8.199975, 48.052092], [8.2000132, 48.0520743], [8.2000019, 48.0520634], [8.2000013, 48.0520531], [8.2000194, 48.0520446], [8.2000368, 48.0520432], [8.2000543, 48.0520558], [8.2000784, 48.0520432], [8.2001126, 48.052071], [8.2001253, 48.0520674], [8.200175, 48.0521122], [8.2000536, 48.0521678], [8.200069, 48.0521817], [8.2000181, 48.0522064]]};1
1467;3;Eigenheimweg;78120;Furtwangen im Schwarzwald;3;{'type': 'LineString', 'coordinates': [[8.1993738, 48.0519027], [8.1994593, 48.0519176], [8.1994141, 48.0520334], [8.1993423, 48.0520209], [8.1993546, 48.0519893], [8.199341, 48.0519869], [8.1993738, 48.0519027]]};1
1468;1;Eigenheimweg;78120;Furtwangen im Schwarzwald;3;{'type': 'LineString', 'coordinates': [[8.1992478, 48.0519719], [8.1992607, 48.0519358], [8.199247, 48.0519337], [8.1992526, 48.051918], [8.1992685, 48.0519205], [8.1992801, 48.0518881], [8.1993738, 48.0519027], [8.199341, 48.0519869], [8.1992478, 48.0519719]]};1
1469;7;Eigenheimweg;78120;Furtwangen im Schwarzwald;3;{'type': 'LineString', 'coordinates': [[8.1996838, 48.0519002], [8.1997741, 48.0518866], [8.1998013, 48.0519669], [8.1997111, 48.0519805], [8.1996838, 48.0519002]]};1
1470;5;Eigenheimweg;78120;Furtwangen im Schwarzwald;3;{'type': 'LineString', 'coordinates': [[8.1996223, 48.0519955], [8.1995942, 48.0519138], [8.1996838, 48.0519002], [8.1997111, 48.0519805], [8.1996223, 48.0519955]]};1
1471;11b;Eigenheimweg;78120;Furtwangen im Schwarzwald;3;{'type': 'LineString', 'coordinates': [[8.2001716, 48.0520208], [8.2000928, 48.0519421], [8.2002209, 48.0518864], [8.2002982, 48.0519656], [8.2001716, 48.0520208]]};1
1472;10;Auf dem Bühl;78120;Furtwangen im Schwarzwald;3;{'type': 'LineString', 'coordinates': [[8.1981531, 48.0511288], [8.1981838, 48.0511205], [8.1983294, 48.0512702], [8.1984507, 48.0512138], [8.1984199, 48.0511815], [8.1984494, 48.0511644], [8.1984467, 48.0511434], [8.198436, 48.051134], [8.1984152, 48.0511237], [8.1983924, 48.0511241], [8.1983676, 48.0511313], [8.1982998, 48.0510649], [8.1983361, 48.0510488], [8.1983032, 48.0510134], [8.1983066, 48.050999], [8.198267, 48.0509654], [8.1982536, 48.0509636], [8.1982006, 48.0509887], [8.1982087, 48.0509986], [8.1980779, 48.0510542], [8.1981531, 48.0511288]]};1
1473;2;Am Straßberg;78120;Furtwangen im Schwarzwald;3;{'type': 'LineString', 'coordinates': [[8.2009625, 48.0497875], [8.2008569, 48.0497186], [8.2008971, 48.0496911], [8.2009245, 48.0497089], [8.200948, 48.0496928], [8.200911, 48.0496686], [8.2010208, 48.0495935], [8.201136, 48.0496688], [8.2009625, 48.0497875]]};1
1474;24;Rabenstraße;78120;Furtwangen im Schwarzwald;3;{'type': 'LineString', 'coordinates': [[8.2003484, 48.0494044], [8.200348, 48.0493441], [8.2004759, 48.0493438], [8.2004759, 48.049333], [8.2005136, 48.0493329], [8.2005134, 48.0493063], [8.2006816, 48.0493058], [8.2006819, 48.0493466], [8.2006501, 48.0493467], [8.2006504, 48.0494036], [8.2003484, 48.0494044]]};1
1475;33;Albert-Schweitzer-Straße;78120;Furtwangen im Schwarzwald;3;{'type': 'LineString', 'coordinates': [[8.1990087, 48.0501397], [8.1990488, 48.0501256], [8.1990614, 48.0501417], [8.1991265, 48.0501188], [8.19917, 48.050174], [8.1990647, 48.050211], [8.1990593, 48.0502041], [8.1990087, 48.0501397]]};1
1476;31;Albert-Schweitzer-Straße;78120;Furtwangen im Schwarzwald;3;{'type': 'LineString', 'coordinates': [[8.1989368, 48.0502471], [8.1988893, 48.0501868], [8.1989727, 48.0501575], [8.1989633, 48.0501456], [8.1990025, 48.0501318], [8.1990087, 48.0501397], [8.1990593, 48.0502041], [8.1989368, 48.0502471]]};1
1477;28;Rabenstraße;78120;Furtwangen im Schwarzwald;3;{'type': 'LineString', 'coordinates': [[8.1995858, 48.0495046], [8.199563, 48.0494792], [8.1996287, 48.0494528], [8.1996515, 48.0494782], [8.1995858, 48.0495046]]};1
1478;30;Rabenstraße;78120;Furtwangen im Schwarzwald;3;{'type': 'LineString', 'coordinates': [[8.1992948, 48.0497014], [8.1992333, 48.049629], [8.1992433, 48.0496252], [8.1992337, 48.0496139], [8.1992692, 48.0496004], [8.1992807, 48.0496139], [8.1994487, 48.0495501], [8.1994642, 48.0495683], [8.1995575, 48.0495318], [8.1995863, 48.0495905], [8.1992948, 48.0497014]]};1
1479;4;Am Straßberg;78120;Furtwangen im Schwarzwald;3;{'type': 'LineString', 'coordinates': [[8.2003834, 48.0496337], [8.2004755, 48.0495797], [8.2006749, 48.0497315], [8.2005828, 48.0497855], [8.2003834, 48.0496337]]};1
1480;6;Am Straßberg;78120;Furtwangen im Schwarzwald;3;{'type': 'LineString', 'coordinates': [[8.2001106, 48.049557], [8.2001675, 48.0495403], [8.2001992, 48.0495887], [8.2001424, 48.0496054], [8.200127, 48.0495819], [8.2001106, 48.049557]]};1
1481;14;Am Straßberg;78120;Furtwangen im Schwarzwald;3;{'type': 'LineString', 'coordinates': [[8.1999146, 48.049645], [8.1998439, 48.0496659], [8.1999127, 48.0497647], [8.1999828, 48.0497427], [8.1999146, 48.049645]]};1
1482;12;Am Straßberg;78120;Furtwangen im Schwarzwald;3;{'type': 'LineString', 'coordinates': [[8.1999869, 48.049624], [8.1999146, 48.049645], [8.1999828, 48.0497427], [8.2000543, 48.0497204], [8.1999869, 48.049624]]};1
1483;10;Am Straßberg;78120;Furtwangen im Schwarzwald;3;{'type': 'LineString', 'coordinates': [[8.1999869, 48.049624], [8.2000543, 48.0497204], [8.2001225, 48.0496991], [8.2000551, 48.0496027], [8.1999869, 48.049624]]};1
1484;8;Am Straßberg;78120;Furtwangen im Schwarzwald;3;{'type': 'LineString', 'coordinates': [[8.2000551, 48.0496027], [8.2001225, 48.0496991], [8.200192, 48.049675], [8.2001424, 48.0496054], [8.200127, 48.0495819], [8.2000551, 48.0496027]]};1
1485;16;Am Straßberg;78120;Furtwangen im Schwarzwald;3;{'type': 'LineString', 'coordinates': [[8.1998454, 48.0497857], [8.1997885, 48.0497042], [8.1997755, 48.0496883], [8.1998439, 48.0496659], [8.1999127, 48.0497647], [8.1998454, 48.0497857]]};1
1486;18;Am Straßberg;78120;Furtwangen im Schwarzwald;3;{'type': 'LineString', 'coordinates': [[8.1996894, 48.0496754], [8.1997499, 48.0496544], [8.1997549, 48.0496599], [8.1997755, 48.0496883], [8.1997885, 48.0497042], [8.199728, 48.0497252], [8.1996894, 48.0496754]]};1
1487;20;Am Straßberg;78120;Furtwangen im Schwarzwald;3;{'type': 'LineString', 'coordinates': [[8.199578, 48.0497391], [8.199645, 48.0497125], [8.1996703, 48.0497451], [8.1997266, 48.0498071], [8.1996542, 48.0498338], [8.199578, 48.0497391]]};1
1488;22;Am Straßberg;78120;Furtwangen im Schwarzwald;3;{'type': 'LineString', 'coordinates': [[8.1995104, 48.0497626], [8.199578, 48.0497391], [8.1996542, 48.0498338], [8.199588, 48.0498576], [8.1995104, 48.0497626]]};1
1489;28;Am Straßberg;78120;Furtwangen im Schwarzwald;3;{'type': 'LineString', 'coordinates': [[8.1993861, 48.0498311], [8.1993176, 48.0498561], [8.1992755, 48.0498046], [8.1993441, 48.0497796], [8.199354, 48.0497917], [8.199372, 48.0498137], [8.1993861, 48.0498311]]};1
1490;24;Am Straßberg;78120;Furtwangen im Schwarzwald;3;{'type': 'LineString', 'coordinates': [[8.1994408, 48.0497881], [8.1995104, 48.0497626], [8.199588, 48.0498576], [8.199517, 48.0498831], [8.1994408, 48.0497881]]};1
1491;26;Am Straßberg;78120;Furtwangen im Schwarzwald;3;{'type': 'LineString', 'coordinates': [[8.1994477, 48.0499063], [8.1993861, 48.0498311], [8.199372, 48.0498137], [8.1994408, 48.0497881], [8.199517, 48.0498831], [8.1994477, 48.0499063]]};1
1492;34;Rabenstraße;78120;Furtwangen im Schwarzwald;3;{'type': 'LineString', 'coordinates': [[8.1990056, 48.049879], [8.1989255, 48.0497758], [8.1990949, 48.0497171], [8.1991749, 48.0498202], [8.1990056, 48.049879]]};1
1493;29;Albert-Schweitzer-Straße;78120;Furtwangen im Schwarzwald;3;{'type': 'LineString', 'coordinates': [[8.1986904, 48.0503216], [8.1988158, 48.0502909], [8.1988551, 48.0503624], [8.1987298, 48.0503932], [8.1987243, 48.0503833], [8.1986904, 48.0503216]]};1
1494;27;Albert-Schweitzer-Straße;78120;Furtwangen im Schwarzwald;3;{'type': 'LineString', 'coordinates': [[8.1985655, 48.0503435], [8.1986862, 48.0503139], [8.1986904, 48.0503216], [8.1987243, 48.0503833], [8.1986035, 48.0504129], [8.1985989, 48.0504045], [8.1985655, 48.0503435]]};1
1495;25;Albert-Schweitzer-Straße;78120;Furtwangen im Schwarzwald;3;{'type': 'LineString', 'coordinates': [[8.1984761, 48.0504343], [8.1984379, 48.0503641], [8.1985616, 48.0503341], [8.1985655, 48.0503435], [8.1985989, 48.0504045], [8.1984761, 48.0504343]]};1
1496;23;Albert-Schweitzer-Straße;78120;Furtwangen im Schwarzwald;3;{'type': 'LineString', 'coordinates': [[8.1982695, 48.0505416], [8.1983916, 48.0505123], [8.1984258, 48.0505876], [8.1983071, 48.050615], [8.1983004, 48.0506051], [8.1982695, 48.0505416]]};1
1497;21;Albert-Schweitzer-Straße;78120;Furtwangen im Schwarzwald;3;{'type': 'LineString', 'coordinates': [[8.1981423, 48.0505646], [8.1982669, 48.0505361], [8.1982695, 48.0505416], [8.1983004, 48.0506051], [8.1981763, 48.0506342], [8.1981735, 48.0506263], [8.1981423, 48.0505646]]};1
1498;19;Albert-Schweitzer-Straße;78120;Furtwangen im Schwarzwald;3;{'type': 'LineString', 'coordinates': [[8.1980508, 48.050654], [8.1980152, 48.0505837], [8.1981379, 48.0505559], [8.1981423, 48.0505646], [8.1981735, 48.0506263], [8.1980508, 48.050654]]};1
1499;14;Albert-Schweitzer-Straße;78120;Furtwangen im Schwarzwald;3;{'type': 'LineString', 'coordinates': [[8.1981904, 48.0502761], [8.1981281, 48.0502286], [8.198053, 48.0501609], [8.1980496, 48.050143], [8.1980737, 48.0501317], [8.1981032, 48.0501358], [8.1981462, 48.0501129], [8.1981334, 48.0501013], [8.1981884, 48.0500739], [8.1982789, 48.0501515], [8.1982293, 48.050177], [8.1982394, 48.0501864], [8.1982085, 48.0502017], [8.1982541, 48.0502407], [8.1981904, 48.0502761]]};1
1500;17;Albert-Schweitzer-Straße;78120;Furtwangen im Schwarzwald;3;{'type': 'LineString', 'coordinates': [[8.1978297, 48.0507377], [8.197954, 48.0507087], [8.1979911, 48.0507796], [8.1978668, 48.0508086], [8.1978609, 48.0507973], [8.1978297, 48.0507377]]};1
1501;15;Albert-Schweitzer-Straße;78120;Furtwangen im Schwarzwald;3;{'type': 'LineString', 'coordinates': [[8.1977035, 48.0507558], [8.1978258, 48.0507291], [8.1978297, 48.0507377], [8.1978609, 48.0507973], [8.1977369, 48.0508243], [8.1977324, 48.0508151], [8.1977035, 48.0507558]]};1
1502;13;Albert-Schweitzer-Straße;78120;Furtwangen im Schwarzwald;3;{'type': 'LineString', 'coordinates': [[8.1976104, 48.0508408], [8.1975779, 48.0507719], [8.1976992, 48.0507464], [8.1977035, 48.0507558], [8.1977324, 48.0508151], [8.1976104, 48.0508408]]};1
1503;11;Albert-Schweitzer-Straße;78120;Furtwangen im Schwarzwald;3;{'type': 'LineString', 'coordinates': [[8.1973922, 48.0509394], [8.1975191, 48.0509144], [8.1975541, 48.0509937], [8.1974272, 48.0510187], [8.1974202, 48.0510027], [8.1973922, 48.0509394]]};1
1504;9;Albert-Schweitzer-Straße;78120;Furtwangen im Schwarzwald;3;{'type': 'LineString', 'coordinates': [[8.1974202, 48.0510027], [8.1973922, 48.0509394], [8.1973884, 48.0509312], [8.1972646, 48.0509559], [8.1973014, 48.0510383], [8.1973368, 48.0510312], [8.1973319, 48.0510203], [8.1974202, 48.0510027]]};1
1505;10;Albert-Schweitzer-Straße;78120;Furtwangen im Schwarzwald;3;{'type': 'LineString', 'coordinates': [[8.1974829, 48.0505745], [8.197435, 48.0505256], [8.1974183, 48.0505329], [8.1973858, 48.0504997], [8.1974441, 48.0504742], [8.1974607, 48.0504912], [8.1976234, 48.05042], [8.1976281, 48.0504248], [8.1976736, 48.0504713], [8.1976872, 48.0504851], [8.1975173, 48.0505594], [8.1974829, 48.0505745]]};1
1506;8;Albert-Schweitzer-Straße;78120;Furtwangen im Schwarzwald;3;{'type': 'LineString', 'coordinates': [[8.197084, 48.0508095], [8.1970265, 48.0507548], [8.1970036, 48.0507341], [8.1969983, 48.0507286], [8.197008, 48.050724], [8.1971369, 48.050663], [8.1971997, 48.0507222], [8.1971217, 48.0507592], [8.1971446, 48.0507807], [8.197084, 48.0508095]]};1
1507;7;Albert-Schweitzer-Straße;78120;Furtwangen im Schwarzwald;3;{'type': 'LineString', 'coordinates': [[8.1970427, 48.0511391], [8.197006, 48.0510668], [8.1970688, 48.0510526], [8.1970754, 48.0510655], [8.1971695, 48.0510441], [8.1972061, 48.0511163], [8.1971017, 48.05114], [8.1970952, 48.0511272], [8.1970427, 48.0511391]]};1
1508;6;Albert-Schweitzer-Straße;78120;Furtwangen im Schwarzwald;3;{'type': 'LineString', 'coordinates': [[8.1967624, 48.0508923], [8.1969455, 48.0507923], [8.1970118, 48.0508434], [8.196745, 48.0509918], [8.1967071, 48.0509767], [8.19665, 48.050948], [8.196723, 48.0509045], [8.1967327, 48.0509113], [8.1967624, 48.0508923]]};1
1509;5;Albert-Schweitzer-Straße;78120;Furtwangen im Schwarzwald;3;{'type': 'LineString', 'coordinates': [[8.1967544, 48.0512283], [8.1967498, 48.0512233], [8.1967929, 48.0512057], [8.1968021, 48.0512157], [8.1968884, 48.0511804], [8.1968977, 48.0511906], [8.1969293, 48.051225], [8.1969506, 48.0512483], [8.1968647, 48.0512835], [8.1968545, 48.0512724], [8.196811, 48.0512902], [8.1967891, 48.0512662], [8.1967544, 48.0512283]]};1
1510;3;Albert-Schweitzer-Straße;78120;Furtwangen im Schwarzwald;3;{'type': 'LineString', 'coordinates': [[8.1964558, 48.0514198], [8.1965479, 48.0513443], [8.1965648, 48.0513535], [8.196624, 48.0513049], [8.1966784, 48.0513345], [8.1966896, 48.0513253], [8.1967397, 48.0513526], [8.1966523, 48.0514243], [8.1966182, 48.0514057], [8.1965432, 48.0514674], [8.1964558, 48.0514198]]};1
1511;13;Auf dem Bühl;78120;Furtwangen im Schwarzwald;3;{'type': 'LineString', 'coordinates': [[8.1976056, 48.0523561], [8.1975715, 48.0523218], [8.1975275, 48.0522774], [8.1975648, 48.0522609], [8.1975543, 48.0522503], [8.1975899, 48.0522346], [8.1976029, 48.0522477], [8.1976483, 48.0522276], [8.1976641, 48.0522435], [8.1976794, 48.0522367], [8.1977065, 48.0522641], [8.1976896, 48.0522715], [8.1977222, 48.0523046], [8.1976056, 48.0523561]]};1
1512;20;Auf dem Bühl;78120;Furtwangen im Schwarzwald;3;{'type': 'LineString', 'coordinates': [[8.1976897, 48.0520497], [8.1977079, 48.0520251], [8.1977403, 48.0520358], [8.1978072, 48.0519452], [8.1978909, 48.0519728], [8.1978666, 48.0520057], [8.1978819, 48.0520107], [8.1978396, 48.052068], [8.1977801, 48.0520484], [8.1977616, 48.0520734], [8.1976897, 48.0520497]]};1
1513;19/1;Auf dem Bühl;78120;Furtwangen im Schwarzwald;3;{'type': 'LineString', 'coordinates': [[8.1979808, 48.0521353], [8.1980206, 48.0520633], [8.1980664, 48.0520747], [8.1980724, 48.0520639], [8.1981511, 48.0520834], [8.1981492, 48.0520868], [8.1981625, 48.0520901], [8.1981117, 48.0521818], [8.198023, 48.0521598], [8.1980298, 48.0521474], [8.1979808, 48.0521353]]};1
1514;19;Auf dem Bühl;78120;Furtwangen im Schwarzwald;3;{'type': 'LineString', 'coordinates': [[8.1983837, 48.0519485], [8.1983025, 48.0519112], [8.1983193, 48.0518948], [8.1982793, 48.0518765], [8.1983428, 48.0518147], [8.1983813, 48.0518323], [8.1983898, 48.0518241], [8.1984725, 48.0518621], [8.1983837, 48.0519485]]};1
1515;18;Auf dem Bühl;78120;Furtwangen im Schwarzwald;3;{'type': 'LineString', 'coordinates': [[8.197943, 48.0518754], [8.1979488, 48.051792], [8.1981172, 48.0517972], [8.1981151, 48.0518416], [8.1981123, 48.0518806], [8.197943, 48.0518754]]};1
1516;12;Auf dem Bühl;78120;Furtwangen im Schwarzwald;3;{'type': 'LineString', 'coordinates': [[8.1978122, 48.0514497], [8.1978612, 48.0513926], [8.1979765, 48.0514368], [8.1979938, 48.0514166], [8.1980788, 48.0514492], [8.1980124, 48.0515265], [8.1978122, 48.0514497]]};1
1517;8;Auf dem Bühl;78120;Furtwangen im Schwarzwald;3;{'type': 'LineString', 'coordinates': [[8.1974614, 48.0514664], [8.197298, 48.0513559], [8.1973927, 48.0512933], [8.1974597, 48.0513386], [8.197492, 48.0513172], [8.1975458, 48.0513535], [8.1974882, 48.0513916], [8.1975309, 48.0514204], [8.1974614, 48.0514664]]};1
1518;6;Auf dem Bühl;78120;Furtwangen im Schwarzwald;3;{'type': 'LineString', 'coordinates': [[8.1969833, 48.0515454], [8.1970569, 48.0514724], [8.1971378, 48.0515088], [8.1971206, 48.051526], [8.1971827, 48.0515538], [8.1972326, 48.0515763], [8.1971762, 48.0516322], [8.1969833, 48.0515454]]};1
1519;2;Auf dem Bühl;78120;Furtwangen im Schwarzwald;3;{'type': 'LineString', 'coordinates': [[8.1967633, 48.0517763], [8.1966634, 48.0517255], [8.1966569, 48.0517313], [8.1966162, 48.0517106], [8.1966598, 48.0516722], [8.1966321, 48.0516582], [8.1967112, 48.0515885], [8.1967904, 48.0516287], [8.1967681, 48.0516483], [8.1968573, 48.0516936], [8.1967633, 48.0517763]]};1
1520;1;Albert-Schweitzer-Straße;78120;Furtwangen im Schwarzwald;3;{'type': 'LineString', 'coordinates': [[8.1962851, 48.051671], [8.1963562, 48.0516085], [8.1963426, 48.0516016], [8.1963784, 48.0515701], [8.1964442, 48.0516036], [8.1964384, 48.0516087], [8.1964831, 48.0516315], [8.1963746, 48.0517269], [8.1963462, 48.0517124], [8.1963537, 48.0517059], [8.1962851, 48.051671]]};1
1521;38;Rabenstraße;78120;Furtwangen im Schwarzwald;3;{'type': 'LineString', 'coordinates': [[8.1959699, 48.0516076], [8.1960073, 48.0515703], [8.1960371, 48.0515836], [8.1959997, 48.0516209], [8.1959699, 48.0516076]]};1
1522;11;Auf dem Bühl;78120;Furtwangen im Schwarzwald;3;{'type': 'LineString', 'coordinates': [[8.1973254, 48.0521576], [8.1972855, 48.0520844], [8.1973589, 48.0520665], [8.1973677, 48.0520825], [8.1974745, 48.0520565], [8.1975159, 48.0521325], [8.1973973, 48.0521614], [8.1973871, 48.0521426], [8.1973254, 48.0521576]]};1
1523;7;Auf dem Bühl;78120;Furtwangen im Schwarzwald;3;{'type': 'LineString', 'coordinates': [[8.1968112, 48.0526283], [8.1967939, 48.0526147], [8.1967884, 48.0526179], [8.196763, 48.0525981], [8.1967689, 48.0525947], [8.1967149, 48.0525526], [8.1967601, 48.0525267], [8.1967824, 48.0525441], [8.1968474, 48.0525068], [8.1968345, 48.0524968], [8.1968594, 48.0524825], [8.1969314, 48.0525387], [8.1969092, 48.0525514], [8.1969246, 48.0525634], [8.1968112, 48.0526283]]};1
1524;5;Auf dem Bühl;78120;Furtwangen im Schwarzwald;3;{'type': 'LineString', 'coordinates': [[8.1964953, 48.0522462], [8.1963206, 48.0521966], [8.1963678, 48.0521224], [8.196513, 48.0521636], [8.1965258, 48.0521434], [8.1966376, 48.0521751], [8.1965917, 48.0522473], [8.1965095, 48.052224], [8.1964953, 48.0522462]]};1
1525;3;Auf dem Bühl;78120;Furtwangen im Schwarzwald;3;{'type': 'LineString', 'coordinates': [[8.1960151, 48.0520759], [8.1959329, 48.0520297], [8.1959406, 48.0520131], [8.1959986, 48.0519757], [8.1960114, 48.0519757], [8.1960605, 48.0519367], [8.1960571, 48.0519266], [8.1960863, 48.0519096], [8.1960954, 48.0519105], [8.1961785, 48.0519571], [8.196088, 48.0520297], [8.1960786, 48.052025], [8.1960151, 48.0520759]]};1
1526;24;Hans-Frank-Straße;78120;Furtwangen im Schwarzwald;3;{'type': 'LineString', 'coordinates': [[8.1981692, 48.0534924], [8.198165, 48.0533809], [8.198023, 48.0533832], [8.198028, 48.053518], [8.19817, 48.0535156], [8.1981692, 48.0534924]]};1
1533;3;Werderstraße;78120;Furtwangen im Schwarzwald;3;{'type': 'LineString', 'coordinates': [[8.2031129, 48.0558001], [8.2032269, 48.0558095], [8.2032447, 48.0557257], [8.2031307, 48.0557163], [8.2031129, 48.0558001]]};1
1542;38;Josef-Dorer-Straße;78120;Furtwangen im Schwarzwald;3;{'type': 'LineString', 'coordinates': [[8.1853558, 48.0485955], [8.1854504, 48.0485669], [8.1853796, 48.0484623], [8.185285, 48.0484909], [8.1853427, 48.0485761], [8.1853558, 48.0485955]]};1
1543;40;Josef-Dorer-Straße;78120;Furtwangen im Schwarzwald;3;{'type': 'LineString', 'coordinates': [[8.1852353, 48.0485862], [8.1852478, 48.0486048], [8.1853427, 48.0485761], [8.185285, 48.0484909], [8.185265, 48.0484613], [8.1851702, 48.0484899], [8.1852353, 48.0485862]]};1
1544;11;Weiherstraße;78120;Furtwangen im Schwarzwald;3;{'type': 'LineString', 'coordinates': [[8.1954867, 48.0476862], [8.195497, 48.0476952], [8.1956274, 48.0476283], [8.1955022, 48.0475191], [8.1953717, 48.047586], [8.1954867, 48.0476862]]};1
1545;20;Josef-Dorer-Straße;78120;Furtwangen im Schwarzwald;3;{'type': 'LineString', 'coordinates': [[8.186228, 48.0481643], [8.1861397, 48.048164], [8.1861388, 48.0482845], [8.1862271, 48.0482848], [8.186228, 48.0481643]]};1
1546;12;Josef-Dorer-Straße;78120;Furtwangen im Schwarzwald;3;{'type': 'LineString', 'coordinates': [[8.1864853, 48.0482693], [8.1865729, 48.0482696], [8.1865739, 48.0481273], [8.1864864, 48.048127], [8.1864853, 48.0482693]]};1
1547;14;Josef-Dorer-Straße;78120;Furtwangen im Schwarzwald;3;{'type': 'LineString', 'coordinates': [[8.1863996, 48.048269], [8.1864853, 48.0482693], [8.1864864, 48.048127], [8.1864006, 48.0481267], [8.1863996, 48.048269]]};1
1548;2;Josef-Dorer-Straße;78120;Furtwangen im Schwarzwald;3;{'type': 'LineString', 'coordinates': [[8.1869804, 48.0482446], [8.1870684, 48.0482446], [8.1870684, 48.0481341], [8.1869804, 48.0481341], [8.1869804, 48.0482446]]};1
1549;4;Josef-Dorer-Straße;78120;Furtwangen im Schwarzwald;3;{'type': 'LineString', 'coordinates': [[8.1868924, 48.0482446], [8.1869804, 48.0482446], [8.1869804, 48.0481341], [8.1868924, 48.0481341], [8.1868924, 48.0482446]]};1
1550;6;Josef-Dorer-Straße;78120;Furtwangen im Schwarzwald;3;{'type': 'LineString', 'coordinates': [[8.1868044, 48.0482446], [8.1868924, 48.0482446], [8.1868924, 48.0481341], [8.1868044, 48.0481341], [8.1868044, 48.0482446]]};1
1551;8;Josef-Dorer-Straße;78120;Furtwangen im Schwarzwald;3;{'type': 'LineString', 'coordinates': [[8.1867164, 48.0482446], [8.1868044, 48.0482446], [8.1868044, 48.0481341], [8.1867164, 48.0481341], [8.1867164, 48.0482446]]};1
1553;2;Laulestraße;78120;Furtwangen im Schwarzwald;3;{'type': 'LineString', 'coordinates': [[8.1969997, 48.0485719], [8.1971016, 48.0485898], [8.1971188, 48.0485462], [8.1970169, 48.0485283], [8.1969997, 48.0485719]]};1
1554;6;Salomon-Siedle-Straße;78120;Furtwangen im Schwarzwald;3;{'type': 'LineString', 'coordinates': [[8.1934526, 48.0433572], [8.1934318, 48.0433322], [8.193503, 48.0433058], [8.1935238, 48.0433308], [8.1934526, 48.0433572]]};1
1555;4;Auf dem Bühl;78120;Furtwangen im Schwarzwald;3;{'type': 'LineString', 'coordinates': [[8.1971679, 48.0518158], [8.1969828, 48.0518104], [8.1969851, 48.0517758], [8.1969004, 48.0517733], [8.1968272, 48.0518357], [8.1969785, 48.0518401], [8.1969747, 48.0518965], [8.1971029, 48.0519003], [8.197104, 48.0518845], [8.1971632, 48.0518863], [8.1971679, 48.0518158]]};1
